name,type,status,latitude,longitude,address,country,zip,timeZone,,addressBroken,cityBroken,stateBroken,,,,,,,,,,
APC1,Storage and Distribution Centers (SDC),Active,38.41232,-121.95661,"920 Eubanks Drive, Vacaville, CA",United States,95688,America/Los_Angeles (UTC:-07:00),,920 Eubanks Drive, Vacaville, CA,,,,,,,,,,
BEK1,Lockers +,Active,37.86911,-122.25977,"2475 Bancroft Way, Berkeley, CA",United States,94720,America/Los_Angeles (UTC:-07:00),,2475 Bancroft Way, Berkeley, CA,,,,,,,,,,
BFL1,AR Sortable,Active,35.44677,-119.0511,"1601 Petrol Road, Bakersfield, CA",United States,93308,America/Los_Angeles (UTC:-07:00),,1601 Petrol Road, Bakersfield, CA, Ismailia Road, Cairo,,,,,,,,
BFL2,Traditional Sortable,Active,35.45877,-119.20021,"4500 Express AVE, Shafter, CA",United States,93263,America/Los_Angeles (UTC:-07:00),,4500 Express AVE, Shafter, CA,,,,,,,,,,
BFL3,SPP,Active,38.7946,-106.53484,"2909 Houghton Rd., Bakersfield, CA",United States,93313,America/Denver (UTC:-06:00),,2909 Houghton Rd., Bakersfield, CA,,,,,,,,,,
BUR2,Lockers +,Active,34.06321,-118.44558,"923-925 Westwood Blvd, Los Angeles, CA",United States,90024,America/Los_Angeles (UTC:-07:00),,923-925 Westwood Blvd, Los Angeles, CA,,,,,,,,,,
BUR33,Office,Active,34.24101,-118.60469,"9410 Topanga Canyon Blvd, Chatsworth, CA",United States,91311,America/Los_Angeles (UTC:-07:00),,9410 Topanga Canyon Blvd, Chatsworth, CA, West Bengal,,,,,,,,,
BUR7,Returns,Active,34.02127,-117.52883,"11200 Iberia Street, Jurupa Valley, CA",United States,91752,America/Los_Angeles (UTC:-07:00),,11200 Iberia Street, Jurupa Valley, CA,, Hooghly, WB,,,,,,,
CAZ5,Sort Center,Active,34.43025,-117.40738,"Phelan Rd, Hesperia, CA",United States,,America/Los_Angeles (UTC:-07:00),,Phelan Rd, Hesperia, CA,, Hooghly, West Bengal,,,,,,,
CNO5,Sort Center,Active,33.98231,-117.61707,"8601 Merrill Avenue, Chino, CA",United States,91710,America/Los_Angeles (UTC:-07:00),,8601 Merrill Avenue, Chino, CA,,,,,,,,,,
CNO8,Storage and Distribution Centers (SDC),Active,34.36371,-118.51725,"21590 Needham Ranch Pkwy, Santa Clarita, CA",United States,91321,America/Los_Angeles (UTC:-07:00),,21590 Needham Ranch Pkwy, Santa Clarita, CA,,,,,,,,,,
CSD1,Lockers +,Active,32.87255,-117.24166,"9165 Scholars Dr S, La Jolla, CA",United States,92093,America/Los_Angeles (UTC:-07:00),,9165 Scholars Dr S, La Jolla, CA,,,,,,,,,,
DAV1,Lockers +,Active,38.54728,-121.71593,"2828 Cowell Blvd, Davis, CA",United States,95618,America/Los_Angeles (UTC:-07:00),,2828 Cowell Blvd, Davis, CA,,,,,,,,,,
DAX3,Delivery Station,Active,34.2398,-118.58546,"20730 Prairie Street, Chatsworth, CA",United States,91311,America/Los_Angeles (UTC:-07:00),,20730 Prairie Street, Chatsworth, CA,,,,,,,,,,
DAX5,Delivery Station,Active,34.01513,-117.95533,"15930 Valley Boulevard, City of Industry, CA",United States,91744,America/Los_Angeles (UTC:-07:00),,15930 Valley Boulevard, City of Industry, CA,,,,,,,,,,
DAX7,Delivery Station,Active,33.94859,-118.17568,"9350 Rayo Avenue, South Gate, CA",United States,90280,America/Los_Angeles (UTC:-07:00),,9350 Rayo Avenue, South Gate, CA,,,,,,,,,,
DAX8,Delivery Station,Active,34.59259,-118.1414,"600 West Technology Drive, Palmdale, CA",United States,93551,America/Los_Angeles (UTC:-07:00),,600 West Technology Drive, Palmdale, CA,,,,,,,,,,
DCA2,Grocery DC,Active,33.99364,-117.55264,"5250 Goodman Way, Eastvale, CA",United States,91752,America/Los_Angeles (UTC:-07:00),,5250 Goodman Way, Eastvale, CA,,,,,,,,,,
DCK1,Delivery Station,Active,37.81275,-121.26028,"2403 West Louise Avenue, Manteca, CA",United States,95337,America/Los_Angeles (UTC:-07:00),,2403 West Louise Avenue, Manteca, CA,,,,,,,,,,
DCK6,Delivery Station,Active,37.74233,-122.399,"749 Toland St, San Francisco, CA",United States,94124,America/Los_Angeles (UTC:-07:00),,749 Toland St, San Francisco, CA,,,,,,,,,,
DCW1,Delivery Station,Idle,33.86143,-118.21036,"3015 East Ana Street, Rancho Dominguez, CA",United States,90221,America/Los_Angeles (UTC:-07:00),,3015 East Ana Street, Rancho Dominguez, CA,,,,,,,,,,
DCW8,Delivery Station,Active,35.33323,-119.04161,"3400-3600 Wilson Rd, Bakersfield, CA",United States,93309,America/Los_Angeles (UTC:-07:00),,3400-3600 Wilson Rd, Bakersfield, CA,,,,,,,,,,
DCX1,Delivery Station,Active,33.95817,-117.45252,"7227 Central Avenue, Riverside, CA",United States,92504,America/Los_Angeles (UTC:-07:00),,7227 Central Avenue, Riverside, CA,,,,,,,,,,
DCX2,Delivery Station,Active,33.62152,-117.67958,"25725 Jeronimo Road, Mission Viejo, CA",United States,92691,America/Los_Angeles (UTC:-07:00),,25725 Jeronimo Road, Mission Viejo, CA,,,,,,,,,,
DCX5,Delivery Station,Active,37.33521,-121.85441,"970 McLaughlin Avenue, San Jose, CA",United States,95122,America/Los_Angeles (UTC:-07:00),,970 McLaughlin Avenue, San Jose, CA, Coimbatore, Tamil Nadu,,,,,,,,
DCX6,Delivery Station,Idle,34.29134,-118.85233,"6000 Condor DR & 6100 Condor DR, Moorpark, CA",United States,93021,America/Los_Angeles (UTC:-07:00),,6000 Condor DR & 6100 Condor DR, Moorpark, CA,,,,,,,,,,
DCX8,Delivery Station,Active,33.85194,-117.975,"1256 North Magnolia Avenue, Anaheim, CA",United States,92801,America/Los_Angeles (UTC:-07:00),,1256 North Magnolia Avenue, Anaheim, CA,,,,,,,,,,
DDO6,Delivery Station,Active,33.80515,-118.33439,"2751 Skypark Drive, Torrance, CA",United States,90505,America/Los_Angeles (UTC:-07:00),,2751 Skypark Drive, Torrance, CA,,,,,,,,,,
DFA5,Delivery Station,Active,37.64981,-122.39326,"400-438 Littlefield Avenue, South San Francisco, CA",United States,94080,America/Los_Angeles (UTC:-07:00),,400-438 Littlefield Avenue, South San Francisco, CA,,,,,,,,,,
DFA8,Delivery Station,Idle,37.3171,-121.86827,"1555 S Seventh St, San Jose, CA",United States,95112,America/Los_Angeles (UTC:-07:00),,1555 S Seventh St, San Jose, CA,,,,,,,,,,
DFA9,Delivery Station,Idle,37.71273,-121.88948,"5160 Hacienda Dr, Dublin, CA",United States,94568,America/Los_Angeles (UTC:-07:00),,5160 Hacienda Dr, Dublin, CA,,,,,,,,,,
DFO2,Delivery Station,Active,38.01072,-121.74845,"4000 Wilbur Ave, Oakley, CA",United States,94561,America/Los_Angeles (UTC:-07:00),,4000 Wilbur Ave, Oakley, CA,,,,,,,,,,
DFO3,Delivery Station,Active,37.70518,-121.70626,"400 Longfellow Court, Livermore, CA",United States,94550,America/Los_Angeles (UTC:-07:00),,400 Longfellow Court, Livermore, CA,,,,,,,,,,
DFO9,Delivery Station,Active,38.20467,-122.26795,"300 Boone Drive, American Canyon, CA",United States,94503,America/Los_Angeles (UTC:-07:00),,300 Boone Drive, American Canyon, CA,,,,,,,,,,
DFX3,Delivery Station,Active,33.94953,-118.38238,"5760 96th Street, Los Angeles, CA",United States,90045,America/Los_Angeles (UTC:-07:00),,5760 96th Street, Los Angeles, CA,,,,,,,,,,
DFX4,Delivery Station,Active,34.47387,-117.33101,"15272 Bear Valley Rd, Victorville, CA",United States,92395,America/Los_Angeles (UTC:-07:00),,15272 Bear Valley Rd, Victorville, CA,,,,,,,,,,
DFX9,Delivery Station,Active,33.74578,-118.03933,"14952 Bolsa Chica St, Huntington Beach, CA",United States,92647,America/Los_Angeles (UTC:-07:00),,14952 Bolsa Chica St, Huntington Beach, CA,,,,,,,,,,
DGB6,Delivery Station,Idle,33.13428,-117.23137,"3266 Lionshead Avenue, Carlsbad, CA",United States,92010,America/Los_Angeles (UTC:-07:00),,3266 Lionshead Avenue, Carlsbad, CA,,,,,,,,,,
DIB2,Delivery Station,Idle,32.723,-116.9644,"2500 Sweetwater Springs Boulevard, Spring Valley, CA",United States,91978,America/Los_Angeles (UTC:-07:00),,2500 Sweetwater Springs Boulevard, Spring Valley, CA,,,,,,,,,,
DIB5,Delivery Station,Active,32.65368,-116.95876,"860 Harold Place, Chula Vista, CA",United States,91914,America/Los_Angeles (UTC:-07:00),,860 Harold Place, Chula Vista, CA,,,,,,,,,,
DIB6,Delivery Station,Active,34.08329,-117.23501,"1895 Marigold Ave, Redlands, CA",United States,92374,America/Los_Angeles (UTC:-07:00),,1895 Marigold Ave, Redlands, CA,,,,,,,,,,
DIB7,Delivery Station,Active,32.65602,-116.96721,"2311 Boswell Rd, Chula Vista, CA",United States,91914,America/Los_Angeles (UTC:-07:00),,2311 Boswell Rd, Chula Vista, CA,,,,,,,,,,
DJC5,Delivery Station,Active,36.87928,-121.40219,"1500 Citation Way, Hollister, CA",United States,95023,America/Los_Angeles (UTC:-07:00),,1500 Citation Way, Hollister, CA, MG,,,,,,,,,
DJT4,Delivery Station,Active,33.91534,-117.85044,"275 Valencia Ave, Brea, CA",United States,92823,America/Los_Angeles (UTC:-07:00),,275 Valencia Ave, Brea, CA,,,,,,,,,,
DJT6,Delivery Station,Active,33.88286,-117.29426,"20920 Krameria Ave, Riverside, CA",United States,92518,America/Los_Angeles (UTC:-07:00),,20920 Krameria Ave, Riverside, CA,,,,,,,,,,
DJW8,Delivery Station,Active,33.78963,-116.45684,"35750 Date Palm Dr, Cathedral City, CA",United States,92234,America/Los_Angeles (UTC:-07:00),,35750 Date Palm Dr, Cathedral City, CA, Kochi, Kerala,,,,,,,,
DLA5,Delivery Station,Active,33.93788,-117.29741,"6250 Sycamore Canyon Boulevard, Riverside, CA",United States,92507,America/Los_Angeles (UTC:-07:00),,6250 Sycamore Canyon Boulevard, Riverside, CA,,,,,,,,,,
DLA8,Delivery Station,Active,33.91797,-118.32487,"2815 West El Segundo Boulevard, Hawthorne, CA",United States,90250,America/Los_Angeles (UTC:-07:00),,2815 West El Segundo Boulevard, Hawthorne, CA,,,,,,,,,,
DLX1,Delivery Station,Active,33.93718,-118.08018,"11811-11831 East Florence Avenue, Santa Fe Springs, CA",United States,90670,America/Los_Angeles (UTC:-07:00),,11811-11831 East Florence Avenue, Santa Fe Springs, CA,,,,,,,,,,
DLX5,Delivery Station,Active,34.1392,-118.27035,"4841 W San Fernando Rd, Los Angeles, CA",United States,90039,America/Los_Angeles (UTC:-07:00),,4841 W San Fernando Rd, Los Angeles, CA,,,,,,,,,,
DLX7,Delivery Station,Active,33.80114,-118.02119,"6450 Katella Ave, Cypress, CA",United States,90630,America/Los_Angeles (UTC:-07:00),,6450 Katella Ave, Cypress, CA, Tokyo,,,,,,,,,
DLX8,Delivery Station,Active,33.70952,-117.86216,"515 East Dyer Road, Santa Ana, CA",United States,92707,America/Los_Angeles (UTC:-07:00),,515 East Dyer Road, Santa Ana, CA,,,,,,,,,,
DLX9,Delivery Station,Active,33.98468,-118.39873,"5750 Mesmer Avenue, Los Angeles, CA",United States,90230,America/Los_Angeles (UTC:-07:00),,5750 Mesmer Avenue, Los Angeles, CA,,,,,,,,,,
DOT4,Delivery Station,Active,34.21882,-119.0291,"3001 & 3175 Mission Oaks Boulevard, Camarillo, CA",United States,93012,America/Los_Angeles (UTC:-07:00),,3001 & 3175 Mission Oaks Boulevard, Camarillo, CA,,,,,,,,,,
DOT8,Delivery Station,Active,37.70392,-122.13967,"100 & 200 Halcyon Drive, San Leandro, CA",United States,94578,America/Los_Angeles (UTC:-07:00),,100 & 200 Halcyon Drive, San Leandro, CA,,,,,,,,,,
DPS1,Delivery Station,Active,34.08556,-118.06099,"4187 Temple City Boulevard, El Monte, CA",United States,91731,America/Los_Angeles (UTC:-07:00),,4187 Temple City Boulevard, El Monte, CA,,,,,,,,,,
DPS2,Delivery Station,Active,34.28437,-118.78833,"400 National Way, Simi Valley, CA",United States,93065,America/Los_Angeles (UTC:-07:00),,400 National Way, Simi Valley, CA,,,,,,,,,,
DPS3,Delivery Station,Active,34.20388,-118.92908,"2405 Conejo Spectrum St, Thousand Oaks, CA",United States,91320,America/Los_Angeles (UTC:-07:00),,2405 Conejo Spectrum St, Thousand Oaks, CA,,,,,,,,,,
DPS6,Delivery Station,Active,34.26927,-118.71787,"1757 Tapo Canyon Road, Simi Valley, CA",United States,93063,America/Los_Angeles (UTC:-07:00),,1757 Tapo Canyon Road, Simi Valley, CA,,,,,,,,,,
DSD1,Delivery Station,Active,33.01878,-117.09152,"16550 Via Esprillo, San Diego, CA",United States,92127,America/Los_Angeles (UTC:-07:00),,16550 Via Esprillo, San Diego, CA,,,,,,,,,,
DSD2,Delivery Station,Active,33.13145,-117.2562,"2777 Loker Avenue West, Carlsbad, CA",United States,92010,America/Los_Angeles (UTC:-07:00),,2777 Loker Avenue West, Carlsbad, CA,,,,,,,,,,
DSD4,Delivery Station,Active,32.83867,-117.13865,"5650 Kearny Mesa Rd, San Diego, CA",United States,92111,America/Los_Angeles (UTC:-07:00),,5650 Kearny Mesa Rd, San Diego, CA,,,,,,,,,,
DSD5,Delivery Station,Active,33.13337,-117.22743,"3250 Business Park Drive, Vista, CA",United States,92081,America/Los_Angeles (UTC:-07:00),,3250 Business Park Drive, Vista, CA,,,,,,,,,,
DSD6,Delivery Station,Active,32.81895,-117.15237,"7995 Armour Street, San Diego, CA",United States,92111,America/Los_Angeles (UTC:-07:00),,7995 Armour Street, San Diego, CA,,,,,,,,,,
DSD8,Delivery Station,Active,32.94055,-117.01705,"14400-14500 Kirkham Way, Poway, CA",United States,92064,America/Los_Angeles (UTC:-07:00),,14400-14500 Kirkham Way, Poway, CA,,,,,,,,,,
DSF5,Delivery Station,Active,37.64649,-122.39753,"250 Utah Avenue, South San Francisco, CA",United States,94080,America/Los_Angeles (UTC:-07:00),,250 Utah Avenue, South San Francisco, CA,,,,,,,,,,
DSF7,Delivery Station,Active,37.43948,-121.92445,"807 North McCarthy Boulevard, Milpitas, CA",United States,95035,America/Los_Angeles (UTC:-07:00),,807 North McCarthy Boulevard, Milpitas, CA,,,,,,,,,,
DSF8,Delivery Station,Active,38.00079,-122.34812,"2995 Atlas Road, Richmond, CA",United States,94806,America/Los_Angeles (UTC:-07:00),,2995 Atlas Road, Richmond, CA,,,,,,,,,,
DSF9,Delivery Station,Idle,37.63506,-122.40932,"1000 San Mateo Ave, San Bruno, CA",United States,94066,America/Los_Angeles (UTC:-07:00),,1000 San Mateo Ave, San Bruno, CA,,,,,,,,,,
DSJ5,Delivery Station,Active,36.75518,-119.70492,"5440 East Olive Ave, Fresno, CA",United States,93727,America/Los_Angeles (UTC:-07:00),,5440 East Olive Ave, Fresno, CA,,,,,,,,,,
DSJ6,Delivery Station,Active,37.6524,-122.14244,"2701 W Winton Ave, Hayward, CA",United States,94545,America/Los_Angeles (UTC:-07:00),,2701 W Winton Ave, Hayward, CA,,,,,,,,,,
DSJ7,Delivery Station,Idle,37.36302,-121.86672,"615 North King Road, San Jose, CA",United States,95133,America/Los_Angeles (UTC:-07:00),,615 North King Road, San Jose, CA, Aichi,,,,,,,,,
DSJ9,Delivery Station,Active,37.76173,-122.21052,"5800 Coliseum Way, Oakland, CA",United States,94621,America/Los_Angeles (UTC:-07:00),,5800 Coliseum Way, Oakland, CA, Aichi,,,,,,,,,
DSM4,Delivery Station,Active,38.54465,-121.5795,"3620 Ramos Drive, West Sacramento, CA",United States,95691,America/Los_Angeles (UTC:-07:00),,3620 Ramos Drive, West Sacramento, CA,,,,,,,,,,
DSR2,Delivery Station,Active,38.77983,-121.31298,"7601 Foothills Boulevard, Roseville, CA",United States,95747,America/Los_Angeles (UTC:-07:00),,7601 Foothills Boulevard, Roseville, CA,,,,,,,,,,
DSR4,Delivery Station,Active,38.38639,-121.36523,"9051 Union Park Way, Elk Grove, CA",United States,95624,America/Los_Angeles (UTC:-07:00),,9051 Union Park Way, Elk Grove, CA,,,,,,,,,,
DSR6,Delivery Station,Active,38.64114,-121.40687,"2400 McClellan Park Drive, McClellan, CA",United States,95652,America/Los_Angeles (UTC:-07:00),,2400 McClellan Park Drive, McClellan, CA,,,,,,,,,,
DUR1,Delivery Station,Active,34.20138,-118.3511,"3081 & 3770 Tulare Avenue and 2815 & 2995 North Hollywood Way, Burbank, CA",United States,91504,America/Los_Angeles (UTC:-07:00),,3081 & 3770 Tulare Avenue and 2815 & 2995 North Hollywood Way, Burbank, CA,,,,,,,,,,
DUR2_TENANT1,SPP,Active,33.75166,-117.85145,"625 N Grand Avenue, Santa Ana, CA",United States,92701,America/Los_Angeles (UTC:-07:00),,625 N Grand Avenue, Santa Ana, CA,,,,,,,,,,
DUR3,Delivery Station,Active,37.43177,-121.9247,"224 N. McCarthy Blvd., Milpitas, CA",United States,95035,America/Los_Angeles (UTC:-07:00),,224 N. McCarthy Blvd., Milpitas, CA,,,,,,,,,,
DUR9,Delivery Station,Active,33.50735,-117.16372,"27711 and 27719 Diaz Road, Temecula, CA",United States,92590,America/Los_Angeles (UTC:-07:00),,27711 and 27719 Diaz Road, Temecula, CA,,,,,,,,,,
DXC3,Delivery Station,Active,33.852,-117.84679,"3370 E La Palma Ave, Anaheim, CA",United States,92806,America/Los_Angeles (UTC:-07:00),,3370 E La Palma Ave, Anaheim, CA,,,,,,,,,,
DXC8,Delivery Station,Active,37.30753,-121.87216,"1710 Little Orchard Street, San Jose, CA",United States,95125,America/Los_Angeles (UTC:-07:00),,1710 Little Orchard Street, San Jose, CA,,,,,,,,,,
FAT1,AR Sortable,Active,36.68291,-119.76563,"3575 South Orange Avenue, Fresno, CA",United States,93725,America/Los_Angeles (UTC:-07:00),,3575 South Orange Avenue, Fresno, CA,,,,,,,,,,
FAT2,Traditional Non-Sort,Active,36.35983,-119.38767,"3315 N. Kelsey Street, Visalia, CA",United States,93291,America/Los_Angeles (UTC:-07:00),,3315 N. Kelsey Street, Visalia, CA,,,,,,,,,,
FAT5,Warehouse,Active,36.68154,-119.76919,"3611 S. Northpointe Dr, Fresno, CA",United States,93725,America/Los_Angeles (UTC:-07:00),,3611 S. Northpointe Dr, Fresno, CA,,,,,,,,,,
HCA8,AR Sortable,Active,37.74568,-121.40601,"1555 North Chrisman Road, Tracy, CA",United States,95304,America/Los_Angeles (UTC:-07:00),,1555 North Chrisman Road, Tracy, CA,,,,,,,,,,
HFA2,AMXL,Active,36.68444,-119.76857,"3523 S Northpointe Dr, Fresno, CA",United States,93725,America/Los_Angeles (UTC:-07:00),,3523 S Northpointe Dr, Fresno, CA,,,,,,,,,,
HLA1,AMXL,Active,33.88006,-118.00717,"5650 Dolly Avenue, Buena Park, CA",United States,90621,America/Los_Angeles (UTC:-07:00),,5650 Dolly Avenue, Buena Park, CA,,,,,,,,,,
HLA2,AMXL,Active,34.35776,-118.51447,"21420 Needham Ranch Parkway, Santa Clarita, CA",United States,91321,America/Los_Angeles (UTC:-07:00),,21420 Needham Ranch Parkway, Santa Clarita, CA, Siero,,,,,,,,,
HLA3,AMXL,Active,33.85,-117.22314,"4375 North Perris Boulevard, Perris, CA",United States,92571,America/Los_Angeles (UTC:-07:00),,4375 North Perris Boulevard, Perris, CA,,,,,,,,,,
HLA6,SSD DC,Active,36.36719,-119.38795,"8817 W KIBLER AVE, VISALIA, CA",United States,93291,America/Los_Angeles (UTC:-07:00),,8817 W KIBLER AVE, VISALIA, CA,,,,,,,,,,
HLA8,AMXL,Active,34.35776,-118.51447,"21420 Needham Ranch Parkway, Santa Clarita, CA",United States,91321,America/Los_Angeles (UTC:-07:00),,21420 Needham Ranch Parkway, Santa Clarita, CA,,,,,,,,,,
HLI2,IXD,Active,36.90088,-121.41017,"600 Ernie Drive, Hollister, CA",United States,,America/Los_Angeles (UTC:-07:00),,600 Ernie Drive, Hollister, CA,,,,,,,,,,
HLX1,Delivery Station,Active,33.65782,-117.70853,"14300 Alton Parkway, Irvine, CA",United States,92618,America/Los_Angeles (UTC:-07:00),,14300 Alton Parkway, Irvine, CA,,,,,,,,,,
HSD2,AMXL,Active,32.56154,-116.96787,"8150 Airway Rd, San Diego, CA",United States,92154,America/Los_Angeles (UTC:-07:00),,8150 Airway Rd, San Diego, CA,,,,,,,,,,
HSF2,AMXL,Active,37.50945,-121.94071,"44051 Osgood Road, Fremont, CA",United States,94539,America/Los_Angeles (UTC:-07:00),,44051 Osgood Road, Fremont, CA,,,,,,,,,,
HSF3,AMXL,Active,38.41458,-121.9489,"4800 Midway Road, Vacaville, CA",United States,95688,America/Los_Angeles (UTC:-07:00),,4800 Midway Road, Vacaville, CA,,,,,,,,,,
HSF6,SSD DC,Idle,38.71306,-121.56682,"8035 Metro Air Pkwy, Sacramento, CA",United States,95835,America/Los_Angeles (UTC:-07:00),,8035 Metro Air Pkwy, Sacramento, CA,,,,,,,,,,
HSF9,AMXL,Active,37.50945,-121.94071,"44051 Osgood Road, Fremont, CA",United States,94539,America/Los_Angeles (UTC:-07:00),,44051 Osgood Road, Fremont, CA,,,,,,,,,,
HSM1,AMXL,Active,38.54384,-121.57676,"3640 Ramos Drive, West Sacramento, CA",United States,95691,America/Los_Angeles (UTC:-07:00),,3640 Ramos Drive, West Sacramento, CA,,,,,,,,,,
ILS1,Go,Active,33.95619,-118.01966,"14249 Whittier Blvd, Whittier, CA",United States,90605,America/Los_Angeles (UTC:-07:00),,14249 Whittier Blvd, Whittier, CA,,,,,,,,,,
ILS2,Go,Active,34.16881,-118.60619,"22001 Ventura Blvd, Woodland Hills, CA",United States,91364,America/Los_Angeles (UTC:-07:00),,22001 Ventura Blvd, Woodland Hills, CA,,,,,,,,,,
ILS3,Go,Active,33.8261,-118.35236,"22135 Hawthorne Blvd, Torrance, CA",United States,90505,America/Los_Angeles (UTC:-07:00),,22135 Hawthorne Blvd, Torrance, CA,,,,,,,,,,
IRV1,Lockers +,Active,33.64999,-117.8392,"4141 Campus Drive, Irvine, CA",United States,92612,America/Los_Angeles (UTC:-07:00),,4141 Campus Drive, Irvine, CA,,,,,,,,,,
ISF4,Go,Active,37.79482,-122.39735,"Three Embarcadero Center, San Francisco, CA",United States,94111,America/Los_Angeles (UTC:-07:00),,Three Embarcadero Center, San Francisco, CA,,,,,,,,,,
IUSJ,Kariba,Active,33.93099,-117.02977,"36900 W. Fourth Street, Beaumont, CA",United States,92223,America/Los_Angeles (UTC:-07:00),,36900 W. Fourth Street, Beaumont, CA,,,,,,,,,,
IUSQ,Warehouse,Active,34.07572,-117.22834,"2125 W San Bernardino Ave, Redlands, CA",United States,92374,America/Los_Angeles (UTC:-07:00),,2125 W San Bernardino Ave, Redlands, CA,,,,,,,,,,
KIO1,Retail,Active,33.7199,-117.7924,"13672 Jamboree Rd, Irvine, CA",United States,13672,America/Los_Angeles (UTC:-07:00),,13672 Jamboree Rd, Irvine, CA,,,,,,,,,,
KRB4,Storage and Distribution Centers (SDC),Active,33.85001,-117.2503,"4501 Patterson Avenue, Perris, CA",United States,92571,America/Los_Angeles (UTC:-07:00),,4501 Patterson Avenue, Perris, CA,,,,,,,,,,
KRIV,Amazon Air,Active,33.87329,-117.24708,"17101 Heacock Street, Moreno Valley, CA",United States,92551,America/Los_Angeles (UTC:-07:00),,17101 Heacock Street, Moreno Valley, CA,,,,,,,,,,
KSCK,Amazon Air,Active,37.90184,-121.24227,"4725 S. B Street, Stockton, CA",United States,95206,America/Los_Angeles (UTC:-07:00),,4725 S. B Street, Stockton, CA,,,,,,,,,,
KSMF,Amazon Air,Active,38.71234,-121.60226,"Sacramento International Airport, Sacramento, CA",United States,95837,America/Los_Angeles (UTC:-07:00),,Sacramento International Airport, Sacramento, CA,,,,,,,,,,
LAX5,Sort Center,Active,33.86748,-118.02739,"6400 Valley View Street, Buena Park, CA",United States,90620,America/Los_Angeles (UTC:-07:00),,6400 Valley View Street, Buena Park, CA,,,,,,,,,,
LAX59,Office,Active,34.14144,-118.15063,"257 S. Fair Oaks Ave, Pasadena, CA",United States,91105,America/Los_Angeles (UTC:-07:00),,257 S. Fair Oaks Ave, Pasadena, CA,,,,,,,,,,
LAX9,IXD,Active,34.05113,-117.44655,"11263 Oleander Avenue, Fontana, CA",United States,92337,America/Los_Angeles (UTC:-07:00),,11263 Oleander Avenue, Fontana, CA,,,,,,,,,,
LCA6,Lockers +,Active,32.74969,-117.201,"2727 Kurtz Street, San Diego, CA",United States,92110,America/Los_Angeles (UTC:-07:00),,2727 Kurtz Street, San Diego, CA,,,,,,,,,,
LGB2,Lockers +,Active,33.78017,-118.11464,"6049 East 7th Street, Long Beach, CA",United States,90840,America/Los_Angeles (UTC:-07:00),,6049 East 7th Street, Long Beach, CA,,,,,,,,,,
LGB3,AR Sortable,Active,33.99836,-117.5527,"4950 Goodman Way, Eastvale, CA",United States,91752,America/Los_Angeles (UTC:-07:00),,4950 Goodman Way, Eastvale, CA,,,,,,,,,,
LGB4,Traditional Non-Sort,Active,34.07958,-117.20367,"27517 Pioneer Avenue, Redlands, CA",United States,92374,America/Los_Angeles (UTC:-07:00),,27517 Pioneer Avenue, Redlands, CA,,,,,,,,,,
LGB5,Sort Center,Active,34.0782,-117.27344,"555 East Orange Show Road, San Bernardino, CA",United States,92408,America/Los_Angeles (UTC:-07:00),,555 East Orange Show Road, San Bernardino, CA,,,,,,,,,,
LGB6,Traditional Non-Sort,Active,33.87984,-117.29933,"20901 Krameria Avenue, Riverside, CA",United States,92518,America/Los_Angeles (UTC:-07:00),,20901 Krameria Avenue, Riverside, CA,,,,,,,,,,
LGB7,AR Sortable,Active,34.13195,-117.40531,"1660 N. Linden Avenue, Rialto, CA",United States,92376,America/Los_Angeles (UTC:-07:00),,1660 N. Linden Avenue, Rialto, CA,,,,,,,,,,
LGB8,IXD,Active,34.12961,-117.40534,"1568 N. Linden Avenue, Rialto, CA",United States,92377,America/Los_Angeles (UTC:-07:00),,1568 N. Linden Avenue, Rialto, CA,,,,,,,,,,
LGB9,AMXL,Active,33.85,-117.22314,"4375 North Perris Boulevard, Perris, CA",United States,92571,America/Los_Angeles (UTC:-07:00),,4375 North Perris Boulevard, Perris, CA,,,,,,,,,,
LOAK8,SPP,Idle,37.67366,-121.85099,"3000 Busch Rd, Pleasanton, CA",United States,94566,America/Los_Angeles (UTC:-07:00),,3000 Busch Rd, Pleasanton, CA,,,,,,,,,,
LPMDa (fka PMD3),SPP,Active,34.7345,-117.89884,"Ave G Industrial, Lancaster, CA",United States,93535,America/Los_Angeles (UTC:-07:00),,Ave G Industrial, Lancaster, CA,,,,,,,,,,
LSB1,Lockers +,Active,34.06937,-117.43693,"16843 Valley Blvd, Fontana, CA",United States,92335,America/Los_Angeles (UTC:-07:00),,16843 Valley Blvd, Fontana, CA,,,,,,,,,,
LSD5,Lockers +,Active,32.7066,-117.14516,"2040 Imperial Avenue, San Diego, CA",United States,92102,America/Los_Angeles (UTC:-07:00),,2040 Imperial Avenue, San Diego, CA,,,,,,,,,,
LSJC2,SPP,Idle,37.41838,-121.89159,"1001 Gibraltar Dr, Milpitas, CA",United States,95035,America/Los_Angeles (UTC:-07:00),,1001 Gibraltar Dr, Milpitas, CA,,,,,,,,,,
MAB1,AFS US,Active,34.13892,-118.60105,"6245 N Topanga Canyon Blvd, Woodland Hills, CA",United States,91367,America/Los_Angeles (UTC:-07:00),,6245 N Topanga Canyon Blvd, Woodland Hills, CA,,,,,,,,,,
MAB1_TEMP STORAGE,AFS US,Active,34.18421,-118.60709,"6245 Topanga Canyon Boulevard, Los Angeles, CA",United States,91367,America/Los_Angeles (UTC:-07:00),,6245 Topanga Canyon Boulevard, Los Angeles, CA,,,,,,,,,,
MAB1-KIO1,Retail,Active,34.18421,-118.60709,"6245 Topanga Canyon Blvd, Woodland Hills, CA",United States,91367,America/Los_Angeles (UTC:-07:00),,6245 Topanga Canyon Blvd, Woodland Hills, CA,,,,,,,,,,
MAB4,AFS US,Active,34.16322,-118.37405,"5101 Lankershim Blvd, North Hollywood, CA",United States,91601,America/Los_Angeles (UTC:-07:00),,5101 Lankershim Blvd, North Hollywood, CA,,,,,,,,,,
MAB5,AFS US,Active,34.27347,-118.55495,"19340 Rinaldi Street, Northridge, CA",United States,91326,America/Los_Angeles (UTC:-07:00),,19340 Rinaldi Street, Northridge, CA, Maspeth, NY,,,,,,,,
MAB8,AFS US,Active,33.71696,-118.0079,"6911 Warner Avenue, Huntington Beach, CA",United States,92647,America/Los_Angeles (UTC:-07:00),,6911 Warner Avenue, Huntington Beach, CA,,,,,,,,,,
MAB9,AFS US,Active,33.7199,-117.7924,"13672 Jamboree Road, Irvine, CA",United States,92602,America/Los_Angeles (UTC:-07:00),,13672 Jamboree Road, Irvine, CA,,,,,,,,,,
MAB9- KIO1,Retail,Active,33.7199,-117.7924,"13672 Jamboree Rd, Irvine, CA",United States,13672,America/Los_Angeles (UTC:-07:00),,13672 Jamboree Rd, Irvine, CA,,,,,,,,,,
MAC0,AFS US,Active,33.56185,-117.66796,"26940 Crown Valley Parkway, Mission Viejo, CA",United States,92691,America/Los_Angeles (UTC:-07:00),,26940 Crown Valley Parkway, Mission Viejo, CA,,,,,,,,,,
MAC2,AFS US,Active,33.86087,-117.92142,"1100 South Harbor Boulevard, Fullerton, CA",United States,92832,America/Los_Angeles (UTC:-07:00),,1100 South Harbor Boulevard, Fullerton, CA,,,,,,,,,,
MAC3,AFS US,Active,34.11387,-117.76253,"2229 Foothill Blvd, La Verne, CA",United States,91750,America/Los_Angeles (UTC:-07:00),,2229 Foothill Blvd, La Verne, CA,,,,,,,,,,
MAC4,AFS US,Active,33.91559,-117.96462,"1610 W Imperial Hwy, La Habra, CA",United States,90631,America/Los_Angeles (UTC:-07:00),,1610 W Imperial Hwy, La Habra, CA,,,,,,,,,,
MAC9,AFS US,Active,33.81094,-118.11003,"6235 East Spring Street, Long Beach, CA",United States,90808,America/Los_Angeles (UTC:-07:00),,6235 East Spring Street, Long Beach, CA,,,,,,,,,,
MAE6,AFS US,Active,33.94801,-118.00223,"15225 Whittier Boulevard, Whittier, CA",United States,90603,America/Los_Angeles (UTC:-07:00),,15225 Whittier Boulevard, Whittier, CA,,,,,,,,,,
MAF3,AFS US,Active,34.15763,-118.48969,"16325 Ventura Boulevard, Encino, CA",United States,91436,America/Los_Angeles (UTC:-07:00),,16325 Ventura Boulevard, Encino, CA,,,,,,,,,,
MAF4,AFS US,Active,34.15876,-118.82088,"140 Promenade Way, Thousand Oaks, CA",United States,91362,America/Los_Angeles (UTC:-07:00),,140 Promenade Way, Thousand Oaks, CA,,,,,,,,,,
MAF5,AFS US,Active,34.10707,-117.64804,"235 E Foothill Blvd, Upland, CA",United States,91786,America/Los_Angeles (UTC:-07:00),,235 E Foothill Blvd, Upland, CA,,,,,,,,,,
MAF8,AFS US,Active,33.83899,-118.35529,"21035 Hawthorne Blvd, Torrance, CA",United States,90503,America/Los_Angeles (UTC:-07:00),,21035 Hawthorne Blvd, Torrance, CA,  Graviton Park, Crabtree Manorway North, Belvedere,,,,,,,
MAF9,AFS US,Active,33.85722,-118.09164,"11340 South St, Cerritos, CA",United States,90703,America/Los_Angeles (UTC:-07:00),,11340 South St, Cerritos, CA,,,,,,,,,,
MAG1,AFS US,Active,33.97581,-118.37058,"6855 S. La Cienega Blvd., Los Angeles, CA",United States,90045,America/Los_Angeles (UTC:-07:00),,6855 S. La Cienega Blvd., Los Angeles, CA,,,,,,,,,,
MAH8,AFS US,Active,33.55764,-117.1795,"40481 Murrieta Hot Springs Rd, Murrieta, CA",United States,92563,America/Los_Angeles (UTC:-07:00),,40481 Murrieta Hot Springs Rd, Murrieta, CA,,,,,,,,,,
MAI8,AFS US,Active,32.98123,-117.06071,"14837 Pomerado, Poway, CA",United States,92064,America/Los_Angeles (UTC:-07:00),,14837 Pomerado, Poway, CA, Part B, Brasilia, DF,,,,,,,
MAJ8,Warehouse,Active,33.81881,-117.52123,"3941 Bedford Canyon Road, Corona, CA",United States,92883,America/Los_Angeles (UTC:-07:00),,3941 Bedford Canyon Road, Corona, CA,,,,,,,,,,
MAK9,AFS US,Active,34.14695,-118.08057,"3405 East Colorado Boulevard, Pasadena, CA",United States,91107,America/Los_Angeles (UTC:-07:00),,3405 East Colorado Boulevard, Pasadena, CA,,,,,,,,,,
MAK9-KIO1,AFS US,Active,34.14674,-118.08063,"3425 E Colorado Blvd, Pasadena, CA",United States,91107,America/Los_Angeles (UTC:-07:00),,3425 E Colorado Blvd, Pasadena, CA,,,,,,,,,,
MAM7,AFS US,Active,34.27781,-118.86949,"742 New Los Angeles Ave, MoorPark, CA",United States,93201,America/Los_Angeles (UTC:-07:00),,742 New Los Angeles Ave, MoorPark, CA,,,,,,,,,,
MAM9,AFS US,Active,38.40779,-121.41553,"7530 Elk Grove Boulevard, Elk Grove, CA",United States,95757,America/Los_Angeles (UTC:-07:00),,7530 Elk Grove Boulevard, Elk Grove, CA,,,,,,,,,,
MAO6,AFS US,Active,34.13969,-117.45344,"Citrus Crossroads, Fontana, CA",United States,92336,America/Los_Angeles (UTC:-07:00),,Citrus Crossroads, Fontana, CA,,,,,,,,,,
MAQ5,AFS US,Active,38.61041,-121.38286,"Watt Avenue and El Camino Avenue, Sacramento, CA",United States,95825,America/Los_Angeles (UTC:-07:00),,Watt Avenue and El Camino Avenue, Sacramento, CA,,,,,,,,,,
MAQ8,AFS US,Active,38.66574,-121.27366,"5425 Sunrise Blvd., Citrus Heights, CA",United States,95610,America/Los_Angeles (UTC:-07:00),,5425 Sunrise Blvd., Citrus Heights, CA,,,,,,,,,,
MAQ9,AFS US,Active,38.79665,-121.26411,"Stanford Ranch Crossing, Roseville, CA",United States,95678,America/Los_Angeles (UTC:-07:00),,Stanford Ranch Crossing, Roseville, CA,,,,,,,,,,
MAT4,AFS US,Active,34.22061,-119.05204,"453 CARMEN DRIVE, CAMARILLO, CA",United States,93010,America/Los_Angeles (UTC:-07:00),,453 CARMEN DRIVE, CAMARILLO, CA,,,,,,,,,,
MAT6,AFS US,Active,33.73756,-116.40639,"42420 Bob Hope Drive, Rancho Mirage, CA",United States,92270,America/Los_Angeles (UTC:-07:00),,42420 Bob Hope Drive, Rancho Mirage, CA,,,,,,,,,,
MAW0,AFS US,Active,33.7079,-116.28914,"78945 HWY 111, LA QUINTA, CA",United States,92253,America/Los_Angeles (UTC:-07:00),,78945 HWY 111, LA QUINTA, CA,,,,,,,,,,
MAW3,AFS US,Active,37.83386,-122.29292,"5603 Bay St, Emeryville, CA",United States,94608,America/Los_Angeles (UTC:-07:00),,5603 Bay St, Emeryville, CA,,,,,,,,,,
MAW3_SUBLEASE,AFS US,Active,37.83386,-122.29292,"5603 Bay Street, Emeryville, CA",United States,94608,America/Los_Angeles (UTC:-07:00),,5603 Bay Street, Emeryville, CA,,,,,,,,,,
MAX2,AFS US,Active,34.28291,-118.71934,"2631 TAPO CANYON RD, SIMI VALLEY, CA",United States,93063,America/Los_Angeles (UTC:-07:00),,2631 TAPO CANYON RD, SIMI VALLEY, CA,,,,,,,,,,
MBA6,AFS US,Active,33.70102,-117.95226,"18060 & 18100 Brookhurst Street, Fountain Valley, CA",United States,92708,America/Los_Angeles (UTC:-07:00),,18060 & 18100 Brookhurst Street, Fountain Valley, CA,,,,,,,,,,
MCC1,IXD,Active,38.58193,-121.25488,"3300 Rancho Cordova Pkwy, Rancho Cordova, CA",United States,95742,America/Los_Angeles (UTC:-07:00),,3300 Rancho Cordova Pkwy, Rancho Cordova, CA,,,,,,,,,,
MCE1,Traditional Non-Sort,Active,37.5038,-120.88772,"3200 Fulkerth Road, Turlock, CA",United States,95380,America/Los_Angeles (UTC:-07:00),,3200 Fulkerth Road, Turlock, CA,,,,,,,,,,
MIT2,IXD,Active,35.4595,-119.18248,"5408 Express Avenue, Shafter, CA",United States,93263,America/Los_Angeles (UTC:-07:00),,5408 Express Avenue, Shafter, CA,,,,,,,,,,
OAK3,AR Non Sortable,Active,37.46883,-121.16651,"255 Park Center Drive, Patterson, CA",United States,95363,America/Los_Angeles (UTC:-07:00),,255 Park Center Drive, Patterson, CA,,,,,,,,,,
OAK4,AR Sortable,Active,37.74568,-121.40601,"1555 North Chrisman Road, Tracy, CA",United States,95304,America/Los_Angeles (UTC:-07:00),,1555 North Chrisman Road, Tracy, CA,,,,,,,,,,
OAK5,Sort Center,Active,37.51969,-122.01547,"38811 Cherry Street, Newark, CA",United States,94560,America/Los_Angeles (UTC:-07:00),,38811 Cherry Street, Newark, CA, SP,,,,,,,,,
OAK80,AR Sortable,Active,37.74568,-121.40601,"1555 North Chrisman Road, Tracy, CA",United States,95304,America/Los_Angeles (UTC:-07:00),,1555 North Chrisman Road, Tracy, CA,63,64,65, Kitzingen,,,,,,
OAK9,Returns,Active,37.73075,-121.51661,"6250 Promontory Pkwy, Tracy, CA",United States,95377,America/Los_Angeles (UTC:-07:00),,6250 Promontory Pkwy, Tracy, CA,,,,,,,,,,
ONT1,Sort Center,Active,34.02127,-117.52883,"11200 Iberia Street, Jurupa Valley, CA",United States,91752,America/Los_Angeles (UTC:-07:00),,11200 Iberia Street, Jurupa Valley, CA,,,,,,,,,,
ONT2,Traditional Sortable,Active,34.08803,-117.24591,"1910 E. Central Avenue, San Bernardino, CA",United States,92408-0123,America/Los_Angeles (UTC:-07:00),,1910 E. Central Avenue, San Bernardino, CA,,,,,,,,,,
ONT5,Sort Center,Active,34.09043,-117.24012,"2020 E. Central Avenue, San Bernardino, CA",United States,92408,America/Los_Angeles (UTC:-07:00),,2020 E. Central Avenue, San Bernardino, CA,,,,,,,,,,
ONT6,Apparel,Active,33.87198,-117.23924,"24208 San Michele Road, Moreno Valley, CA",United States,92551,America/Los_Angeles (UTC:-07:00),,24208 San Michele Road, Moreno Valley, CA,,,,,,,,,,
ONT7,Sort Center,Active,34.09043,-117.24012,"2020 E. Central Avenue, San Bernardino, CA",United States,92408,America/Los_Angeles (UTC:-07:00),,2020 E. Central Avenue, San Bernardino, CA,,,,,,,,,,
ONT8,IXD,Active,33.86828,-117.23704,"24300 Nandina Avenue, Moreno Valley, CA",United States,92551,America/Los_Angeles (UTC:-07:00),,24300 Nandina Avenue, Moreno Valley, CA,,,,,,,,,,
OXR1,AR Sortable,Active,34.21375,-119.13239,"3100 Sakioka Dr, Oxnard, CA",United States,93030,America/Los_Angeles (UTC:-07:00),,3100 Sakioka Dr, Oxnard, CA,,,,,,,,,,
PAX2,Pillpack,Active,33.87493,-117.54366,"1331 E 6th St, Corona, CA",United States,92879,America/Los_Angeles (UTC:-07:00),,1331 E 6th St, Corona, CA,,,,,,,,,,
PKG_MILPITAS2_DSF7,Lockers +,Active,37.43931,-121.92456,"707 North McCarthy Boulevard, Milpitas, CA",United States,95035,America/Los_Angeles (UTC:-07:00),,707 North McCarthy Boulevard, Milpitas, CA,,,,,,,,,,
PKG_SANLEANDRO6_USF2,AFO,Active,37.70491,-122.16313,"1788 Fairway Drive, San Leandro, CA",United States,94577,America/Los_Angeles (UTC:-07:00),,1788 Fairway Drive, San Leandro, CA,,,,,,,,,,
POC1,IXD,Active,34.17787,-117.44585,"3945 Lytle Creek Rd, Fontana, CA",United States,92336,America/Los_Angeles (UTC:-07:00),,3945 Lytle Creek Rd, Fontana, CA,,,,,,,,,,
POC2,IXD,Active,34.00304,-117.56227,"4000 South Prime Paseo, Ontario, CA",United States,91761,America/Los_Angeles (UTC:-07:00),,4000 South Prime Paseo, Ontario, CA,,,,,,,,,,
POC3,IXD,Active,34.03229,-117.38676,"6120 Clinker Drive, Jurupa Valley, CA",United States,92509,America/Los_Angeles (UTC:-07:00),,6120 Clinker Drive, Jurupa Valley, CA,,,,,,,,,,
PSP1,AR Sortable,Active,33.92841,-117.00223,"1010 West Fourth Street, Beaumont, CA",United States,92223,America/Los_Angeles (UTC:-07:00),,1010 West Fourth Street, Beaumont, CA,,,,,,,,,,
PSP3,IXD,Active,33.90681,-116.53391,"64165 19th Ave, Desert Hot Springs, CA",United States,92240,America/Los_Angeles (UTC:-07:00),,64165 19th Ave, Desert Hot Springs, CA,,,,,,,,,,
QXY8,IXD,Active,36.68154,-119.76919,"3611 S. Northpointe Dr, Fresno, CA",United States,93725,America/Los_Angeles (UTC:-07:00),,3611 S. Northpointe Dr, Fresno, CA,,,,,,,,,,
QXY9,Supplemental FC,Active,33.93099,-117.02977,"36900 W. Fourth Street, Beaumont, CA",United States,92223,America/Los_Angeles (UTC:-07:00),,36900 W. Fourth Street, Beaumont, CA,,,,,,,,,,
SAC5,Sort Center,Active,38.7132,-121.56114,"8040 Metro Air Parkway, Sacramento, CA",United States,95836,America/Los_Angeles (UTC:-07:00),,8040 Metro Air Parkway, Sacramento, CA,,,,,,,,,,
SAN3,AR Sortable,Active,32.56584,-116.9324,"6971 Otay Mesa Road, San Diego, CA",United States,92154,America/Los_Angeles (UTC:-07:00),,6971 Otay Mesa Road, San Diego, CA, IL,,,,,,,,,
SAN33,Office,Active,32.82993,-117.13166,"9246 Lightwave Ave, San Diego, CA",United States,92123,America/Los_Angeles (UTC:-07:00),,9246 Lightwave Ave, San Diego, CA, Sinaloa,,,,,,,,,
SAN5,Sort Center,Active,32.56923,-116.92553,"7144  Otay Mesa Rd, San Diego, CA",United States,92154,America/Los_Angeles (UTC:-07:00),,7144  Otay Mesa Rd, San Diego, CA,,,,,,,,,,
SAN6,Traditional Non-Sort,Active,32.56929,-116.93169,"6940 Otay Mesa Rd, San Diego, CA",United States,92154,America/Los_Angeles (UTC:-07:00),,6940 Otay Mesa Rd, San Diego, CA,,,,,,,,,,
SAX1,SSD,Active,33.68827,-117.84706,"17871 Von Karman Avenue, Irvine, CA",United States,92614,America/Los_Angeles (UTC:-07:00),,17871 Von Karman Avenue, Irvine, CA,,,,,,,,,,
SAX2,SSD FC,Active,33.87647,-117.54377,"150 Radio Rd, Corona, CA",United States,92879,America/Los_Angeles (UTC:-07:00),,150 Radio Rd, Corona, CA,,,,,,,,,,
SAX2_E1,SSD FC,Active,33.87493,-117.54366,"1331 E 6th St, Corona, CA",United States,92879,America/Los_Angeles (UTC:-07:00),,1331 E 6th St, Corona, CA,,,,,,,,,,
SAX3,SSD FC,Active,33.88289,-118.2797,"333 W Gardena Blvd, Carson, CA",United States,90248,America/Los_Angeles (UTC:-07:00),,333 W Gardena Blvd, Carson, CA,,,,,,,,,,
SAX5,SSD FC,Active,34.06152,-118.19087,"3301 Medford Street, Los Angeles, CA",United States,90063,America/Los_Angeles (UTC:-07:00),,3301 Medford Street, Los Angeles, CA,,,,,,,,,,
SAX6,SSD,Active,34.27967,-118.79212,"2400 N. Chain Dr, Simi Valley, CA",United States,93065,America/Los_Angeles (UTC:-07:00),,2400 N. Chain Dr, Simi Valley, CA,,,,,,,,,,
SAX7,SSD,Active,34.06215,-117.41168,"18025 Slover Ave, Bloomington, CA",United States,92316,America/Los_Angeles (UTC:-07:00),,18025 Slover Ave, Bloomington, CA,,,,,,,,,,
SBA1,Lockers +,Active,34.41084,-119.85522,"6533 Trigo Road, Isla Vista, CA",United States,93117,America/Los_Angeles (UTC:-07:00),,6533 Trigo Road, Isla Vista, CA,,,,,,,,,,
SBD1,IXD,Active,34.03983,-117.38536,"3388 Cactus Ave, Bloomington, CA",United States,92316,America/Los_Angeles (UTC:-07:00),,3388 Cactus Ave, Bloomington, CA,,,,,,,,,,
SBD2,IXD,Active,34.0736,-117.28247,"1494 South Waterman Avenue, San Bernardino, CA",United States,92408,America/Los_Angeles (UTC:-07:00),,1494 South Waterman Avenue, San Bernardino, CA,,,,,,,,,,
SBD3,IXD,Active,34.18485,-117.36437,"5990 North Cajon Boulevard, San Bernardino, CA",United States,92407,America/Los_Angeles (UTC:-07:00),,5990 North Cajon Boulevard, San Bernardino, CA,,,,,,,,,,
SBD5,Sort Center,Idle,34.02086,-117.52585,"11100 Iberia St, Jurupa Valley, CA",United States,91752,America/Los_Angeles (UTC:-07:00),,11100 Iberia St, Jurupa Valley, CA,,,,,,,,,,
SBD6,AR Sortable,Active,33.98695,-117.61284,"4707 Baker Ave, Ontario, CA",United States,91762,America/Los_Angeles (UTC:-07:00),,4707 Baker Ave, Ontario, CA,,,,,,,,,,
SCA1,Lockers +,Active,34.02573,-118.28638,"3096 S. McClintock Ave, Los Angeles, CA",United States,90089,America/Los_Angeles (UTC:-07:00),,3096 S. McClintock Ave, Los Angeles, CA,,,,,,,,,,
SCA2,Warehouse,Active,37.67856,-122.39245,"3745 Bayshore Blvd, Brisbane, CA",United States,94005,America/Los_Angeles (UTC:-07:00),,3745 Bayshore Blvd, Brisbane, CA,,,,,,,,,,
SCA3,SSD FC,Active,37.99961,-122.33937,"6045 Giant Road, Richmond, CA",United States,94806,America/Los_Angeles (UTC:-07:00),,6045 Giant Road, Richmond, CA,,,,,,,,,,
SCA4,SSD FC,Active,33.02028,-117.08903,"16915 Via Del Campo, San Diego, CA",United States,92127,America/Los_Angeles (UTC:-07:00),,16915 Via Del Campo, San Diego, CA,,,,,,,,,,
SCA5,SSD FC,Active,38.69983,-121.57157,"7601 Metro Air PKWY, Sacramento, CA",United States,95837,America/Los_Angeles (UTC:-07:00),,7601 Metro Air PKWY, Sacramento, CA,,,,,,,,,,
SCA7,SSD FC,Active,32.57049,-116.94706,"717 Harvest Rd, San Diego, CA",United States,92154,America/Los_Angeles (UTC:-07:00),,717 Harvest Rd, San Diego, CA,,,,,,,,,,
SCA9,SSD,Active,37.71015,-121.01033,"1224 Kiernan Ave, Modesto, CA",United States,95356,America/Los_Angeles (UTC:-07:00),,1224 Kiernan Ave, Modesto, CA,,,,,,,,,,
SCK1,Traditional Non-Sort,Active,37.91439,-121.19774,"4532 Newcastle Road, Stockton, CA",United States,95215,America/Los_Angeles (UTC:-07:00),,4532 Newcastle Road, Stockton, CA,,,,,,,,,,
SCK3,AMXL,Active,37.8488,-121.25738,"3565 North Airport Way, Manteca, CA",United States,95337,America/Los_Angeles (UTC:-07:00),,3565 North Airport Way, Manteca, CA,,,,,,,,,,
SCK4,IXD,Active,37.91046,-121.18878,"6001 S Austin Rd, Stockton, CA",United States,95215,America/Los_Angeles (UTC:-07:00),,6001 S Austin Rd, Stockton, CA,,,,,,,,,,
SCK6,AR Sortable,Active,37.75175,-121.40291,"1500 E Grant Line Road, Tracy, CA",United States,95304,America/Los_Angeles (UTC:-07:00),,1500 E Grant Line Road, Tracy, CA,,,,,,,,,,
SCK8,IXD,Active,38.00944,-121.74324,"4700 Wilbur Ave, Oakley, CA",United States,94561,America/Los_Angeles (UTC:-07:00),,4700 Wilbur Ave, Oakley, CA,,,,,,,,,,
SJC7,Traditional Non-Sort,Active,37.72517,-121.52946,"188 S Mountain House Parkway, Tracy, CA",United States,95377,America/Los_Angeles (UTC:-07:00),,188 S Mountain House Parkway, Tracy, CA,,,,,,,,,,
SJC8,Land,Active,36.64547,-121.62032,"SW corner of Harris St and Dayton St, Salinas, CA",United States,,America/Los_Angeles (UTC:-07:00),,SW corner of Harris St and Dayton St, Salinas, CA,,,,,,,,,,
SJC9,AFO,Active,37.69079,-122.41715,"455 Valley Drive, Brisbane, CA",United States,94005,America/Los_Angeles (UTC:-07:00),,455 Valley Drive, Brisbane, CA,,,,,,,,,,
SJS1,Lockers +,Active,37.33508,-121.8872,"96 East San Fernando Street, San Jose, CA",United States,95113,America/Los_Angeles (UTC:-07:00),,96 East San Fernando Street, San Jose, CA, CA,,,,,,,,,
SLA5,Grocery DC,Active,33.99364,-117.55264,"5250 Goodman Way, Eastvale, CA",United States,91752,America/Los_Angeles (UTC:-07:00),,5250 Goodman Way, Eastvale, CA,,,,,,,,,,
SLA6,Grocery DC,Active,33.99364,-117.55264,"5250 Goodman Way, Eastvale, CA",United States,91752,America/Los_Angeles (UTC:-07:00),,5250 Goodman Way, Eastvale, CA,,,,,,,,,,
SMF1,AR Sortable,Active,38.68184,-121.57442,"4900 West Elkhorn Blvd, Sacramento, CA",United States,95835,America/Los_Angeles (UTC:-07:00),,4900 West Elkhorn Blvd, Sacramento, CA,,,,,,,,,,
SMF3,IXD,Active,37.91422,-121.25318,"3923 S B Street, Stockton, CA",United States,95206,America/Los_Angeles (UTC:-07:00),,3923 S B Street, Stockton, CA,,,,,,,,,,
SMF33,Office,Active,38.39417,-121.95672,"810 Vaca Valley Parkway, Vacaville, CA",United States,95688,America/Los_Angeles (UTC:-07:00),,810 Vaca Valley Parkway, Vacaville, CA,,,,,,,,,,
SMF5,Sort Center,Active,38.3994,-121.95063,"300 Crocker Drive, Vacaville, CA",United States,95688,America/Los_Angeles (UTC:-07:00),,300 Crocker Drive, Vacaville, CA,,,,,,,,,,
SMF6,Traditional Non-Sort,Active,38.70665,-121.57308,"4930 Allbaugh Drive, Sacramento, CA",United States,95837,America/Los_Angeles (UTC:-07:00),,4930 Allbaugh Drive, Sacramento, CA,,,,,,,,,,
SMF7,AMXL,Active,38.41458,-121.9489,"4800 Midway Road, Vacaville, CA",United States,95688,America/Los_Angeles (UTC:-07:00),,4800 Midway Road, Vacaville, CA,,,,,,,,,,
SMF9,Returns,Active,38.3994,-121.95063,"300 Crocker Drive, Vacaville, CA",United States,95688,America/Los_Angeles (UTC:-07:00),,300 Crocker Drive, Vacaville, CA,,,,,,,,,,
SNA4,Traditional Non-Sort,Active,34.13133,-117.42209,"2496 W. Walnut Avenue, Rialto, CA",United States,92376,America/Los_Angeles (UTC:-07:00),,2496 W. Walnut Avenue, Rialto, CA,,,,,,,,,,
TCY1,IXD,Active,37.90289,-121.23423,"2690 E. Arch Airport Road, Stockton, CA",United States,95206,America/Los_Angeles (UTC:-07:00),,2690 E. Arch Airport Road, Stockton, CA,,,,,,,,,,
TCY2,IXD,Active,37.90255,-121.20686,"6201 S. Newcastle Rd, Stockton, CA",United States,95215,America/Los_Angeles (UTC:-07:00),,6201 S. Newcastle Rd, Stockton, CA,,,,,,,,,,
TCY5,Sort Center,Active,37.73075,-121.51661,"6250 Promontory Pkwy, Tracy, CA",United States,95377,America/Los_Angeles (UTC:-07:00),,6250 Promontory Pkwy, Tracy, CA,,,,,,,,,,
TCY9,Sort Center,Active,38.01211,-121.74342,"Contra Costa Logistics Center, Oakley, CA",United States,94561,America/Los_Angeles (UTC:-07:00),,Contra Costa Logistics Center, Oakley, CA,,,,,,,,,,
TYC2,Warehouse,Active,37.90255,-121.20686,"6201 S. Newcastle Rd, Stockton, CA",United States,95215,America/Los_Angeles (UTC:-07:00),,6201 S. Newcastle Rd, Stockton, CA,,,,,,,,,,
UCA1,AFO,Active,37.7606,-122.38976,"888 Tennessee Street, San Francisco, CA",United States,94107,America/Los_Angeles (UTC:-07:00),,888 Tennessee Street, San Francisco, CA,,,,,,,,,,
UCA3,AFO,Active,34.03276,-118.44981,"11800 W. Olympic Boulevard, Los Angeles, CA",United States,90064,America/Los_Angeles (UTC:-07:00),,11800 W. Olympic Boulevard, Los Angeles, CA,,,,,,,,,,
UCA5,AFO,Active,34.11715,-118.25064,"3334 N San Fernando Road, Los Angeles, CA",United States,90065,America/Los_Angeles (UTC:-07:00),,3334 N San Fernando Road, Los Angeles, CA,,,,,,,,,,
UCA6,AFO,Active,32.74969,-117.201,"2727 Kurtz Street, San Diego, CA",United States,92110,America/Los_Angeles (UTC:-07:00),,2727 Kurtz Street, San Diego, CA,,,,,,,,,,
USD1,AFO,Active,32.8288,-117.13184,"9269 Lightwave Avenue, San Diego, CA",United States,92123,America/Los_Angeles (UTC:-07:00),,9269 Lightwave Avenue, San Diego, CA,,,,,,,,,,
USF1,AFO,Active,37.37879,-121.94694,"750 Laurelwood Road, Santa Clara, CA",United States,95054,America/Los_Angeles (UTC:-07:00),,750 Laurelwood Road, Santa Clara, CA,,,,,,,,,,
USF2,AFO,Active,37.70491,-122.16313,"1788 Fairway Drive, San  Leandro, CA",United States,94557,America/Los_Angeles (UTC:-07:00),,1788 Fairway Drive, San  Leandro, CA,,,,,,,,,,
USF4,UFF,Active,37.69079,-122.41715,"455 Valley Drive, Brisbane, CA",United States,94005,America/Los_Angeles (UTC:-07:00),,455 Valley Drive, Brisbane, CA,,,,,,,,,,
WCF6,SPP,Active,38.7946,-106.53484,"1775 North State Street, Ukiah, CA",United States,95482,America/Denver (UTC:-06:00),,1775 North State Street, Ukiah, CA,,,,,,,,,,
WCF7 - DELETE,RSR,Active,38.7946,-106.53484,"5875 Venture Pkwy, Redding, CA",United States,,America/Denver (UTC:-06:00),,5875 Venture Pkwy, Redding, CA,,,,,,,,,,
WEK1,RSR,Active,38.7946,-106.53484,"3110-3120 and 3159-3170 BOEING AVE., MCKINLEYVILLE, CA",United States,95519,America/Denver (UTC:-06:00),,3110-3120 and 3159-3170 BOEING AVE., MCKINLEYVILLE, CA,,,,,,,,,,
WTH1,AMXL,Active,39.7188,-122.14208,"6990 Airport Dr, Orland, CA",United States,95963,America/Los_Angeles (UTC:-07:00),,6990 Airport Dr, Orland, CA,,,,,,,,,,
XCA2,Sort Center,Active,34.02788,-117.96662,"15120 Valley Blvd., City of Industry, CA",United States,91746,America/Los_Angeles (UTC:-07:00),,15120 Valley Blvd., City of Industry, CA,,,,,,,,,,
XLX7,AMXL,Active,34.0782,-117.27344,"555 East Orange Show Road, San Bernardino, CA",United States,92408,America/Los_Angeles (UTC:-07:00),,555 East Orange Show Road, San Bernardino, CA,,,,,,,,,,
XTE2,XPT,Active,39.71532,-121.81751,"2336 Park Ave, Chico, CA",United States,95928,America/Los_Angeles (UTC:-07:00),,2336 Park Ave, Chico, CA,,,,,,,,,,
XTE3,XPT,Active,39.22114,-121.02816,"1415 Whispering Pines Lane, Grass Valley, CA",United States,95945,America/Los_Angeles (UTC:-07:00),,1415 Whispering Pines Lane, Grass Valley, CA,,,,,,,,,,
ZFO1,Delivery Station,Idle,37.75499,-122.38456,"435 23rd Street, San Francisco, CA",United States,94124,America/Los_Angeles (UTC:-07:00),,435 23rd Street, San Francisco, CA,,,,,,,,,,
,,,,,,,,,,,,, PA,,,,,,,,,
,,,,,,,,,,,,,,,,,,,,,,
,,,,,,,,,,,,,,,,,,,,,,
,,,,,,,,,,,,,,,,,,,,,,
,,,,,,,,,,,,,,,,,,,,,,
,,,,,,,,,,,,,,,,,,,,,,
,,,,,,,,,,,,,,,,,,,,,,
,,,,,,,,,,,,,,,,,,,,,,
,,,,,,,,,,,,,,,,,,,,,,
,,,,,,,,,,,,,,,,,,,,,,
,,,,,,,,,,,,,,,,,,,,,,
,,,,,,,,,,,,,,,,,,,,,,
,,,,,,,,,,,,,,,,,,,,,,
,,,,,,,,,,,,,,,,,,,,,,
,,,,,,,,,,,,,,,,,,,,,,
,,,,,,,,,,,,,,,,,,,,,,
,,,,,,,,,,,,,,,,,,,,,,
,,,,,,,,,,,,,,,,,,,,,,
,,,,,,,,,,,,,,,,,,,,,,
,,,,,,,,,,,,,,,,,,,,,,
,,,,,,,,,,,,,,,,,,,,,,
,,,,,,,,,,,,,,,,,,,,,,
,,,,,,,,,,,,,,,,,,,,,,
,,,,,,,,,,,,, Delhi,,,,,,,,,
,,,,,,,,,,,,,,,,,,,,,,
,,,,,,,,,,,,, Haryana,,,,,,,,,
,,,,,,,,,,,,,,,,,,,,,,
,,,,,,,,,,,,,,,,,,,,,,
,,,,,,,,,,,,, Killa No. 11/2/1, Mewat, Haryana,,,,,,,
,,,,,,,,,,,,,,,,,,,,,,
,,,,,,,,,,,,,,,,,,,,,,
,,,,,,,,,,,,,,,,,,,,,,
,,,,,,,,,,,,,,,,,,,,,,
,,,,,,,,,,,,,,,,,,,,,,
,,,,,,,,,,,,, Kanagawa,,,,,,,,,
,,,,,,,,,,,,, Saitama,,,,,,,,,
,,,,,,,,,,,,, Saitama,,,,,,,,,
,,,,,,,,,,,,, Kanagawa,,,,,,,,,
,,,,,,,,,,,,,,,,,,,,,,
,,,,,,,,,,,,,,,,,,,,,,
,,,,,,,,,,,,, Yokohama, Kanagawa,,,,,,,,
,,,,,,,,,,,,, Haryana,,,,,,,,,
,,,,,,,,,,,,, Haryana,,,,,,,,,
,,,,,,,,,,,,, Delhi, Delhi,,,,,,,,
,,,,,,,,,,,,, Delhi,,,,,,,,,
,,,,,,,,,,,,, Delhi,,,,,,,,,
,,,,,,,,,,,,, Udyog Vihar, Gurugram, Haryana,,,,,,,
,,,,,,,,,,,,, Uttar Pradesh,,,,,,,,,
,,,,,,,,,,,,, Delhi, Delhi,,,,,,,,
,,,,,,,,,,,,, 21/1,22, Gurugram, Haryana,,,,,,
,,,,,,,,,,,,, District Gurugram, Gurugram, Haryana,,,,,,,
,,,,,,,,,,,,,,,,,,,,,,
,,,,,,,,,,,,,,,,,,,,,,
,,,,,,,,,,,,, New Delhi, Delhi,,,,,,,,
,,,,,,,,,,,,, Delhi, Delhi,,,,,,,,
,,,,,,,,,,,,, Delhi,,,,,,,,,
,,,,,,,,,,,,, New Delhi, Delhi,,,,,,,,
,,,,,,,,,,,,, Delhi,,,,,,,,,
,,,,,,,,,,,,, Karol Bagh, New Delhi, DELHI,,,,,,,
,,,,,,,,,,,,, New Delhi, Delhi,,,,,,,,
,,,,,,,,,,,,,, New Delhi, Delhi,,,,,,,
,,,,,,,,,,,,, Gurugram, Haryana,,,,,,,,
,,,,,,,,,,,,, New Delhi, Delhi,,,,,,,,
,,,,,,,,,,,,,,,,,,,,,,
,,,,,,,,,,,,,,,,,,,,,,
,,,,,,,,,,,,,,,,,,,,,,
,,,,,,,,,,,,,,,,,,,,,,
,,,,,,,,,,,,,,,,,,,,,,
,,,,,,,,,,,,,,,,,,,,,,
,,,,,,,,,,,,,,,,,,,,,,
,,,,,,,,,,,,,,,,,,,,,,
,,,,,,,,,,,,,,,,,,,,,,
,,,,,,,,,,,,,,,,,,,,,,
,,,,,,,,,,,,,,,,,,,,,,
,,,,,,,,,,,,,,,,,,,,,,
,,,,,,,,,,,,,,,,,,,,,,
,,,,,,,,,,,,, EspÃ­rito Santo,,,,,,,,,
,,,,,,,,,,,,,,,,,,,,,,
,,,,,,,,,,,,,,,,,,,,,,
,,,,,,,,,,,,,,,,,,,,,,
,,,,,,,,,,,,,,,,,,,,,,
,,,,,,,,,,,,,,,,,,,,,,
,,,,,,,,,,,,,,,,,,,,,,
,,,,,,,,,,,,,,,,,,,,,,
,,,,,,,,,,,,,,,,,,,,,,
,,,,,,,,,,,,, Delhi,,,,,,,,,
,,,,,,,,,,,,,,,,,,,,,,
,,,,,,,,,,,,,,,,,,,,,,
,,,,,,,,,,,,,,,,,,,,,,
,,,,,,,,,,,,,,,,,,,,,,
,,,,,,,,,,,,,,,,,,,,,,
,,,,,,,,,,,,,,,,,,,,,,
,,,,,,,,,,,,,,,,,,,,,,
,,,,,,,,,,,,,,,,,,,,,,
,,,,,,,,,,,,,,,,,,,,,,
,,,,,,,,,,,,,,,,,,,,,,
,,,,,,,,,,,,,,,,,,,,,,
,,,,,,,,,,,,,,,,,,,,,,
,,,,,,,,,,,,,,,,,,,,,,
,,,,,,,,,,,,, Fukuoka, Fukuoka,,,,,,,,
,,,,,,,,,,,,,,,,,,,,,,
,,,,,,,,,,,,,,,,,,,,,,
,,,,,,,,,,,,, Kumamoto,,,,,,,,,
,,,,,,,,,,,,,,,,,,,,,,
,,,,,,,,,,,,,,,,,,,,,,
,,,,,,,,,,,,,,,,,,,,,,
,,,,,,,,,,,,,,,,,,,,,,
,,,,,,,,,,,,,,,,,,,,,,
,,,,,,,,,,,,,,,,,,,,,,
,,,,,,,,,,,,,,,,,,,,,,
,,,,,,,,,,,,,,,,,,,,,,
,,,,,,,,,,,,,,,,,,,,,,
,,,,,,,,,,,,,,,,,,,,,,
,,,,,,,,,,,,,,,,,,,,,,
,,,,,,,,,,,,,,,,,,,,,,
,,,,,,,,,,,,,,,,,,,,,,
,,,,,,,,,,,,,,,,,,,,,,
,,,,,,,,,,,,,,,,,,,,,,
,,,,,,,,,,,,,,,,,,,,,,
,,,,,,,,,,,,,,,,,,,,,,
,,,,,,,,,,,,,,,,,,,,,,
,,,,,,,,,,,,,,,,,,,,,,
,,,,,,,,,,,,,,,,,,,,,,
,,,,,,,,,,,,,,,,,,,,,,
,,,,,,,,,,,,,,,,,,,,,,
,,,,,,,,,,,,,,,,,,,,,,
,,,,,,,,,,,,, Cambre, La CoruÃ±a,,,,,,,,
,,,,,,,,,,,,,,,,,,,,,,
,,,,,,,,,,,,,,,,,,,,,,
,,,,,,,,,,,,,,,,,,,,,,
,,,,,,,,,,,,,,,,,,,,,,
,,,,,,,,,,,,,,,,,,,,,,
,,,,,,,,,,,,,,,,,,,,,,
,,,,,,,,,,,,,,,,,,,,,,
,,,,,,,,,,,,,,,,,,,,,,
,,,,,,,,,,,,,,,,,,,,,,
,,,,,,,,,,,,,,,,,,,,,,
,,,,,,,,,,,,,,,,,,,,,,
,,,,,,,,,,,,,,,,,,,,,,
,,,,,,,,,,,,, GO,,,,,,,,,
,,,,,,,,,,,,,,,,,,,,,,
,,,,,,,,,,,,,,,,,,,,,,
,,,,,,,,,,,,,,,,,,,,,,
,,,,,,,,,,,,,,,,,,,,,,
,,,,,,,,,,,,,,,,,,,,,,
,,,,,,,,,,,,,,,,,,,,,,
,,,,,,,,,,,,,,,,,,,,,,
,,,,,,,,,,,,,,,,,,,,,,
,,,,,,,,,,,,,,,,,,,,,,
,,,,,,,,,,,,,,,,,,,,,,
,,,,,,,,,,,,,,,,,,,,,,
,,,,,,,,,,,,,,,,,,,,,,
,,,,,,,,,,,,,,,,,,,,,,
,,,,,,,,,,,,,,,,,,,,,,
,,,,,,,,,,,,,,,,,,,,,,
,,,,,,,,,,,,,,,,,,,,,,
,,,,,,,,,,,,,,,,,,,,,,
,,,,,,,,,,,,,,,,,,,,,,
,,,,,,,,,,,,,,,,,,,,,,
,,,,,,,,,,,,,,,,,,,,,,
,,,,,,,,,,,,,,,,,,,,,,
,,,,,,,,,,,,,,,,,,,,,,
,,,,,,,,,,,,,,,,,,,,,,
,,,,,,,,,,,,,,,,,,,,,,
,,,,,,,,,,,,,,,,,,,,,,
,,,,,,,,,,,,, Hokkaido,,,,,,,,,
,,,,,,,,,,,,,,,,,,,,,,
,,,,,,,,,,,,,,,,,,,,,,
,,,,,,,,,,,,,,,,,,,,,,
,,,,,,,,,,,,, Hiroshima,,,,,,,,,
,,,,,,,,,,,,, Okayama,,,,,,,,,
,,,,,,,,,,,,,,,,,,,,,,
,,,,,,,,,,,,,,,,,,,,,,
,,,,,,,,,,,,,,,,,,,,,,
,,,,,,,,,,,,,,,,,,,,,,
,,,,,,,,,,,,, Harlow,,,,,,,,,
,,,,,,,,,,,,,,,,,,,,,,
,,,,,,,,,,,,,,,,,,,,,,
,,,,,,,,,,,,,,,,,,,,,,
,,,,,,,,,,,,,,,,,,,,,,
,,,,,,,,,,,,,,,,,,,,,,
,,,,,,,,,,,,,,,,,,,,,,
,,,,,,,,,,,,,,,,,,,,,,
,,,,,,,,,,,,,,,,,,,,,,
,,,,,,,,,,,,,,,,,,,,,,
,,,,,,,,,,,,,,,,,,,,,,
,,,,,,,,,,,,,,,,,,,,,,
,,,,,,,,,,,,,,,,,,,,,,
,,,,,,,,,,,,,,,,,,,,,,
,,,,,,,,,,,,,,,,,,,,,,
,,,,,,,,,,,,,,,,,,,,,,
,,,,,,,,,,,,,,,,,,,,,,
,,,,,,,,,,,,,,,,,,,,,,
,,,,,,,,,,,,,,,,,,,,,,
,,,,,,,,,,,,,,,,,,,,,,
,,,,,,,,,,,,,,,,,,,,,,
,,,,,,,,,,,,,,,,,,,,,,
,,,,,,,,,,,,,,,,,,,,,,
,,,,,,,,,,,,,,,,,,,,,,
,,,,,,,,,,,,,,,,,,,,,,
,,,,,,,,,,,,,,,,,,,,,,
,,,,,,,,,,,,,,,,,,,,,,
,,,,,,,,,,,,,,,,,,,,,,
,,,,,,,,,,,,,,,,,,,,,,
,,,,,,,,,,,,,,,,,,,,,,
,,,,,,,,,,,,,,,,,,,,,,
,,,,,,,,,,,,,,,,,,,,,,
,,,,,,,,,,,,,,,,,,,,,,
,,,,,,,,,,,,,,,,,,,,,,
,,,,,,,,,,,,,,,,,,,,,,
,,,,,,,,,,,,,,,,,,,,,,
,,,,,,,,,,,,,,,,,,,,,,
,,,,,,,,,,,,,,,,,,,,,,
,,,,,,,,,,,,,,,,,,,,,,
,,,,,,,,,,,,,,,,,,,,,,
,,,,,,,,,,,,,,,,,,,,,,
,,,,,,,,,,,,,,,,,,,,,,
,,,,,,,,,,,,,,,,,,,,,,
,,,,,,,,,,,,,,,,,,,,,,
,,,,,,,,,,,,,,,,,,,,,,
,,,,,,,,,,,,,,,,,,,,,,
,,,,,,,,,,,,,,,,,,,,,,
,,,,,,,,,,,,,,,,,,,,,,
,,,,,,,,,,,,,,,,,,,,,,
,,,,,,,,,,,,,,,,,,,,,,
,,,,,,,,,,,,,,,,,,,,,,
,,,,,,,,,,,,,,,,,,,,,,
,,,,,,,,,,,,,,,,,,,,,,
,,,,,,,,,,,,,,,,,,,,,,
,,,,,,,,,,,,,,,,,,,,,,
,,,,,,,,,,,,,,,,,,,,,,
,,,,,,,,,,,,,,,,,,,,,,
,,,,,,,,,,,,,,,,,,,,,,
,,,,,,,,,,,,,,,,,,,,,,
,,,,,,,,,,,,,,,,,,,,,,
,,,,,,,,,,,,,,,,,,,,,,
,,,,,,,,,,,,,,,,,,,,,,
,,,,,,,,,,,,,,,,,,,,,,
,,,,,,,,,,,,,,,,,,,,,,
,,,,,,,,,,,,,,,,,,,,,,
,,,,,,,,,,,,,,,,,,,,,,
,,,,,,,,,,,,, Chiba,,,,,,,,,
,,,,,,,,,,,,,,,,,,,,,,
,,,,,,,,,,,,,,,,,,,,,,
,,,,,,,,,,,,,,,,,,,,,,
,,,,,,,,,,,,,,,,,,,,,,
,,,,,,,,,,,,,,,,,,,,,,
,,,,,,,,,,,,,,,,,,,,,,
,,,,,,,,,,,,,,,,,,,,,,
,,,,,,,,,,,,,,,,,,,,,,
,,,,,,,,,,,,,,,,,,,,,,
,,,,,,,,,,,,,,,,,,,,,,
,,,,,,,,,,,,,,,,,,,,,,
,,,,,,,,,,,,,,,,,,,,,,
,,,,,,,,,,,,,,,,,,,,,,
,,,,,,,,,,,,,,,,,,,,,,
,,,,,,,,,,,,,,,,,,,,,,
,,,,,,,,,,,,,,,,,,,,,,
,,,,,,,,,,,,,,,,,,,,,,
,,,,,,,,,,,,,,,,,,,,,,
,,,,,,,,,,,,,,,,,,,,,,
,,,,,,,,,,,,,,,,,,,,,,
,,,,,,,,,,,,,,,,,,,,,,
,,,,,,,,,,,,,,,,,,,,,,
,,,,,,,,,,,,,,,,,,,,,,
,,,,,,,,,,,,,,,,,,,,,,
,,,,,,,,,,,,,,,,,,,,,,
,,,,,,,,,,,,,,,,,,,,,,
,,,,,,,,,,,,, DLF City Phase-2, Gurugram, Haryana,,,,,,,
,,,,,,,,,,,,,,,,,,,,,,
,,,,,,,,,,,,,,,,,,,,,,
,,,,,,,,,,,,,,,,,,,,,,
,,,,,,,,,,,,,,,,,,,,,,
,,,,,,,,,,,,,,,,,,,,,,
,,,,,,,,,,,,,,,,,,,,,,
,,,,,,,,,,,,,,,,,,,,,,
,,,,,,,,,,,,,,,,,,,,,,
,,,,,,,,,,,,,,,,,,,,,,
,,,,,,,,,,,,,,,,,,,,,,
,,,,,,,,,,,,,,,,,,,,,,
,,,,,,,,,,,,,,,,,,,,,,
,,,,,,,,,,,,,,,,,,,,,,
,,,,,,,,,,,,,,,,,,,,,,
,,,,,,,,,,,,,,,,,,,,,,
,,,,,,,,,,,,,,,,,,,,,,
,,,,,,,,,,,,,,,,,,,,,,
,,,,,,,,,,,,,,,,,,,,,,
,,,,,,,,,,,,,,,,,,,,,,
,,,,,,,,,,,,,,,,,,,,,,
,,,,,,,,,,,,,,,,,,,,,,
,,,,,,,,,,,,,,,,,,,,,,
,,,,,,,,,,,,,,,,,,,,,,
,,,,,,,,,,,,,,,,,,,,,,
,,,,,,,,,,,,,,,,,,,,,,
,,,,,,,,,,,,,,,,,,,,,,
,,,,,,,,,,,,,,,,,,,,,,
,,,,,,,,,,,,,,,,,,,,,,
,,,,,,,,,,,,,,,,,,,,,,
,,,,,,,,,,,,,,,,,,,,,,
,,,,,,,,,,,,,,,,,,,,,,
,,,,,,,,,,,,,,,,,,,,,,
,,,,,,,,,,,,,,,,,,,,,,
,,,,,,,,,,,,,,,,,,,,,,
,,,,,,,,,,,,,,,,,,,,,,
,,,,,,,,,,,,,,,,,,,,,,
,,,,,,,,,,,,,,,,,,,,,,
,,,,,,,,,,,,,,,,,,,,,,
,,,,,,,,,,,,,,,,,,,,,,
,,,,,,,,,,,,,,,,,,,,,,
,,,,,,,,,,,,,,,,,,,,,,
,,,,,,,,,,,,,,,,,,,,,,
,,,,,,,,,,,,,,,,,,,,,,
,,,,,,,,,,,,,,,,,,,,,,
,,,,,,,,,,,,,,,,,,,,,,
,,,,,,,,,,,,,,,,,,,,,,
,,,,,,,,,,,,,,,,,,,,,,
,,,,,,,,,,,,,,,,,,,,,,
,,,,,,,,,,,,,,,,,,,,,,
,,,,,,,,,,,,,,,,,,,,,,
,,,,,,,,,,,,,,,,,,,,,,
,,,,,,,,,,,,,,,,,,,,,,
,,,,,,,,,,,,,,,,,,,,,,
,,,,,,,,,,,,,,,,,,,,,,
,,,,,,,,,,,,, Lot 5R, Hanover, MD,,,,,,,
,,,,,,,,,,,,,,,,,,,,,,
,,,,,,,,,,,,,,,,,,,,,,
,,,,,,,,,,,,,,,,,,,,,,
,,,,,,,,,,,,,,,,,,,,,,
,,,,,,,,,,,,,,,,,,,,,,
,,,,,,,,,,,,,,,,,,,,,,
,,,,,,,,,,,,,,,,,,,,,,
,,,,,,,,,,,,,,,,,,,,,,
,,,,,,,,,,,,,,,,,,,,,,
,,,,,,,,,,,,,,,,,,,,,,
,,,,,,,,,,,,, Miyagi,,,,,,,,,
,,,,,,,,,,,,,,,,,,,,,,
,,,,,,,,,,,,, Rifu-cho, Miyagi-gun, Miyagi,,,,,,,
,,,,,,,,,,,,,,,,,,,,,,
,,,,,,,,,,,,,,,,,,,,,,
,,,,,,,,,,,,,,,,,,,,,,
,,,,,,,,,,,,,,,,,,,,,,
,,,,,,,,,,,,,,,,,,,,,,
,,,,,,,,,,,,,,,,,,,,,,
,,,,,,,,,,,,,,,,,,,,,,
,,,,,,,,,,,,,,,,,,,,,,
,,,,,,,,,,,,,,,,,,,,,,
,,,,,,,,,,,,,,,,,,,,,,
,,,,,,,,,,,,,,,,,,,,,,
,,,,,,,,,,,,,,,,,,,,,,
,,,,,,,,,,,,,,,,,,,,,,
,,,,,,,,,,,,,,,,,,,,,,
,,,,,,,,,,,,,,,,,,,,,,
,,,,,,,,,,,,,,,,,,,,,,
,,,,,,,,,,,,, FL,,,,,,,,,
,,,,,,,,,,,,,,,,,,,,,,
,,,,,,,,,,,,,,,,,,,,,,
,,,,,,,,,,,,,,,,,,,,,,
,,,,,,,,,,,,,,,,,,,,,,
,,,,,,,,,,,,,,,,,,,,,,
,,,,,,,,,,,,,,,,,,,,,,
,,,,,,,,,,,,,,,,,,,,,,
,,,,,,,,,,,,,,,,,,,,,,
,,,,,,,,,,,,,,,,,,,,,,
,,,,,,,,,,,,,,,,,,,,,,
,,,,,,,,,,,,,,,,,,,,,,
,,,,,,,,,,,,,,,,,,,,,,
,,,,,,,,,,,,,,,,,,,,,,
,,,,,,,,,,,,,,,,,,,,,,
,,,,,,,,,,,,,,,,,,,,,,
,,,,,,,,,,,,,,,,,,,,,,
,,,,,,,,,,,,,,,,,,,,,,
,,,,,,,,,,,,,,,,,,,,,,
,,,,,,,,,,,,,,,,,,,,,,
,,,,,,,,,,,,,,,,,,,,,,
,,,,,,,,,,,,,,,,,,,,,,
,,,,,,,,,,,,,,,,,,,,,,
,,,,,,,,,,,,,,,,,,,,,,
,,,,,,,,,,,,,,,,,,,,,,
,,,,,,,,,,,,,,,,,,,,,,
,,,,,,,,,,,,,,,,,,,,,,
,,,,,,,,,,,,,,,,,,,,,,
,,,,,,,,,,,,,,,,,,,,,,
,,,,,,,,,,,,,,,,,,,,,,
,,,,,,,,,,,,,,,,,,,,,,
,,,,,,,,,,,,,,,,,,,,,,
,,,,,,,,,,,,,,,,,,,,,,
,,,,,,,,,,,,,,,,,,,,,,
,,,,,,,,,,,,,,,,,,,,,,
,,,,,,,,,,,,,,,,,,,,,,
,,,,,,,,,,,,,,,,,,,,,,
,,,,,,,,,,,,,,,,,,,,,,
,,,,,,,,,,,,,,,,,,,,,,
,,,,,,,,,,,,, Bronx, NY,,,,,,,,
,,,,,,,,,,,,,,,,,,,,,,
,,,,,,,,,,,,,,,,,,,,,,
,,,,,,,,,,,,,,,,,,,,,,
,,,,,,,,,,,,,,,,,,,,,,
,,,,,,,,,,,,,,,,,,,,,,
,,,,,,,,,,,,,,,,,,,,,,
,,,,,,,,,,,,,,,,,,,,,,
,,,,,,,,,,,,,,,,,,,,,,
,,,,,,,,,,,,,,,,,,,,,,
,,,,,,,,,,,,,,,,,,,,,,
,,,,,,,,,,,,,,,,,,,,,,
,,,,,,,,,,,,,,,,,,,,,,
,,,,,,,,,,,,,,,,,,,,,,
,,,,,,,,,,,,,,,,,,,,,,
,,,,,,,,,,,,,,,,,,,,,,
,,,,,,,,,,,,,,,,,,,,,,
,,,,,,,,,,,,,,,,,,,,,,
,,,,,,,,,,,,,,,,,,,,,,
,,,,,,,,,,,,,,,,,,,,,,
,,,,,,,,,,,,,,,,,,,,,,
,,,,,,,,,,,,,,,,,,,,,,
,,,,,,,,,,,,,,,,,,,,,,
,,,,,,,,,,,,, NSW,,,,,,,,,
,,,,,,,,,,,,,,,,,,,,,,
,,,,,,,,,,,,,,,,,,,,,,
,,,,,,,,,,,,,,,,,,,,,,
,,,,,,,,,,,,,,,,,,,,,,
,,,,,,,,,,,,,,,,,,,,,,
,,,,,,,,,,,,,,,,,,,,,,
,,,,,,,,,,,,,,,,,,,,,,
,,,,,,,,,,,,,,,,,,,,,,
,,,,,,,,,,,,,,,,,,,,,,
,,,,,,,,,,,,,,,,,,,,,,
,,,,,,,,,,,,,,,,,,,,,,
,,,,,,,,,,,,,,,,,,,,,,
,,,,,,,,,,,,,,,,,,,,,,
,,,,,,,,,,,,,,,,,,,,,,
,,,,,,,,,,,,,,,,,,,,,,
,,,,,,,,,,,,,,,,,,,,,,
,,,,,,,,,,,,,,,,,,,,,,
,,,,,,,,,,,,,,,,,,,,,,
,,,,,,,,,,,,,,,,,,,,,,
,,,,,,,,,,,,,,,,,,,,,,
,,,,,,,,,,,,,,,,,,,,,,
,,,,,,,,,,,,,,,,,,,,,,
,,,,,,,,,,,,,,,,,,,,,,
,,,,,,,,,,,,,,,,,,,,,,
,,,,,,,,,,,,,,,,,,,,,,
,,,,,,,,,,,,,,,,,,,,,,
,,,,,,,,,,,,,,,,,,,,,,
,,,,,,,,,,,,,,,,,,,,,,
,,,,,,,,,,,,,,,,,,,,,,
,,,,,,,,,,,,,,,,,,,,,,
,,,,,,,,,,,,,,,,,,,,,,
,,,,,,,,,,,,,,,,,,,,,,
,,,,,,,,,,,,,,,,,,,,,,
,,,,,,,,,,,,,,,,,,,,,,
,,,,,,,,,,,,,,,,,,,,,,
,,,,,,,,,,,,,,,,,,,,,,
,,,,,,,,,,,,,,,,,,,,,,
,,,,,,,,,,,,,,,,,,,,,,
,,,,,,,,,,,,,,,,,,,,,,
,,,,,,,,,,,,, Osaka,,,,,,,,,
,,,,,,,,,,,,, Osaka,,,,,,,,,
,,,,,,,,,,,,,,,,,,,,,,
,,,,,,,,,,,,,,,,,,,,,,
,,,,,,,,,,,,,,,,,,,,,,
,,,,,,,,,,,,,,,,,,,,,,
,,,,,,,,,,,,,,,,,,,,,,
,,,,,,,,,,,,,,,,,,,,,,
,,,,,,,,,,,,,,,,,,,,,,
,,,,,,,,,,,,, CA,,,,,,,,,
,,,,,,,,,,,,, Okinawa,,,,,,,,,
,,,,,,,,,,,,,,,,,,,,,,
,,,,,,,,,,,,,,,,,,,,,,
,,,,,,,,,,,,,,,,,,,,,,
,,,,,,,,,,,,, PB,,,,,,,,,
,,,,,,,,,,,,,,,,,,,,,,
,,,,,,,,,,,,,,,,,,,,,,
,,,,,,,,,,,,,,,,,,,,,,
,,,,,,,,,,,,,,,,,,,,,,
,,,,,,,,,,,,,,,,,,,,,,
,,,,,,,,,,,,,,,,,,,,,,
,,,,,,,,,,,,, PE,,,,,,,,,
,,,,,,,,,,,,,,,,,,,,,,
,,,,,,,,,,,,,,,,,,,,,,
,,,,,,,,,,,,,,,,,,,,,,
,,,,,,,,,,,,,,,,,,,,,,
,,,,,,,,,,,,,,,,,,,,,,
,,,,,,,,,,,,,,,,,,,,,,
,,,,,,,,,,,,,,,,,,,,,,
,,,,,,,,,,,,,,,,,,,,,,
,,,,,,,,,,,,,,,,,,,,,,
,,,,,,,,,,,,,,,,,,,,,,
,,,,,,,,,,,,,,,,,,,,,,
,,,,,,,,,,,,,,,,,,,,,,
,,,,,,,,,,,,,,,,,,,,,,
,,,,,,,,,,,,,,,,,,,,,,
,,,,,,,,,,,,,,,,,,,,,,
,,,,,,,,,,,,,,,,,,,,,,
,,,,,,,,,,,,,,,,,,,,,,
,,,,,,,,,,,,,,,,,,,,,,
,,,,,,,,,,,,,,,,,,,,,,
,,,,,,,,,,,,,,,,,,,,,,
,,,,,,,,,,,,,,,,,,,,,,
,,,,,,,,,,,,, ParanÃ¡,,,,,,,,,
,,,,,,,,,,,,,,,,,,,,,,
,,,,,,,,,,,,,,,,,,,,,,
,,,,,,,,,,,,,,,,,,,,,,
,,,,,,,,,,,,, CA,,,,,,,,,
,,,,,,,,,,,,,,,,,,,,,,
,,,,,,,,,,,,,,,,,,,,,,
,,,,,,,,,,,,,,,,,,,,,,
,,,,,,,,,,,,,,,,,,,,,,
,,,,,,,,,,,,,,,,,,,,,,
,,,,,,,,,,,,,,,,,,,,,,
,,,,,,,,,,,,,,,,,,,,,,
,,,,,,,,,,,,,,,,,,,,,,
,,,,,,,,,,,,,,,,,,,,,,
,,,,,,,,,,,,,,,,,,,,,,
,,,,,,,,,,,,,,,,,,,,,,
,,,,,,,,,,,,,,,,,,,,,,
,,,,,,,,,,,,, Valle de TrÃ¡paga,,,,,,,,,
,,,,,,,,,,,,,,,,,,,,,,
,,,,,,,,,,,,,,,,,,,,,,
,,,,,,,,,,,,,,,,,,,,,,
,,,,,,,,,,,,,,,,,,,,,,
,,,,,,,,,,,,,,,,,,,,,,
,,,,,,,,,,,,,,,,,,,,,,
,,,,,,,,,,,,,,,,,,,,,,
,,,,,,,,,,,,,,,,,,,,,,
,,,,,,,,,,,,,,,,,,,,,,
,,,,,,,,,,,,,,,,,,,,,,
,,,,,,,,,,,,,,,,,,,,,,
,,,,,,,,,,,,,,,,,,,,,,
,,,,,,,,,,,,,,,,,,,,,,
,,,,,,,,,,,,,,,,,,,,,,
,,,,,,,,,,,,,,,,,,,,,,
,,,,,,,,,,,,,,,,,,,,,,
,,,,,,,,,,,,, Rio de Janeiro, RJ,,,,,,,,
,,,,,,,,,,,,,,,,,,,,,,
,,,,,,,,,,,,,,,,,,,,,,
,,,,,,,,,,,,,,,,,,,,,,
,,,,,,,,,,,,,,,,,,,,,,
,,,,,,,,,,,,,,,,,,,,,,
,,,,,,,,,,,,,,,,,,,,,,
,,,,,,,,,,,,,,,,,,,,,,
,,,,,,,,,,,,,,,,,,,,,,
,,,,,,,,,,,,,,,,,,,,,,
,,,,,,,,,,,,,,,,,,,,,,
,,,,,,,,,,,,,,,,,,,,,,
,,,,,,,,,,,,,,,,,,,,,,
,,,,,,,,,,,,,,,,,,,,,,
,,,,,,,,,,,,,,,,,,,,,,
,,,,,,,,,,,,,,,,,,,,,,
,,,,,,,,,,,,,,,,,,,,,,
,,,,,,,,,,,,,,,,,,,,,,
,,,,,,,,,,,,,,,,,,,,,,
,,,,,,,,,,,,,,,,,,,,,,
,,,,,,,,,,,,,,,,,,,,,,
,,,,,,,,,,,,,,,,,,,,,,
,,,,,,,,,,,,,,,,,,,,,,
,,,,,,,,,,,,,,,,,,,,,,
,,,,,,,,,,,,,,,,,,,,,,
,,,,,,,,,,,,,,,,,,,,,,
,,,,,,,,,,,,,,,,,,,,,,
,,,,,,,,,,,,,,,,,,,,,,
,,,,,,,,,,,,,,,,,,,,,,
,,,,,,,,,,,,, BA,,,,,,,,,
,,,,,,,,,,,,,,,,,,,,,,
,,,,,,,,,,,,,,,,,,,,,,
,,,,,,,,,,,,,,,,,,,,,,
,,,,,,,,,,,,,,,,,,,,,,
,,,,,,,,,,,,,,,,,,,,,,
,,,,,,,,,,,,,,,,,,,,,,
,,,,,,,,,,,,,,,,,,,,,,
,,,,,,,,,,,,,,,,,,,,,,
,,,,,,,,,,,,,,,,,,,,,,
,,,,,,,,,,,,,,,,,,,,,,
,,,,,,,,,,,,,,,,,,,,,,
,,,,,,,,,,,,,,,,,,,,,,
,,,,,,,,,,,,,,,,,,,,,,
,,,,,,,,,,,,,,,,,,,,,,
,,,,,,,,,,,,,,,,,,,,,,
,,,,,,,,,,,,,,,,,,,,,,
,,,,,,,,,,,,,,,,,,,,,,
,,,,,,,,,,,,,,,,,,,,,,
,,,,,,,,,,,,,,,,,,,,,,
,,,,,,,,,,,,,,,,,,,,,,
,,,,,,,,,,,,,,,,,,,,,,
,,,,,,,,,,,,,,,,,,,,,,
,,,,,,,,,,,,,,,,,,,,,,
,,,,,,,,,,,,,,,,,,,,,,
,,,,,,,,,,,,, Mza 02, Fraccionamiento Zona Industrial, San Luis Potosi, San Luis Potosi,,,,,,
,,,,,,,,,,,,,,,,,,,,,,
,,,,,,,,,,,,,,,,,,,,,,
,,,,,,,,,,,,,,,,,,,,,,
,,,,,,,,,,,,,,,,,,,,,,
,,,,,,,,,,,,,,,,,,,,,,
,,,,,,,,,,,,,,,,,,,,,,
,,,,,,,,,,,,, SP,,,,,,,,,
,,,,,,,,,,,,,,,,,,,,,,
,,,,,,,,,,,,, SP,,,,,,,,,
,,,,,,,,,,,,,,,,,,,,,,
,,,,,,,,,,,,,,,,,,,,,,
,,,,,,,,,,,,,,,,,,,,,,
,,,,,,,,,,,,,,,,,,,,,,
,,,,,,,,,,,,,,,,,,,,,,
,,,,,,,,,,,,,,,,,,,,,,
,,,,,,,,,,,,,,,,,,,,,,
,,,,,,,,,,,,,,,,,,,,,,
,,,,,,,,,,,,,,,,,,,,,,
,,,,,,,,,,,,,,,,,,,,,,
,,,,,,,,,,,,,,,,,,,,,,
,,,,,,,,,,,,,,,,,,,,,,
,,,,,,,,,,,,,,,,,,,,,,
,,,,,,,,,,,,,,,,,,,,,,
,,,,,,,,,,,,,,,,,,,,,,
,,,,,,,,,,,,,,,,,,,,,,
,,,,,,,,,,,,,,,,,,,,,,
,,,,,,,,,,,,,,,,,,,,,,
,,,,,,,,,,,,,,,,,,,,,,
,,,,,,,,,,,,,,,,,,,,,,
,,,,,,,,,,,,,,,,,,,,,,
,,,,,,,,,,,,,,,,,,,,,,
,,,,,,,,,,,,,,,,,,,,,,
,,,,,,,,,,,,,,,,,,,,,,
,,,,,,,,,,,,,,,,,,,,,,
,,,,,,,,,,,,,,,,,,,,,,
,,,,,,,,,,,,,,,,,,,,,,
,,,,,,,,,,,,,,,,,,,,,,
,,,,,,,,,,,,,,,,,,,,,,
,,,,,,,,,,,,,,,,,,,,,,
,,,,,,,,,,,,,,,,,,,,,,
,,,,,,,,,,,,, Baja California,,,,,,,,,
,,,,,,,,,,,,,,,,,,,,,,
,,,,,,,,,,,,,,,,,,,,,,
,,,,,,,,,,,,, Tokyo,,,,,,,,,
,,,,,,,,,,,,,,,,,,,,,,
,,,,,,,,,,,,,,,,,,,,,,
,,,,,,,,,,,,,,,,,,,,,,
,,,,,,,,,,,,,,,,,,,,,,
,,,,,,,,,,,,,,,,,,,,,,
,,,,,,,,,,,,,,,,,,,,,,
,,,,,,,,,,,,,,,,,,,,,,
,,,,,,,,,,,,,,,,,,,,,,
,,,,,,,,,,,,,,,,,,,,,,
,,,,,,,,,,,,,,,,,,,,,,
,,,,,,,,,,,,,,,,,,,,,,
,,,,,,,,,,,,,,,,,,,,,,
,,,,,,,,,,,,,,,,,,,,,,
,,,,,,,,,,,,,,,,,,,,,,
,,,,,,,,,,,,,,,,,,,,,,
,,,,,,,,,,,,,,,,,,,,,,
,,,,,,,,,,,,,,,,,,,,,,
,,,,,,,,,,,,,,,,,,,,,,
,,,,,,,,,,,,,,,,,,,,,,
,,,,,,,,,,,,,,,,,,,,,,
,,,,,,,,,,,,,,,,,,,,,,
,,,,,,,,,,,,,,,,,,,,,,
,,,,,,,,,,,,,,,,,,,,,,
,,,,,,,,,,,,,,,,,,,,,,
,,,,,,,,,,,,,,,,,,,,,,
,,,,,,,,,,,,,,,,,,,,,,
,,,,,,,,,,,,,,,,,,,,,,
,,,,,,,,,,,,,,,,,,,,,,
,,,,,,,,,,,,,,,,,,,,,,
,,,,,,,,,,,,,,,,,,,,,,
,,,,,,,,,,,,,,,,,,,,,,
,,,,,,,,,,,,,,,,,,,,,,
,,,,,,,,,,,,,,,,,,,,,,
,,,,,,,,,,,,,,,,,,,,,,
,,,,,,,,,,,,,,,,,,,,,,
,,,,,,,,,,,,,,,,,,,,,,
,,,,,,,,,,,,,,,,,,,,,,
,,,,,,,,,,,,,,,,,,,,,,
,,,,,,,,,,,,,,,,,,,,,,
,,,,,,,,,,,,,,,,,,,,,,
,,,,,,,,,,,,,,,,,,,,,,
,,,,,,,,,,,,,,,,,,,,,,
,,,,,,,,,,,,,,,,,,,,,,
,,,,,,,,,,,,,,,,,,,,,,
,,,,,,,,,,,,,,,,,,,,,,
,,,,,,,,,,,,,,,,,,,,,,
,,,,,,,,,,,,,,,,,,,,,,
,,,,,,,,,,,,,,,,,,,,,,
,,,,,,,,,,,,,,,,,,,,,,
,,,,,,,,,,,,,,,,,,,,,,
,,,,,,,,,,,,,,,,,,,,,,
,,,,,,,,,,,,,,,,,,,,,,
,,,,,,,,,,,,, Chihuahua,,,,,,,,,
,,,,,,,,,,,,,,,,,,,,,,
,,,,,,,,,,,,,,,,,,,,,,
,,,,,,,,,,,,,,,,,,,,,,
,,,,,,,,,,,,,,,,,,,,,,
,,,,,,,,,,,,,,,,,,,,,,
,,,,,,,,,,,,,,,,,,,,,,
,,,,,,,,,,,,,,,,,,,,,,
,,,,,,,,,,,,,,,,,,,,,,
,,,,,,,,,,,,,,,,,,,,,,
,,,,,,,,,,,,,,,,,,,,,,
,,,,,,,,,,,,,,,,,,,,,,
,,,,,,,,,,,,,,,,,,,,,,
,,,,,,,,,,,,,,,,,,,,,,
,,,,,,,,,,,,,,,,,,,,,,
,,,,,,,,,,,,,,,,,,,,,,
,,,,,,,,,,,,,,,,,,,,,,
,,,,,,,,,,,,,,,,,,,,,,
,,,,,,,,,,,,,,,,,,,,,,
,,,,,,,,,,,,,,,,,,,,,,
,,,,,,,,,,,,,,,,,,,,,,
,,,,,,,,,,,,,,,,,,,,,,
,,,,,,,,,,,,, Tabasco,,,,,,,,,
,,,,,,,,,,,,,,,,,,,,,,
,,,,,,,,,,,,,,,,,,,,,,
,,,,,,,,,,,,,,,,,,,,,,
,,,,,,,,,,,,,,,,,,,,,,
,,,,,,,,,,,,,,,,,,,,,,
,,,,,,,,,,,,,,,,,,,,,,
,,,,,,,,,,,,,,,,,,,,,,
,,,,,,,,,,,,,,,,,,,,,,
,,,,,,,,,,,,,,,,,,,,,,
,,,,,,,,,,,,,,,,,,,,,,
,,,,,,,,,,,,,,,,,,,,,,
,,,,,,,,,,,,,,,,,,,,,,
,,,,,,,,,,,,,,,,,,,,,,
,,,,,,,,,,,,,,,,,,,,,,
,,,,,,,,,,,,,,,,,,,,,,
,,,,,,,,,,,,,,,,,,,,,,
,,,,,,,,,,,,,,,,,,,,,,
,,,,,,,,,,,,, Hyogo,,,,,,,,,
,,,,,,,,,,,,,,,,,,,,,,
,,,,,,,,,,,,,,,,,,,,,,
,,,,,,,,,,,,,,,,,,,,,,
,,,,,,,,,,,,,,,,,,,,,,
,,,,,,,,,,,,,,,,,,,,,,
,,,,,,,,,,,,,,,,,,,,,,
,,,,,,,,,,,,,,,,,,,,,,
,,,,,,,,,,,,,,,,,,,,,,
,,,,,,,,,,,,,,,,,,,,,,
,,,,,,,,,,,,,,,,,,,,,,
,,,,,,,,,,,,,,,,,,,,,,
,,,,,,,,,,,,,,,,,,,,,,
,,,,,,,,,,,,,,,,,,,,,,
,,,,,,,,,,,,,,,,,,,,,,
,,,,,,,,,,,,,,,,,,,,,,
,,,,,,,,,,,,,,,,,,,,,,
,,,,,,,,,,,,, Dubai,,,,,,,,,
,,,,,,,,,,,,,,,,,,,,,,
,,,,,,,,,,,,, CA,,,,,,,,,
,,,,,,,,,,,,,,,,,,,,,,
,,,,,,,,,,,,,,,,,,,,,,
,,,,,,,,,,,,,,,,,,,,,,
,,,,,,,,,,,,,,,,,,,,,,
,,,,,,,,,,,,,,,,,,,,,,
,,,,,,,,,,,,,,,,,,,,,,
,,,,,,,,,,,,,,,,,,,,,,
,,,,,,,,,,,,,,,,,,,,,,
,,,,,,,,,,,,,,,,,,,,,,
,,,,,,,,,,,,,,,,,,,,,,
,,,,,,,,,,,,,,,,,,,,,,
,,,,,,,,,,,,,,,,,,,,,,
,,,,,,,,,,,,,,,,,,,,,,
,,,,,,,,,,,,,,,,,,,,,,
,,,,,,,,,,,,,,,,,,,,,,
,,,,,,,,,,,,, Sheffield,,,,,,,,,
,,,,,,,,,,,,,,,,,,,,,,
,,,,,,,,,,,,,,,,,,,,,,
,,,,,,,,,,,,,,,,,,,,,,
,,,,,,,,,,,,,,,,,,,,,,
,,,,,,,,,,,,,,,,,,,,,,
,,,,,,,,,,,,,,,,,,,,,,
,,,,,,,,,,,,,,,,,,,,,,
,,,,,,,,,,,,,,,,,,,,,,
,,,,,,,,,,,,,,,,,,,,,,
,,,,,,,,,,,,,,,,,,,,,,
,,,,,,,,,,,,,,,,,,,,,,
,,,,,,,,,,,,,,,,,,,,,,
,,,,,,,,,,,,,,,,,,,,,,
,,,,,,,,,,,,,,,,,,,,,,
,,,,,,,,,,,,, NY,,,,,,,,,
,,,,,,,,,,,,,,,,,,,,,,
,,,,,,,,,,,,,,,,,,,,,,
,,,,,,,,,,,,,,,,,,,,,,
,,,,,,,,,,,,,,,,,,,,,,
,,,,,,,,,,,,,,,,,,,,,,
,,,,,,,,,,,,,,,,,,,,,,
,,,,,,,,,,,,,,,,,,,,,,
,,,,,,,,,,,,,,,,,,,,,,
,,,,,,,,,,,,,,,,,,,,,,
,,,,,,,,,,,,,,,,,,,,,,
,,,,,,,,,,,,,,,,,,,,,,
,,,,,,,,,,,,,,,,,,,,,,
,,,,,,,,,,,,,,,,,,,,,,
,,,,,,,,,,,,,,,,,,,,,,
,,,,,,,,,,,,,,,,,,,,,,
,,,,,,,,,,,,,,,,,,,,,,
,,,,,,,,,,,,,,,,,,,,,,
,,,,,,,,,,,,,,,,,,,,,,
,,,,,,,,,,,,,,,,,,,,,,
,,,,,,,,,,,,,,,,,,,,,,
,,,,,,,,,,,,,,,,,,,,,,
,,,,,,,,,,,,,,,,,,,,,,
,,,,,,,,,,,,,,,,,,,,,,
,,,,,,,,,,,,,,,,,,,,,,
,,,,,,,,,,,,,,,,,,,,,,
,,,,,,,,,,,,,,,,,,,,,,
,,,,,,,,,,,,,,,,,,,,,,
,,,,,,,,,,,,,,,,,,,,,,
,,,,,,,,,,,,,,,,,,,,,,
,,,,,,,,,,,,,,,,,,,,,,
,,,,,,,,,,,,,,,,,,,,,,
,,,,,,,,,,,,,,,,,,,,,,
,,,,,,,,,,,,,,,,,,,,,,
,,,,,,,,,,,,,,,,,,,,,,
,,,,,,,,,,,,,,,,,,,,,,
,,,,,,,,,,,,,,,,,,,,,,
,,,,,,,,,,,,,,,,,,,,,,
,,,,,,,,,,,,,,,,,,,,,,
,,,,,,,,,,,,,,,,,,,,,,
,,,,,,,,,,,,,,,,,,,,,,
,,,,,,,,,,,,, Haryana,,,,,,,,,
,,,,,,,,,,,,,,,,,,,,,,
,,,,,,,,,,,,,,,,,,,,,,
,,,,,,,,,,,,,,,,,,,,,,
,,,,,,,,,,,,,,,,,,,,,,
,,,,,,,,,,,,,,,,,,,,,,
,,,,,,,,,,,,,,,,,,,,,,
,,,,,,,,,,,,,,,,,,,,,,
,,,,,,,,,,,,,,,,,,,,,,
,,,,,,,,,,,,,,,,,,,,,,
,,,,,,,,,,,,, Itaitinga, CE,,,,,,,,
,,,,,,,,,,,,,,,,,,,,,,
,,,,,,,,,,,,,,,,,,,,,,
,,,,,,,,,,,,,,,,,,,,,,
,,,,,,,,,,,,,,,,,,,,,,
,,,,,,,,,,,,,,,,,,,,,,
,,,,,,,,,,,,,,,,,,,,,,
,,,,,,,,,,,,,,,,,,,,,,
,,,,,,,,,,,,,,,,,,,,,,
,,,,,,,,,,,,,,,,,,,,,,
,,,,,,,,,,,,,,,,,,,,,,
,,,,,,,,,,,,,,,,,,,,,,
,,,,,,,,,,,,,,,,,,,,,,
,,,,,,,,,,,,,,,,,,,,,,
,,,,,,,,,,,,,,,,,,,,,,
,,,,,,,,,,,,,,,,,,,,,,
,,,,,,,,,,,,,,,,,,,,,,
,,,,,,,,,,,,,,,,,,,,,,
,,,,,,,,,,,,,,,,,,,,,,
,,,,,,,,,,,,, Visakhapatnam, Andhra Pradesh,,,,,,,,
,,,,,,,,,,,,,,,,,,,,,,
,,,,,,,,,,,,,,,,,,,,,,
,,,,,,,,,,,,, GA,,,,,,,,,
,,,,,,,,,,,,, Assam, Assam,,,,,,,,
,,,,,,,,,,,,,,,,,,,,,,
,,,,,,,,,,,,,,,,,,,,,,
,,,,,,,,,,,,, Jalisco,,,,,,,,,
,,,,,,,,,,,,,,,,,,,,,,
,,,,,,,,,,,,,,,,,,,,,,
,,,,,,,,,,,,,,,,,,,,,,
,,,,,,,,,,,,,,,,,,,,,,
,,,,,,,,,,,,,,,,,,,,,,
,,,,,,,,,,,,,,,,,,,,,,
,,,,,,,,,,,,,,,,,,,,,,
,,,,,,,,,,,,,,,,,,,,,,
,,,,,,,,,,,,,, Gorakhpur, Uttar Pradesh,,,,,,,
,,,,,,,,,,,,,,,,,,,,,,
,,,,,,,,,,,,, D1, SP NO.7 SUR NO 183/ 2 OP NO 19/ 2 TS NO 62, Ahmedabad, Gujarat,,,,,,
,,,,,,,,,,,,,,,,,,,,,,
,,,,,,,,,,,,, Guntur, Andhra Pradesh,,,,,,,,
,,,,,,,,,,,,,,,,,,,,,,
,,,,,,,,,,,,,,,,,,,,,,
,,,,,,,,,,,,,,,,,,,,,,
,,,,,,,,,,,,, SP,,,,,,,,,
,,,,,,,,,,,,,,,,,,,,,,
,,,,,,,,,,,,, SP,,,,,,,,,
,,,,,,,,,,,,,,,,,,,,,,
,,,,,,,,,,,,,,,,,,,,,,
,,,,,,,,,,,,,,,,,,,,,,
,,,,,,,,,,,,,,,,,,,,,,
,,,,,,,,,,,,,,,,,,,,,,
,,,,,,,,,,,,,,,,,,,,,,
,,,,,,,,,,,,,,,,,,,,,,
,,,,,,,,,,,,, Sahibabad District, Ghaziabad, Uttar Pradesh,,,,,,,
,,,,,,,,,,,,,, Ghaziabad, Uttar Pradesh,,,,,,,
,,,,,,,,,,,,,,,,,,,,,,
,,,,,,,,,,,,,,,,,,,,,,
,,,,,,,,,,,,,,,,,,,,,,
,,,,,,,,,,,,,,,,,,,,,,
,,,,,,,,,,,,,,,,,,,,,,
,,,,,,,,,,,,,,,,,,,,,,
,,,,,,,,,,,,,,,,,,,,,,
,,,,,,,,,,,,,,,,,,,,,,
,,,,,,,,,,,,,,,,,,,,,,
,,,,,,,,,,,,,,,,,,,,,,
,,,,,,,,,,,,,,,,,,,,,,
,,,,,,,,,,,,,,,,,,,,,,
,,,,,,,,,,,,,,,,,,,,,,
,,,,,,,,,,,,, Kolar, Karnataka,,,,,,,,
,,,,,,,,,,,,,,,,,,,,,,
,,,,,,,,,,,,,,,,,,,,,,
,,,,,,,,,,,,,,,,,,,,,,
,,,,,,,,,,,,,,,,,,,,,,
,,,,,,,,,,,,,,,,,,,,,,
,,,,,,,,,,,,,,,,,,,,,,
,,,,,,,,,,,,,,,,,,,,,,
,,,,,,,,,,,,,,,,,,,,,,
,,,,,,,,,,,,,,,,,,,,,,
,,,,,,,,,,,,,,,,,,,,,,
,,,,,,,,,,,,,,,,,,,,,,
,,,,,,,,,,,,,,,,,,,,,,
,,,,,,,,,,,,,,,,,,,,,,
,,,,,,,,,,,,,,,,,,,,,,
,,,,,,,,,,,,,,,,,,,,,,
,,,,,,,,,,,,,,,,,,,,,,
,,,,,,,,,,,,,,,,,,,,,,
,,,,,,,,,,,,,,,,,,,,,,
,,,,,,,,,,,,,,,,,,,,,,
,,,,,,,,,,,,,,,,,,,,,,
,,,,,,,,,,,,,,,,,,,,,,
,,,,,,,,,,,,,,,,,,,,,,
,,,,,,,,,,,,,,,,,,,,,,
,,,,,,,,,,,,,,,,,,,,,,
,,,,,,,,,,,,,,,,,,,,,,
,,,,,,,,,,,,,,,,,,,,,,
,,,,,,,,,,,,,,,,,,,,,,
,,,,,,,,,,,,,,,,,,,,,,
,,,,,,,,,,,,,,,,,,,,,,
,,,,,,,,,,,,,,,,,,,,,,
,,,,,,,,,,,,,,,,,,,,,,
,,,,,,,,,,,,,,,,,,,,,,
,,,,,,,,,,,,, Ghaziabad, Uttar Pradesh,,,,,,,,
,,,,,,,,,,,,, Rectangle No. 34/35/41/42/60/66, Village Dhateer,, Teharki, Haryana,,,,,
,,,,,,,,,,,,,,,,,,,,,,
,,,,,,,,,,,,,,,,,,,,,,
,,,,,,,,,,,,,,,,,,,,,,
,,,,,,,,,,,,,,,,,,,,,,
,,,,,,,,,,,,,,,,,,,,,,
,,,,,,,,,,,,,,,,,,,,,,
,,,,,,,,,,,,,,,,,,,,,,
,,,,,,,,,,,,,,,,,,,,,,
,,,,,,,,,,,,,,,,,,,,,,
,,,,,,,,,,,,,,,,,,,,,,
,,,,,,,,,,,,,,,,,,,,,,
,,,,,,,,,,,,,,,,,,,,,,
,,,,,,,,,,,,,,,,,,,,,,
,,,,,,,,,,,,,,,,,,,,,,
,,,,,,,,,,,,,,,,,,,,,,
,,,,,,,,,,,,, Kanagawa,,,,,,,,,
,,,,,,,,,,,,,,,,,,,,,,
,,,,,,,,,,,,,,,,,,,,,,
,,,,,,,,,,,,,,,,,,,,,,
,,,,,,,,,,,,,,,,,,,,,,
,,,,,,,,,,,,,,,,,,,,,,
,,,,,,,,,,,,,,,,,,,,,,
,,,,,,,,,,,,, Telangana,,,,,,,,,
,,,,,,,,,,,,,,,,,,,,,,
,,,,,,,,,,,,,,,,,,,,,,
,,,,,,,,,,,,,,,,,,,,,,
,,,,,,,,,,,,,,,,,,,,,,
,,,,,,,,,,,,,,,,,,,,,,
,,,,,,,,,,,,,,,,,,,,,,
,,,,,,,,,,,,,,,,,,,,,,
,,,,,,,,,,,,,,,,,,,,,,
,,,,,,,,,,,,,,,,,,,,,,
,,,,,,,,,,,,,,,,,,,,,,
,,,,,,,,,,,,,,,,,,,,,,
,,,,,,,,,,,,,,,,,,,,,,
,,,,,,,,,,,,,,,,,,,,,,
,,,,,,,,,,,,,,,,,,,,,,
,,,,,,,,,,,,,,,,,,,,,,
,,,,,,,,,,,,,,,,,,,,,,
,,,,,,,,,,,,,,,,,,,,,,
,,,,,,,,,,,,,,,,,,,,,,
,,,,,,,,,,,,,,,,,,,,,,
,,,,,,,,,,,,,,,,,,,,,,
,,,,,,,,,,,,,,,,,,,,,,
,,,,,,,,,,,,,,,,,,,,,,
,,,,,,,,,,,,,,,,,,,,,,
,,,,,,,,,,,,,,,,,,,,,,
,,,,,,,,,,,,,,,,,,,,,,
,,,,,,,,,,,,,,,,,,,,,,
,,,,,,,,,,,,,,,,,,,,,,
,,,,,,,,,,,,,,,,,,,,,,
,,,,,,,,,,,,,,,,,,,,,,
,,,,,,,,,,,,,,,,,,,,,,
,,,,,,,,,,,,,,,,,,,,,,
,,,,,,,,,,,,,,,,,,,,,,
,,,,,,,,,,,,,,,,,,,,,,
,,,,,,,,,,,,,,,,,,,,,,
,,,,,,,,,,,,,,,,,,,,,,
,,,,,,,,,,,,,,,,,,,,,,
,,,,,,,,,,,,,,,,,,,,,,
,,,,,,,,,,,,,,,,,,,,,,
,,,,,,,,,,,,,,,,,,,,,,
,,,,,,,,,,,,, 36/2, 37/1/2, 37/2, 43/1 and 37/1/1, Thane, Maharashtra,,,,
,,,,,,,,,,,,,,,,,,,,,,
,,,,,,,,,,,,,,,,,,,,,,
,,,,,,,,,,,,,,,,,,,,,,
,,,,,,,,,,,,,,,,,,,,,,
,,,,,,,,,,,,,,,,,,,,,,
,,,,,,,,,,,,,,,,,,,,,,
,,,,,,,,,,,,,,,,,,,,,,
,,,,,,,,,,,,, aI Sur de la Carretera a la Colorada, Hermosillo, Sonora,,,,,,,
,,,,,,,,,,,,,,,,,,,,,,
,,,,,,,,,,,,,,,,,,,,,,
,,,,,,,,,,,,,,,,,,,,,,
,,,,,,,,,,,,,,,,,,,,,,
,,,,,,,,,,,,,,,,,,,,,,
,,,,,,,,,,,,,,,,,,,,,,
,,,,,,,,,,,,, Saitama,,,,,,,,,
,,,,,,,,,,,,,,,,,,,,,,
,,,,,,,,,,,,, Kanagawa,,,,,,,,,
,,,,,,,,,,,,, Kanagawa,,,,,,,,,
,,,,,,,,,,,,, Kanagawa,,,,,,,,,
,,,,,,,,,,,,,,,,,,,,,,
,,,,,,,,,,,,,,,,,,,,,,
,,,,,,,,,,,,,,,,,,,,,,
,,,,,,,,,,,,,,,,,,,,,,
,,,,,,,,,,,,,,,,,,,,,,
,,,,,,,,,,,,,,,,,,,,,,
,,,,,,,,,,,,,,,,,,,,,,
,,,,,,,,,,,,,,,,,,,,,,
,,,,,,,,,,,,,,,,,,,,,,
,,,,,,,,,,,,,,,,,,,,,,
,,,,,,,,,,,,,,,,,,,,,,
,,,,,,,,,,,,,,,,,,,,,,
,,,,,,,,,,,,,,,,,,,,,,
,,,,,,,,,,,,,,,,,,,,,,
,,,,,,,,,,,,,,,,,,,,,,
,,,,,,,,,,,,,,,,,,,,,,
,,,,,,,,,,,,,,,,,,,,,,
,,,,,,,,,,,,,,,,,,,,,,
,,,,,,,,,,,,,,,,,,,,,,
,,,,,,,,,,,,,,,,,,,,,,
,,,,,,,,,,,,,,,,,,,,,,
,,,,,,,,,,,,,,,,,,,,,,
,,,,,,,,,,,,,,,,,,,,,,
,,,,,,,,,,,,,,,,,,,,,,
,,,,,,,,,,,,,,,,,,,,,,
,,,,,,,,,,,,,,,,,,,,,,
,,,,,,,,,,,,,,,,,,,,,,
,,,,,,,,,,,,,,,,,,,,,,
,,,,,,,,,,,,,,,,,,,,,,
,,,,,,,,,,,,,,,,,,,,,,
,,,,,,,,,,,,,,,,,,,,,,
,,,,,,,,,,,,,,,,,,,,,,
,,,,,,,,,,,,,,,,,,,,,,
,,,,,,,,,,,,,,,,,,,,,,
,,,,,,,,,,,,,,,,,,,,,,
,,,,,,,,,,,,,,,,,,,,,,
,,,,,,,,,,,,,,,,,,,,,,
,,,,,,,,,,,,,,,,,,,,,,
,,,,,,,,,,,,,,,,,,,,,,
,,,,,,,,,,,,,,,,,,,,,,
,,,,,,,,,,,,,,,,,,,,,,
,,,,,,,,,,,,,,,,,,,,,,
,,,,,,,,,,,,,,,,,,,,,,
,,,,,,,,,,,,,,,,,,,,,,
,,,,,,,,,,,,,,,,,,,,,,
,,,,,,,,,,,,, Saga,,,,,,,,,
,,,,,,,,,,,,,,,,,,,,,,
,,,,,,,,,,,,,,,,,,,,,,
,,,,,,,,,,,,,,,,,,,,,,
,,,,,,,,,,,,,,,,,,,,,,
,,,,,,,,,,,,,,,,,,,,,,
,,,,,,,,,,,,,,,,,,,,,,
,,,,,,,,,,,,,,,,,,,,,,
,,,,,,,,,,,,,,,,,,,,,,
,,,,,,,,,,,,,,,,,,,,,,
,,,,,,,,,,,,,,,,,,,,,,
,,,,,,,,,,,,,,,,,,,,,,
,,,,,,,,,,,,,,,,,,,,,,
,,,,,,,,,,,,,,,,,,,,,,
,,,,,,,,,,,,,,,,,,,,,,
,,,,,,,,,,,,,,,,,,,,,,
,,,,,,,,,,,,,,,,,,,,,,
,,,,,,,,,,,,, Birminghan,,,,,,,,,
,,,,,,,,,,,,,,,,,,,,,,
,,,,,,,,,,,,,,,,,,,,,,
,,,,,,,,,,,,,,,,,,,,,,
,,,,,,,,,,,,,,,,,,,,,,
,,,,,,,,,,,,,,,,,,,,,,
,,,,,,,,,,,,,,,,,,,,,,
,,,,,,,,,,,,,,,,,,,,,,
,,,,,,,,,,,,, Howrah, WB,,,,,,,,
,,,,,,,,,,,,, Kyoto,,,,,,,,,
,,,,,,,,,,,,,,,,,,,,,,
,,,,,,,,,,,,,,,,,,,,,,
,,,,,,,,,,,,,,,,,,,,,,
,,,,,,,,,,,,,,,,,,,,,,
,,,,,,,,,,,,, Telangana,,,,,,,,,
,,,,,,,,,,,,,,,,,,,,,,
,,,,,,,,,,,,, Telangana,,,,,,,,,
,,,,,,,,,,,,, Telangana,,,,,,,,,
,,,,,,,,,,,,, Bollarum, Hyderabad, Telangana,,,,,,,
,,,,,,,,,,,,,,,,,,,,,,
,,,,,,,,,,,,, Hyderabad, Telangana,,,,,,,,
,,,,,,,,,,,,,,,,,,,,,,
,,,,,,,,,,,,,,,,,,,,,,
,,,,,,,,,,,,, Telangana,,,,,,,,,
,,,,,,,,,,,,, Telangana,,,,,,,,,
,,,,,,,,,,,,,  India, Hyderabad, Telangana,,,,,,,
,,,,,,,,,,,,,,,,,,,,,,
,,,,,,,,,,,,,,,,,,,,,,
,,,,,,,,,,,,, Ranga Reddy District, Hyderabad, Telangana,,,,,,,
,,,,,,,,,,,,, Telangana,,,,,,,,,
,,,,,,,,,,,,, QC,,,,,,,,,
,,,,,,,,,,,,,,,,,,,,,,
,,,,,,,,,,,,,,,,,,,,,,
,,,,,,,,,,,,,,,,,,,,,,
,,,,,,,,,,,,,,,,,,,,,,
,,,,,,,,,,,,,,,,,,,,,,
,,,,,,,,,,,,,,,,,,,,,,
,,,,,,,,,,,,,,,,,,,,,,
,,,,,,,,,,,,,,,,,,,,,,
,,,,,,,,,,,,,,,,,,,,,,
,,,,,,,,,,,,,,,,,,,,,,
,,,,,,,,,,,,,,,,,,,,,,
,,,,,,,,,,,,,,,,,,,,,,
,,,,,,,,,,,,,,,,,,,,,,
,,,,,,,,,,,,,,,,,,,,,,
,,,,,,,,,,,,,,,,,,,,,,
,,,,,,,,,,,,, IL,,,,,,,,,
,,,,,,,,,,,,,,,,,,,,,,
,,,,,,,,,,,,,,,,,,,,,,
,,,,,,,,,,,,,,,,,,,,,,
,,,,,,,,,,,,,,,,,,,,,,
,,,,,,,,,,,,,,,,,,,,,,
,,,,,,,,,,,,,,,,,,,,,,
,,,,,,,,,,,,,,,,,,,,,,
,,,,,,,,,,,,,,,,,,,,,,
,,,,,,,,,,,,,,,,,,,,,,
,,,,,,,,,,,,,,,,,,,,,,
,,,,,,,,,,,,,,,,,,,,,,
,,,,,,,,,,,,,,,,,,,,,,
,,,,,,,,,,,,,,,,,,,,,,
,,,,,,,,,,,,,,,,,,,,,,
,,,,,,,,,,,,,,,,,,,,,,
,,,,,,,,,,,,,,,,,,,,,,
,,,,,,,,,,,,,,,,,,,,,,
,,,,,,,,,,,,,,,,,,,,,,
,,,,,,,,,,,,,,,,,,,,,,
,,,,,,,,,,,,,,,,,,,,,,
,,,,,,,,,,,,,,,,,,,,,,
,,,,,,,,,,,,,,,,,,,,,,
,,,,,,,,,,,,,,,,,,,,,,
,,,,,,,,,,,,,,,,,,,,,,
,,,,,,,,,,,,,,,,,,,,,,
,,,,,,,,,,,,,,,,,,,,,,
,,,,,,,,,,,,,,,,,,,,,,
,,,,,,,,,,,,,,,,,,,,,,
,,,,,,,,,,,,,,,,,,,,,,
,,,,,,,,,,,,,,,,,,,,,,
,,,,,,,,,,,,,,,,,,,,,,
,,,,,,,,,,,,,,,,,,,,,,
,,,,,,,,,,,,,,,,,,,,,,
,,,,,,,,,,,,,,,,,,,,,,
,,,,,,,,,,,,,,,,,,,,,,
,,,,,,,,,,,,,,,,,,,,,,
,,,,,,,,,,,,,,,,,,,,,,
,,,,,,,,,,,,,,,,,,,,,,
,,,,,,,,,,,,,,,,,,,,,,
,,,,,,,,,,,,,,,,,,,,,,
,,,,,,,,,,,,,,,,,,,,,,
,,,,,,,,,,,,,,,,,,,,,,
,,,,,,,,,,,,,,,,,,,,,,
,,,,,,,,,,,,, Maharashtra,,,,,,,,,
,,,,,,,,,,,,, Maharashtra,,,,,,,,,
,,,,,,,,,,,,,,,,,,,,,,
,,,,,,,,,,,,,,,,,,,,,,
,,,,,,,,,,,,,,,,,,,,,,
,,,,,,,,,,,,,,,,,,,,,,
,,,,,,,,,,,,,,,,,,,,,,
,,,,,,,,,,,,,,,,,,,,,,
,,,,,,,,,,,,,,,,,,,,,,
,,,,,,,,,,,,,,,,,,,,,,
,,,,,,,,,,,,, Punjab,,,,,,,,,
,,,,,,,,,,,,, Haryana,,,,,,,,,
,,,,,,,,,,,,,,,,,,,,,,
,,,,,,,,,,,,, Uttar Pradesh,,,,,,,,,
,,,,,,,,,,,,,,,,,,,,,,
,,,,,,,,,,,,, Jaipur, Rajasthan,,,,,,,,
,,,,,,,,,,,,,,,,,,,,,,
,,,,,,,,,,,,,,,,,,,,,,
,,,,,,,,,,,,,,,,,,,,,,
,,,,,,,,,,,,,,,,,,,,,,
,,,,,,,,,,,,,,,,,,,,,,
,,,,,,,,,,,,,,,,,,,,,,
,,,,,,,,,,,,,,,,,,,,,,
,,,,,,,,,,,,, DC,,,,,,,,,
,,,,,,,,,,,,,,,,,,,,,,
,,,,,,,,,,,,,,,,,,,,,,
,,,,,,,,,,,,,,,,,,,,,,
,,,,,,,,,,,,,,,,,,,,,,
,,,,,,,,,,,,,,,,,,,,,,
,,,,,,,,,,,,,,,,,,,,,,
,,,,,,,,,,,,,,,,,,,,,,
,,,,,,,,,,,,,,,,,,,,,,
,,,,,,,,,,,,,,,,,,,,,,
,,,,,,,,,,,,,,,,,,,,,,
,,,,,,,,,,,,,,,,,,,,,,
,,,,,,,,,,,,, Jalandhar, Punjab,,,,,,,,
,,,,,,,,,,,,,,,,,,,,,,
,,,,,,,,,,,,, Kyoto,,,,,,,,,
,,,,,,,,,,,,,,,,,,,,,,
,,,,,,,,,,,,,,,,,,,,,,
,,,,,,,,,,,,, Kyoto,,,,,,,,,
,,,,,,,,,,,,, Kyoto,,,,,,,,,
,,,,,,,,,,,,,,,,,,,,,,
,,,,,,,,,,,,, Kanagawa,,,,,,,,,
,,,,,,,,,,,,,,,,,,,,,,
,,,,,,,,,,,,,,,,,,,,,,
,,,,,,,,,,,,,-9,-10,-11,51 Yotsuya, Fuchu, Tokyo,,,,
,,,,,,,,,,,,, Fukuoka,,,,,,,,,
,,,,,,,,,,,,,,,,,,,,,,
,,,,,,,,,,,,,,,,,,,,,,
,,,,,,,,,,,,,,,,,,,,,,
,,,,,,,,,,,,, Yokohama, Kanagawa,,,,,,,,
,,,,,,,,,,,,,,,,,,,,,,
,,,,,,,,,,,,,,,,,,,,,,
,,,,,,,,,,,,,,,,,,,,,,
,,,,,,,,,,,,,,,,,,,,,,
,,,,,,,,,,,,, Hiroshima,,,,,,,,,
,,,,,,,,,,,,,,,,,,,,,,
,,,,,,,,,,,,, Aichi,,,,,,,,,
,,,,,,,,,,,,, Hyogo,,,,,,,,,
,,,,,,,,,,,,,,,,,,,,,,
,,,,,,,,,,,,, Kyoto,,,,,,,,,
,,,,,,,,,,,,,,,,,,,,,,
,,,,,,,,,,,,,,,,,,,,,,
,,,,,,,,,,,,,,,,,,,,,,
,,,,,,,,,,,,,,,,,,,,,,
,,,,,,,,,,,,,,,,,,,,,,
,,,,,,,,,,,,,,,,,,,,,,
,,,,,,,,,,,,,,,,,,,,,,
,,,,,,,,,,,,,,,,,,,,,,
,,,,,,,,,,,,, Aichi,,,,,,,,,
,,,,,,,,,,,,,,,,,,,,,,
,,,,,,,,,,,,,,,,,,,,,,
,,,,,,,,,,,,,,,,,,,,,,
,,,,,,,,,,,,,,,,,,,,,,
,,,,,,,,,,,,,,,,,,,,,,
,,,,,,,,,,,,,,,,,,,,,,
,,,,,,,,,,,,,,,,,,,,,,
,,,,,,,,,,,,,,,,,,,,,,
,,,,,,,,,,,,,,,,,,,,,,
,,,,,,,,,,,,,,,,,,,,,,
,,,,,,,,,,,,,,,,,,,,,,
,,,,,,,,,,,,,,,,,,,,,,
,,,,,,,,,,,,,,,,,,,,,,
,,,,,,,,,,,,,,,,,,,,,,
,,,,,,,,,,,,,,,,,,,,,,
,,,,,,,,,,,,, TX,,,,,,,,,
,,,,,,,,,,,,,,,,,,,,,,
,,,,,,,,,,,,,,,,,,,,,,
,,,,,,,,,,,,,,,,,,,,,,
,,,,,,,,,,,,, Chikkoyawata-machi, Sakai-ku, Sakai, Osaka,,,,,,
,,,,,,,,,,,,,,,,,,,,,,
,,,,,,,,,,,,, Osaka,,,,,,,,,
,,,,,,,,,,,,,,,,,,,,,,
,,,,,,,,,,,,,,,,,,,,,,
,,,,,,,,,,,,,,,,,,,,,,
,,,,,,,,,,,,,,,,,,,,,,
,,,,,,,,,,,,,,,,,,,,,,
,,,,,,,,,,,,,,,,,,,,,,
,,,,,,,,,,,,,,,,,,,,,,
,,,,,,,,,,,,,,,,,,,,,,
,,,,,,,,,,,,, Kanpur, Uttar Pradesh,,,,,,,,
,,,,,,,,,,,,,,,,,,,,,,
,,,,,,,,,,,,,,,,,,,,,,
,,,,,,,,,,,,,,,,,,,,,,
,,,,,,,,,,,,,,,,,,,,,,
,,,,,,,,,,,,,,,,,,,,,,
,,,,,,,,,,,,,,,,,,,,,,
,,,,,,,,,,,,,,,,,,,,,,
,,,,,,,,,,,,,,,,,,,,,,
,,,,,,,,,,,,,,,,,,,,,,
,,,,,,,,,,,,,,,,,,,,,,
,,,,,,,,,,,,, CA,,,,,,,,,
,,,,,,,,,,,,,,,,,,,,,,
,,,,,,,,,,,,,,,,,,,,,,
,,,,,,,,,,,,,,,,,,,,,,
,,,,,,,,,,,,,,,,,,,,,,
,,,,,,,,,,,,,,,,,,,,,,
,,,,,,,,,,,,,,,,,,,,,,
,,,,,,,,,,,,,,,,,,,,,,
,,,,,,,,,,,,,,,,,,,,,,
,,,,,,,,,,,,,,,,,,,,,,
,,,,,,,,,,,,,,,,,,,,,,
,,,,,,,,,,,,,,,,,,,,,,
,,,,,,,,,,,,,,,,,,,,,,
,,,,,,,,,,,,,,,,,,,,,,
,,,,,,,,,,,,,,,,,,,,,,
,,,,,,,,,,,,,,,,,,,,,,
,,,,,,,,,,,,,,,,,,,,,,
,,,,,,,,,,,,,,,,,,,,,,
,,,,,,,,,,,,,,,,,,,,,,
,,,,,,,,,,,,,,,,,,,,,,
,,,,,,,,,,,,,,,,,,,,,,
,,,,,,,,,,,,,,,,,,,,,,
,,,,,,,,,,,,,,,,,,,,,,
,,,,,,,,,,,,,,,,,,,,,,
,,,,,,,,,,,,,,,,,,,,,,
,,,,,,,,,,,,,,,,,,,,,,
,,,,,,,,,,,,,,,,,,,,,,
,,,,,,,,,,,,,,,,,,,,,,
,,,,,,,,,,,,,,,,,,,,,,
,,,,,,,,,,,,,,,,,,,,,,
,,,,,,,,,,,,,,,,,,,,,,
,,,,,,,,,,,,,,,,,,,,,,
,,,,,,,,,,,,,,,,,,,,,,
,,,,,,,,,,,,,,,,,,,,,,
,,,,,,,,,,,,,,,,,,,,,,
,,,,,,,,,,,,,,,,,,,,,,
,,,,,,,,,,,,,,,,,,,,,,
,,,,,,,,,,,,,,,,,,,,,,
,,,,,,,,,,,,,,,,,,,,,,
,,,,,,,,,,,,,,,,,,,,,,
,,,,,,,,,,,,,,,,,,,,,,
,,,,,,,,,,,,,,,,,,,,,,
,,,,,,,,,,,,,,,,,,,,,,
,,,,,,,,,,,,,,,,,,,,,,
,,,,,,,,,,,,,,,,,,,,,,
,,,,,,,,,,,,,,,,,,,,,,
,,,,,,,,,,,,,,,,,,,,,,
,,,,,,,,,,,,,,,,,,,,,,
,,,,,,,,,,,,,,,,,,,,,,
,,,,,,,,,,,,,,,,,,,,,,
,,,,,,,,,,,,,,,,,,,,,,
,,,,,,,,,,,,,,,,,,,,,,
,,,,,,,,,,,,,,,,,,,,,,
,,,,,,,,,,,,,,,,,,,,,,
,,,,,,,,,,,,,,,,,,,,,,
,,,,,,,,,,,,,,,,,,,,,,
,,,,,,,,,,,,,,,,,,,,,,
,,,,,,,,,,,,,,,,,,,,,,
,,,,,,,,,,,,,,,,,,,,,,
,,,,,,,,,,,,,,,,,,,,,,
,,,,,,,,,,,,,,,,,,,,,,
,,,,,,,,,,,,,,,,,,,,,,
,,,,,,,,,,,,,,,,,,,,,,
,,,,,,,,,,,,,,,,,,,,,,
,,,,,,,,,,,,,,,,,,,,,,
,,,,,,,,,,,,,,,,,,,,,,
,,,,,,,,,,,,,,,,,,,,,,
,,,,,,,,,,,,,,,,,,,,,,
,,,,,,,,,,,,,,,,,,,,,,
,,,,,,,,,,,,,,,,,,,,,,
,,,,,,,,,,,,,,,,,,,,,,
,,,,,,,,,,,,,,,,,,,,,,
,,,,,,,,,,,,,,,,,,,,,,
,,,,,,,,,,,,,,,,,,,,,,
,,,,,,,,,,,,,,,,,,,,,,
,,,,,,,,,,,,,,,,,,,,,,
,,,,,,,,,,,,,,,,,,,,,,
,,,,,,,,,,,,,,,,,,,,,,
,,,,,,,,,,,,,,,,,,,,,,
,,,,,,,,,,,,,,,,,,,,,,
,,,,,,,,,,,,,,,,,,,,,,
,,,,,,,,,,,,,,,,,,,,,,
,,,,,,,,,,,,,,,,,,,,,,
,,,,,,,,,,,,,,,,,,,,,,
,,,,,,,,,,,,,,,,,,,,,,
,,,,,,,,,,,,,,,,,,,,,,
,,,,,,,,,,,,,,,,,,,,,,
,,,,,,,,,,,,,,,,,,,,,,
,,,,,,,,,,,,,,,,,,,,,,
,,,,,,,,,,,,,,,,,,,,,,
,,,,,,,,,,,,,,,,,,,,,,
,,,,,,,,,,,,,,,,,,,,,,
,,,,,,,,,,,,,,,,,,,,,,
,,,,,,,,,,,,, Lucknow, Uttar Pradesh,,,,,,,,
,,,,,,,,,,,,, Uttar Pradesh,,,,,,,,,
,,,,,,,,,,,,, Unnao, Uttar Pradesh,,,,,,,,
,,,,,,,,,,,,, Lucknow, Uttar Pradesh,,,,,,,,
,,,,,,,,,,,,,,,,,,,,,,
,,,,,,,,,,,,,,,,,,,,,,
,,,,,,,,,,,,,,,,,,,,,,
,,,,,,,,,,,,,,,,,,,,,,
,,,,,,,,,,,,,,,,,,,,,,
,,,,,,,,,,,,,,,,,,,,,,
,,,,,,,,,,,,,,,,,,,,,,
,,,,,,,,,,,,,,,,,,,,,,
,,,,,,,,,,,,,,,,,,,,,,
,,,,,,,,,,,,,,,,,,,,,,
,,,,,,,,,,,,,,,,,,,,,,
,,,,,,,,,,,,,,,,,,,,,,
,,,,,,,,,,,,,,,,,,,,,,
,,,,,,,,,,,,,,,,,,,,,,
,,,,,,,,,,,,,,,,,,,,,,
,,,,,,,,,,,,,,,,,,,,,,
,,,,,,,,,,,,,,,,,,,,,,
,,,,,,,,,,,,,,,,,,,,,,
,,,,,,,,,,,,,,,,,,,,,,
,,,,,,,,,,,,,,,,,,,,,,
,,,,,,,,,,,,,,,,,,,,,,
,,,,,,,,,,,,,,,,,,,,,,
,,,,,,,,,,,,,,,,,,,,,,
,,,,,,,,,,,,,,,,,,,,,,
,,,,,,,,,,,,,,,,,,,,,,
,,,,,,,,,,,,,,,,,,,,,,
,,,,,,,,,,,,,,,,,,,,,,
,,,,,,,,,,,,,,,,,,,,,,
,,,,,,,,,,,,,,,,,,,,,,
,,,,,,,,,,,,,,,,,,,,,,
,,,,,,,,,,,,, Ludhiana, Punjab,,,,,,,,
,,,,,,,,,,,,, Ludhiana, Punjab,,,,,,,,
,,,,,,,,,,,,,,,,,,,,,,
,,,,,,,,,,,,,,,,,,,,,,
,,,,,,,,,,,,,,,,,,,,,,
,,,,,,,,,,,,,,,,,,,,,,
,,,,,,,,,,,,,,,,,,,,,,
,,,,,,,,,,,,,,,,,,,,,,
,,,,,,,,,,,,,,,,,,,,,,
,,,,,,,,,,,,, Chennai, Tamil Nadu,,,,,,,,
,,,,,,,,,,,,,,,,,,,,,,
,,,,,,,,,,,,, Tamil Nadu,,,,,,,,,
,,,,,,,,,,,,, Tamil Nadu,,,,,,,,,
,,,,,,,,,,,,, Tamil Nadu,,,,,,,,,
,,,,,,,,,,,,, Thiruvallur, Chennai, Tamil Nadu,,,,,,,
,,,,,,,,,,,,, TN,,,,,,,,,
,,,,,,,,,,,,, Sethupakkam Village, Tiruvallur Taluk,, Tiruvallur, Tamil Nadu,,,,,
,,,,,,,,,,,,, AAICLAS, Chennai Airport, Meenambakkam, Chennai, Tamil Nadu,,,,,
,,,,,,,,,,,,, 78/4A3, 81/1D1, 81/2C1, 81/1B1B1, 81/1D2, 81/2C1, Chennai, Tamil Nadu,,
,,,,,,,,,,,,,,,,,,,,,,
,,,,,,,,,,,,,,,,,,,,,,
,,,,,,,,,,,,,,,,,,,,,,
,,,,,,,,,,,,,,,,,,,,,,
,,,,,,,,,,,,,,,,,,,,,,
,,,,,,,,,,,,,,,,,,,,,,
,,,,,,,,,,,,,,,,,,,,,,
,,,,,,,,,,,,,,,,,,,,,,
,,,,,,,,,,,,, WA,,,,,,,,,
,,,,,,,,,,,,,,,,,,,,,,
,,,,,,,,,,,,,,,,,,,,,,
,,,,,,,,,,,,,,,,,,,,,,
,,,,,,,,,,,,,,,,,,,,,,
,,,,,,,,,,,,,,,,,,,,,,
,,,,,,,,,,,,,,,,,,,,,,
,,,,,,,,,,,,,,,,,,,,,,
,,,,,,,,,,,,,,,,,,,,,,
,,,,,,,,,,,,,,,,,,,,,,
,,,,,,,,,,,,,,,,,,,,,,
,,,,,,,,,,,,,,,,,,,,,,
,,,,,,,,,,,,,,,,,,,,,,
,,,,,,,,,,,,,,,,,,,,,,
,,,,,,,,,,,,,,,,,,,,,,
,,,,,,,,,,,,,,,,,,,,,,
,,,,,,,,,,,,,,,,,,,,,,
,,,,,,,,,,,,,,,,,,,,,,
,,,,,,,,,,,,,,,,,,,,,,
,,,,,,,,,,,,,,,,,,,,,,
,,,,,,,,,,,,,,,,,,,,,,
,,,,,,,,,,,,,,,,,,,,,,
,,,,,,,,,,,,,,,,,,,,,,
,,,,,,,,,,,,,,,,,,,,,,
,,,,,,,,,,,,,,,,,,,,,,
,,,,,,,,,,,,,,,,,,,,,,
,,,,,,,,,,,,,,,,,,,,,,
,,,,,,,,,,,,,,,,,,,,,,
,,,,,,,,,,,,,,,,,,,,,,
,,,,,,,,,,,,,,,,,,,,,,
,,,,,,,,,,,,,,,,,,,,,,
,,,,,,,,,,,,,,,,,,,,,,
,,,,,,,,,,,,,,,,,,,,,,
,,,,,,,,,,,,,,,,,,,,,,
,,,,,,,,,,,,,,,,,,,,,,
,,,,,,,,,,,,,,,,,,,,,,
,,,,,,,,,,,,,,,,,,,,,,
,,,,,,,,,,,,,,,,,,,,,,
,,,,,,,,,,,,,,,,,,,,,,
,,,,,,,,,,,,,,,,,,,,,,
,,,,,,,,,,,,,,,,,,,,,,
,,,,,,,,,,,,,,,,,,,,,,
,,,,,,,,,,,,,,,,,,,,,,
,,,,,,,,,,,,,,,,,,,,,,
,,,,,,,,,,,,,,,,,,,,,,
,,,,,,,,,,,,,,,,,,,,,,
,,,,,,,,,,,,,,,,,,,,,,
,,,,,,,,,,,,,,,,,,,,,,
,,,,,,,,,,,,,,,,,,,,,,
,,,,,,,,,,,,,,,,,,,,,,
,,,,,,,,,,,,,,,,,,,,,,
,,,,,,,,,,,,,,,,,,,,,,
,,,,,,,,,,,,,,,,,,,,,,
,,,,,,,,,,,,,,,,,,,,,,
,,,,,,,,,,,,,,,,,,,,,,
,,,,,,,,,,,,,,,,,,,,,,
,,,,,,,,,,,,,,,,,,,,,,
,,,,,,,,,,,,,,,,,,,,,,
,,,,,,,,,,,,,,,,,,,,,,
,,,,,,,,,,,,,,,,,,,,,,
,,,,,,,,,,,,,,,,,,,,,,
,,,,,,,,,,,,,,,,,,,,,,
,,,,,,,,,,,,,,,,,,,,,,
,,,,,,,,,,,,,,,,,,,,,,
,,,,,,,,,,,,,,,,,,,,,,
,,,,,,,,,,,,,,,,,,,,,,
,,,,,,,,,,,,,,,,,,,,,,
,,,,,,,,,,,,,,,,,,,,,,
,,,,,,,,,,,,,,,,,,,,,,
,,,,,,,,,,,,,,,,,,,,,,
,,,,,,,,,,,,, Ahmedabad, Gujarat,,,,,,,,
,,,,,,,,,,,,,,,,,,,,,,
,,,,,,,,,,,,,,,,,,,,,,
,,,,,,,,,,,,,,,,,,,,,,
,,,,,,,,,,,,,,,,,,,,,,
,,,,,,,,,,,,,,,,,,,,,,
,,,,,,,,,,,,,,,,,,,,,,
,,,,,,,,,,,,,,,,,,,,,,
,,,,,,,,,,,,,,,,,,,,,,
,,,,,,,,,,,,,,,,,,,,,,
,,,,,,,,,,,,,,,,,,,,,,
,,,,,,,,,,,,,,,,,,,,,,
,,,,,,,,,,,,,,,,,,,,,,
,,,,,,,,,,,,,,,,,,,,,,
,,,,,,,,,,,,,,,,,,,,,,
,,,,,,,,,,,,,,,,,,,,,,
,,,,,,,,,,,,, MN,,,,,,,,,
,,,,,,,,,,,,,,,,,,,,,,
,,,,,,,,,,,,,,,,,,,,,,
,,,,,,,,,,,,,,,,,,,,,,
,,,,,,,,,,,,,,,,,,,,,,
,,,,,,,,,,,,,,,,,,,,,,
,,,,,,,,,,,,,,,,,,,,,,
,,,,,,,,,,,,,,,,,,,,,,
,,,,,,,,,,,,,,,,,,,,,,
,,,,,,,,,,,,,,,,,,,,,,
,,,,,,,,,,,,,,,,,,,,,,
,,,,,,,,,,,,,,,,,,,,,,
,,,,,,,,,,,,,,,,,,,,,,
,,,,,,,,,,,,,,,,,,,,,,
,,,,,,,,,,,,,,,,,,,,,,
,,,,,,,,,,,,,,,,,,,,,,
,,,,,,,,,,,,,,,,,,,,,,
,,,,,,,,,,,,, Chennai, Tamil Nadu,,,,,,,,
,,,,,,,,,,,,,,,,,,,,,,
,,,,,,,,,,,,,,,,,,,,,,
,,,,,,,,,,,,,,,,,,,,,,
,,,,,,,,,,,,,,,,,,,,,,
,,,,,,,,,,,,,,,,,,,,,,
,,,,,,,,,,,,,,,,,,,,,,
,,,,,,,,,,,,,,,,,,,,,,
,,,,,,,,,,,,,,,,,,,,,,
,,,,,,,,,,,,,,,,,,,,,,
,,,,,,,,,,,,,,,,,,,,,,
,,,,,,,,,,,,,,,,,,,,,,
,,,,,,,,,,,,,,,,,,,,,,
,,,,,,,,,,,,,,,,,,,,,,
,,,,,,,,,,,,,,,,,,,,,,
,,,,,,,,,,,,,,,,,,,,,,
,,,,,,,,,,,,,,,,,,,,,,
,,,,,,,,,,,,,,,,,,,,,,
,,,,,,,,,,,,,,,,,,,,,,
,,,,,,,,,,,,,,,,,,,,,,
,,,,,,,,,,,,,,,,,,,,,,
,,,,,,,,,,,,,,,,,,,,,,
,,,,,,,,,,,,,,,,,,,,,,
,,,,,,,,,,,,,,,,,,,,,,
,,,,,,,,,,,,,,,,,,,,,,
,,,,,,,,,,,,,,,,,,,,,,
,,,,,,,,,,,,,,,,,,,,,,
,,,,,,,,,,,,,,,,,,,,,,
,,,,,,,,,,,,,,,,,,,,,,
,,,,,,,,,,,,,,,,,,,,,,
,,,,,,,,,,,,,,,,,,,,,,
,,,,,,,,,,,,,,,,,,,,,,
,,,,,,,,,,,,,,,,,,,,,,
,,,,,,,,,,,,,,,,,,,,,,
,,,,,,,,,,,,,,,,,,,,,,
,,,,,,,,,,,,,,,,,,,,,,
,,,,,,,,,,,,,,,,,,,,,,
,,,,,,,,,,,,,,,,,,,,,,
,,,,,,,,,,,,,,,,,,,,,,
,,,,,,,,,,,,,,,,,,,,,,
,,,,,,,,,,,,,,,,,,,,,,
,,,,,,,,,,,,,,,,,,,,,,
,,,,,,,,,,,,,,,,,,,,,,
,,,,,,,,,,,,,,,,,,,,,,
,,,,,,,,,,,,,,,,,,,,,,
,,,,,,,,,,,,,,,,,,,,,,
,,,,,,,,,,,,,,,,,,,,,,
,,,,,,,,,,,,,,,,,,,,,,
,,,,,,,,,,,,,,,,,,,,,,
,,,,,,,,,,,,,,,,,,,,,,
,,,,,,,,,,,,,,,,,,,,,,
,,,,,,,,,,,,,,,,,,,,,,
,,,,,,,,,,,,,,,,,,,,,,
,,,,,,,,,,,,,,,,,,,,,,
,,,,,,,,,,,,,,,,,,,,,,
,,,,,,,,,,,,,,,,,,,,,,
,,,,,,,,,,,,,,,,,,,,,,
,,,,,,,,,,,,,,,,,,,,,,
,,,,,,,,,,,,,,,,,,,,,,
,,,,,,,,,,,,,,,,,,,,,,
,,,,,,,,,,,,,,,,,,,,,,
,,,,,,,,,,,,,,,,,,,,,,
,,,,,,,,,,,,,,,,,,,,,,
,,,,,,,,,,,,,,,,,,,,,,
,,,,,,,,,,,,,,,,,,,,,,
,,,,,,,,,,,,,,,,,,,,,,
,,,,,,,,,,,,,,,,,,,,,,
,,,,,,,,,,,,,,,,,,,,,,
,,,,,,,,,,,,,,,,,,,,,,
,,,,,,,,,,,,,,,,,,,,,,
,,,,,,,,,,,,, Tochigi,,,,,,,,,
,,,,,,,,,,,,,,,,,,,,,,
,,,,,,,,,,,,,,,,,,,,,,
,,,,,,,,,,,,,,,,,,,,,,
,,,,,,,,,,,,,,,,,,,,,,
,,,,,,,,,,,,,,,,,,,,,,
,,,,,,,,,,,,,,,,,,,,,,
,,,,,,,,,,,,,,,,,,,,,,
,,,,,,,,,,,,,,,,,,,,,,
,,,,,,,,,,,,,,,,,,,,,,
,,,,,,,,,,,,,,,,,,,,,,
,,,,,,,,,,,,, Estado de MÃ©xico,,,,,,,,,
,,,,,,,,,,,,,,,,,,,,,,
,,,,,,,,,,,,,,,,,,,,,,
,,,,,,,,,,,,,,,,,,,,,,
,,,,,,,,,,,,, Estado de MÃ©xico,,,,,,,,,
,,,,,,,,,,,,, FracciOn B, TepotzotlÃ¡n, Estado de MÃ©xico,,,,,,,
,,,,,,,,,,,,, Fukuoka,,,,,,,,,
,,,,,,,,,,,,,,,,,,,,,,
,,,,,,,,,,,,,,,,,,,,,,
,,,,,,,,,,,,,,,,,,,,,,
,,,,,,,,,,,,,,,,,,,,,,
,,,,,,,,,,,,,,,,,,,,,,
,,,,,,,,,,,,,,,,,,,,,,
,,,,,,,,,,,,,,,,,,,,,,
,,,,,,,,,,,,,,,,,,,,,,
,,,,,,,,,,,,,,,,,,,,,,
,,,,,,,,,,,,, PUNE, Maharashtra,,,,,,,,
,,,,,,,,,,,,, Maharashtra,,,,,,,,,
,,,,,,,,,,,,,,,,,,,,,,
,,,,,,,,,,,,,,,,,,,,,,
,,,,,,,,,,,,,,,,,,,,,,
,,,,,,,,,,,,,,,,,,,,,,
,,,,,,,,,,,,, UmÃ¡n, Yucatan,,,,,,,,
,,,,,,,,,,,,,,,,,,,,,,
,,,,,,,,,,,,,,,,,,,,,,
,,,,,,,,,,,,,,,,,,,,,,
,,,,,,,,,,,,,,,,,,,,,,
,,,,,,,,,,,,,,,,,,,,,,
,,,,,,,,,,,,,,,,,,,,,,
,,,,,,,,,,,,,,,,,,,,,,
,,,,,,,,,,,,,,,,,,,,,,
,,,,,,,,,,,,,,,,,,,,,,
,,,,,,,,,,,,,,,,,,,,,,
,,,,,,,,,,,,,,,,,,,,,,
,,,,,,,,,,,,, Ehime,,,,,,,,,
,,,,,,,,,,,,,,,,,,,,,,
,,,,,,,,,,,,,,,,,,,,,,
,,,,,,,,,,,,,,,,,,,,,,
,,,,,,,,,,,,,,,,,,,,,,
,,,,,,,,,,,,,,,,,,,,,,
,,,,,,,,,,,,, MUMBAI, Maharashtra,,,,,,,,
,,,,,,,,,,,,,,,,,,,,,,
,,,,,,,,,,,,,,,,,,,,,,
,,,,,,,,,,,,,,,,,,,,,,
,,,,,,,,,,,,,  Aza Yamamoto, Ooaza Sugisawa, Namioka, Aomori, Aomori,,,,,
,,,,,,,,,,,,, Morioka, Iwate,,,,,,,,
,,,,,,,,,,,,, Akita,,,,,,,,,
,,,,,,,,,,,,,,,,,,,,,,
,,,,,,,,,,,,, Pune, Maharashtra,,,,,,,,
,,,,,,,,,,,,,,,,,,,,,,
,,,,,,,,,,,,,,,,,,,,,,
,,,,,,,,,,,,,,,,,,,,,,
,,,,,,,,,,,,,,,,,,,,,,
,,,,,,,,,,,,,,,,,,,,,,
,,,,,,,,,,,,,,,,,,,,,,
,,,,,,,,,,,,,,,,,,,,,,
,,,,,,,,,,,,, Meerut, Uttar Pradesh,,,,,,,,
,,,,,,,,,,,,,,,,,,,,,,
,,,,,,,,,,,,,,,,,,,,,,
,,,,,,,,,,,,,,,,,,,,,,
,,,,,,,,,,,,,,,,,,,,,,
,,,,,,,,,,,,,,,,,,,,,,
,,,,,,,,,,,,,,,,,,,,,,
,,,,,,,,,,,,,,,,,,,,,,
,,,,,,,,,,,,,,,,,,,,,,
,,,,,,,,,,,,, Gujarat,,,,,,,,,
,,,,,,,,,,,,,,,,,,,,,,
,,,,,,,,,,,,,,,,,,,,,,
,,,,,,,,,,,,,,,,,,,,,,
,,,,,,,,,,,,,,,,,,,,,,
,,,,,,,,,,,,,,,,,,,,,,
,,,,,,,,,,,,,,,,,,,,,,
,,,,,,,,,,,,,,,,,,,,,,
,,,,,,,,,,,,, MD,,,,,,,,,
,,,,,,,,,,,,, Nuevo Leon,,,,,,,,,
,,,,,,,,,,,,,,,,,,,,,,
,,,,,,,,,,,,,,,,,,,,,,
,,,,,,,,,,,,,,,,,,,,,,
,,,,,,,,,,,,,,,,,,,,,,
,,,,,,,,,,,,,,,,,,,,,,
,,,,,,,,,,,,,,,,,,,,,,
,,,,,,,,,,,,,,,,,,,,,,
,,,,,,,,,,,,, Thane, Maharashtra,,,,,,,,
,,,,,,,,,,,,, Maharashtra,,,,,,,,,
,,,,,,,,,,,,, Mumbai, Maharashtra,,,,,,,,
,,,,,,,,,,,,, Maharashtra,,,,,,,,,
,,,,,,,,,,,,,,,,,,,,,,
,,,,,,,,,,,,,,,,,,,,,,
,,,,,,,,,,,,,,,,,,,,,,
,,,,,,,,,,,,,,,,,,,,,,
,,,,,,,,,,,,,,,,,,,,,,
,,,,,,,,,,,,,,,,,,,,,,
,,,,,,,,,,,,,,,,,,,,,,
,,,,,,,,,,,,,,,,,,,,,,
,,,,,,,,,,,,,,,,,,,,,,
,,,,,,,,,,,,, Karnataka,,,,,,,,,
,,,,,,,,,,,,, Nagpur, Maharashtra,,,,,,,,
,,,,,,,,,,,,, Nagpur, Maharashtra,,,,,,,,
,,,,,,,,,,,,,,,,,,,,,,
,,,,,,,,,,,,, Hingna P.S, Nagpur, Maharashtra,,,,,,,
,,,,,,,,,,,,,,,,,,,,,,
,,,,,,,,,,,,,,,,,,,,,,
,,,,,,,,,,,,,,,,,,,,,,
,,,,,,,,,,,,, Gurugram, Haryana,,,,,,,,
,,,,,,,,,,,,, Uttar Pradesh,,,,,,,,,
,,,,,,,,,,,,, Delhi,,,,,,,,,
,,,,,,,,,,,,,, Ghaziabad, Uttar Pradesh,,,,,,,
,,,,,,,,,,,,, New Delhi, Delhi,,,,,,,,
,,,,,,,,,,,,,,,,,,,,,,
,,,,,,,,,,,,, Asahigaoka, Tajimi, Gifu,,,,,,,
,,,,,,,,,,,,, 1-4, 1-6, 61- 1, 61-2, 62-3, 62-4, Shinagawa-cho, Minato-ku, Nagoya, Aichi
,,,,,,,,,,,,,,,,,,,,,,
,,,,,,,,,,,,,,,,,,,,,,
,,,,,,,,,,,,,,,,,,,,,,
,,,,,,,,,,,,,,,,,,,,,,
,,,,,,,,,,,,,,,,,,,,,,
,,,,,,,,,,,,,,,,,,,,,,
,,,,,,,,,,,,,,,,,,,,,,
,,,,,,,,,,,,, Noida Dadri Road, Surajpur, Gautham Budh Nagar, Uttar Pradesh,,,,,,
,,,,,,,,,,,,, New Delhi, Delhi,,,,,,,,
,,,,,,,,,,,,, Noida, Uttar Pradesh,,,,,,,,
,,,,,,,,,,,,, Haryana,,,,,,,,,
,,,,,,,,,,,,,,,,,,,,,,
,,,,,,,,,,,,,,,,,,,,,,
,,,,,,,,,,,,,,,,,,,,,,
,,,,,,,,,,,,,,,,,,,,,,
,,,,,,,,,,,,,,,,,,,,,,
,,,,,,,,,,,,,,,,,,,,,,
,,,,,,,,,,,,,,,,,,,,,,
,,,,,,,,,,,,,,,,,,,,,,
,,,,,,,,,,,,,,,,,,,,,,
,,,,,,,,,,,,,,,,,,,,,,
,,,,,,,,,,,,,,,,,,,,,,
,,,,,,,,,,,,,,,,,,,,,,
,,,,,,,,,,,,,,,,,,,,,,
,,,,,,,,,,,,,,,,,,,,,,
,,,,,,,,,,,,,,,,,,,,,,
,,,,,,,,,,,,,,,,,,,,,,
,,,,,,,,,,,,,,,,,,,,,,
,,,,,,,,,,,,,,,,,,,,,,
,,,,,,,,,,,,,,,,,,,,,,
,,,,,,,,,,,,,,,,,,,,,,
,,,,,,,,,,,,,,,,,,,,,,
,,,,,,,,,,,,,,,,,,,,,,
,,,,,,,,,,,,,,,,,,,,,,
,,,,,,,,,,,,,,,,,,,,,,
,,,,,,,,,,,,,,,,,,,,,,
,,,,,,,,,,,,,,,,,,,,,,
,,,,,,,,,,,,,,,,,,,,,,
,,,,,,,,,,,,,,,,,,,,,,
,,,,,,,,,,,,,,,,,,,,,,
,,,,,,,,,,,,,,,,,,,,,,
,,,,,,,,,,,,,,,,,,,,,,
,,,,,,,,,,,,,,,,,,,,,,
,,,,,,,,,,,,,,,,,,,,,,
,,,,,,,,,,,,,,,,,,,,,,
,,,,,,,,,,,,, BrÃ©tigny-sur-Orge,,,,,,,,,
,,,,,,,,,,,,,,,,,,,,,,
,,,,,,,,,,,,,,,,,,,,,,
,,,,,,,,,,,,,,,,,,,,,,
,,,,,,,,,,,,,,,,,,,,,,
,,,,,,,,,,,,,,,,,,,,,,
,,,,,,,,,,,,,,,,,,,,,,
,,,,,,,,,,,,,,,,,,,,,,
,,,,,,,,,,,,,,,,,,,,,,
,,,,,,,,,,,,,,,,,,,,,,
,,,,,,,,,,,,,,,,,,,,,,
,,,,,,,,,,,,,,,,,,,,,,
,,,,,,,,,,,,,,,,,,,,,,
,,,,,,,,,,,,,,,,,,,,,,
,,,,,,,,,,,,,,,,,,,,,,
,,,,,,,,,,,,,,,,,,,,,,
,,,,,,,,,,,,,,,,,,,,,,
,,,,,,,,,,,,,,,,,,,,,,
,,,,,,,,,,,,, Maharashtra,,,,,,,,,
,,,,,,,,,,,,,,,,,,,,,,
,,,,,,,,,,,,,137/2/3(p),137/3/B(p), Thane, Maharashtra,,,,,,
,,,,,,,,,,,,, Mumbai, MH,,,,,,,,
,,,,,,,,,,,,,,,,,,,,,,
,,,,,,,,,,,,, TX,,,,,,,,,
,,,,,,,,,,,,,,,,,,,,,,
,,,,,,,,,,,,, Haryana,,,,,,,,,
,,,,,,,,,,,,,,,,,,,,,,
,,,,,,,,,,,,, Gurugram, Haryana,,,,,,,,
,,,,,,,,,,,,,,,,,,,,,,
,,,,,,,,,,,,,,,,,,,,,,
,,,,,,,,,,,,,,,,,,,,,,
,,,,,,,,,,,,,,,,,,,,,,
,,,,,,,,,,,,,,,,,,,,,,
,,,,,,,,,,,,,,,,,,,,,,
,,,,,,,,,,,,,,,,,,,,,,
,,,,,,,,,,,,,,,,,,,,,,
,,,,,,,,,,,,,,,,,,,,,,
,,,,,,,,,,,,,,,,,,,,,,
,,,,,,,,,,,,,,,,,,,,,,
,,,,,,,,,,,,,,,,,,,,,,
,,,,,,,,,,,,,,,,,,,,,,
,,,,,,,,,,,,,,,,,,,,,,
,,,,,,,,,,,,,,,,,,,,,,
,,,,,,,,,,,,,,,,,,,,,,
,,,,,,,,,,,,,,,,,,,,,,
,,,,,,,,,,,,,,,,,,,,,,
,,,,,,,,,,,,,,,,,,,,,,
,,,,,,,,,,,,,,,,,,,,,,
,,,,,,,,,,,,,,,,,,,,,,
,,,,,,,,,,,,,,,,,,,,,,
,,,,,,,,,,,,,,,,,,,,,,
,,,,,,,,,,,,,,,,,,,,,,
,,,,,,,,,,,,, Bangalore, Karnataka,,,,,,,,
,,,,,,,,,,,,, Karnataka,,,,,,,,,
,,,,,,,,,,,,, Bangalore, Karnataka,,,,,,,,
,,,,,,,,,,,,,,,,,,,,,,
,,,,,,,,,,,,,,,,,,,,,,
,,,,,,,,,,,,,,,,,,,,,,
,,,,,,,,,,,,, Tamil Nadu,,,,,,,,,
,,,,,,,,,,,,,,,,,,,,,,
,,,,,,,,,,,,,,,,,,,,,,
,,,,,,,,,,,,, Haryana,,,,,,,,,
,,,,,,,,,,,,,,,,,,,,,,
,,,,,,,,,,,,,,,,,,,,,,
,,,,,,,,,,,,,,,,,,,,,,
,,,,,,,,,,,,,,,,,,,,,,
,,,,,,,,,,,,,,,,,,,,,,
,,,,,,,,,,,,,,,,,,,,,,
,,,,,,,,,,,,,,,,,,,,,,
,,,,,,,,,,,,,,,,,,,,,,
,,,,,,,,,,,,,,,,,,,,,,
,,,,,,,,,,,,,,,,,,,,,,
,,,,,,,,,,,,,,,,,,,,,,
,,,,,,,,,,,,,,,,,,,,,,
,,,,,,,,,,,,,,,,,,,,,,
,,,,,,,,,,,,,,,,,,,,,,
,,,,,,,,,,,,,,,,,,,,,,
,,,,,,,,,,,,, TN,,,,,,,,,
,,,,,,,,,,,,, Chennai, TN,,,,,,,,
,,,,,,,,,,,,,,,,,,,,,,
,,,,,,,,,,,,,,,,,,,,,,
,,,,,,,,,,,,,,,,,,,,,,
,,,,,,,,,,,,,,,,,,,,,,
,,,,,,,,,,,,, Delhi,,,,,,,,,
,,,,,,,,,,,,,385,388,389,390,391,392,395, PUNE, Maharashtra,
,,,,,,,,,,,,, Pune, Maharashtra,,,,,,,,
,,,,,,,,,,,,, Pune, Maharashtra,,,,,,,,
,,,,,,,,,,,,, Maharashtra,,,,,,,,,
,,,,,,,,,,,,,,,,,,,,,,
,,,,,,,,,,,,, Samipillai Thoattam, Puducherry, Tamil Nadu,,,,,,,
,,,,,,,,,,,,, Puducherry, Tamilnadu,,,,,,,,
,,,,,,,,,,,,, RS,,,,,,,,,
,,,,,,,,,,,,,,,,,,,,,,
,,,,,,,,,,,,,,,,,,,,,,
,,,,,,,,,,,,,,,,,,,,,,
,,,,,,,,,,,,,,,,,,,,,,
,,,,,,,,,,,,,,,,,,,,,,
,,,,,,,,,,,,,,,,,,,,,,
,,,,,,,,,,,,,,,,,,,,,,
,,,,,,,,,,,,,,,,,,,,,,
,,,,,,,,,,,,,,,,,,,,,,
,,,,,,,,,,,,,,,,,,,,,,
,,,,,,,,,,,,,,,,,,,,,,
,,,,,,,,,,,,,,,,,,,,,,
,,,,,,,,,,,,,,,,,,,,,,
,,,,,,,,,,,,,,,,,,,,,,
,,,,,,,,,,,,,,,,,,,,,,
,,,,,,,,,,,,,,,,,,,,,,
,,,,,,,,,,,,,,,,,,,,,,
,,,,,,,,,,,,, Coimbatore, Tamil Nadu,,,,,,,,
,,,,,,,,,,,,, Tokyo,,,,,,,,,
,,,,,,,,,,,,,,,,,,,,,,
,,,,,,,,,,,,, TX,,,,,,,,,
,,,,,,,,,,,,,,,,,,,,,,
,,,,,,,,,,,,,,,,,,,,,,
,,,,,,,,,,,,,,,,,,,,,,
,,,,,,,,,,,,, Abu Dhabi,,,,,,,,,
,,,,,,,,,,,,, Chiba,,,,,,,,,
,,,,,,,,,,,,,,,,,,,,,,
,,,,,,,,,,,,, Chiba,,,,,,,,,
,,,,,,,,,,,,, Chiba,,,,,,,,,
,,,,,,,,,,,,,,,,,,,,,,
,,,,,,,,,,,,,,,,,,,,,,
,,,,,,,,,,,,,,,,,,,,,,
,,,,,,,,,,,,, Pedro Escobedo, Queretaro,,,,,,,,
,,,,,,,,,,,,,,,,,,,,,,
,,,,,,,,,,,,,,,,,,,,,,
,,,,,,,,,,,,,,,,,,,,,,
,,,,,,,,,,,,,,,,,,,,,,
,,,,,,,,,,,,,,,,,,,,,,
,,,,,,,,,,,,,,,,,,,,,,
,,,,,,,,,,,,,,,,,,,,,,
,,,,,,,,,,,,,,,,,,,,,,
,,,,,,,,,,,,,,,,,,,,,,
,,,,,,,,,,,,,,,,,,,,,,
,,,,,,,,,,,,,,,,,,,,,,
,,,,,,,,,,,,,,,,,,,,,,
,,,,,,,,,,,,, PE,,,,,,,,,
,,,,,,,,,,,,, PE,,,,,,,,,
,,,,,,,,,,,,,,,,,,,,,,
,,,,,,,,,,,,,,,,,,,,,,
,,,,,,,,,,,,,,,,,,,,,,
,,,,,,,,,,,,,,,,,,,,,,
,,,,,,,,,,,,,,,,,,,,,,
,,,,,,,,,,,,,,,,,,,,,,
,,,,,,,,,,,,,,,,,,,,,,
,,,,,,,,,,,,,,,,,,,,,,
,,,,,,,,,,,,,,,,,,,,,,
,,,,,,,,,,,,,,,,,,,,,,
,,,,,,,,,,,,,,,,,,,,,,
,,,,,,,,,,,,,,,,,,,,,,
,,,,,,,,,,,,,,,,,,,,,,
,,,,,,,,,,,,,,,,,,,,,,
,,,,,,,,,,,,,,,,,,,,,,
,,,,,,,,,,,,,,,,,,,,,,
,,,,,,,,,,,,,,,,,,,,,,
,,,,,,,,,,,,,,,,,,,,,,
,,,,,,,,,,,,,,,,,,,,,,
,,,,,,,,,,,,, Riyadh,,,,,,,,,
,,,,,,,,,,,,,,,,,,,,,,
,,,,,,,,,,,,,,,,,,,,,,
,,,,,,,,,,,,,,,,,,,,,,
,,,,,,,,,,,,,,,,,,,,,,
,,,,,,,,,,,,,,,,,,,,,,
,,,,,,,,,,,,,,,,,,,,,,
,,,,,,,,,,,,,,,,,,,,,,
,,,,,,,,,,,,,,,,,,,,,,
,,,,,,,,,,,,,,,,,,,,,,
,,,,,,,,,,,,,,,,,,,,,,
,,,,,,,,,,,,,,,,,,,,,,
,,,,,,,,,,,,,,,,,,,,,,
,,,,,,,,,,,,,,,,,,,,,,
,,,,,,,,,,,,,,,,,,,,,,
,,,,,,,,,,,,,,,,,,,,,,
,,,,,,,,,,,,,,,,,,,,,,
,,,,,,,,,,,,,,,,,,,,,,
,,,,,,,,,,,,,,,,,,,,,,
,,,,,,,,,,,,,,,,,,,,,,
,,,,,,,,,,,,,,,,,,,,,,
,,,,,,,,,,,,,,,,,,,,,,
,,,,,,,,,,,,,,,,,,,,,,
,,,,,,,,,,,,,,,,,,,,,,
,,,,,,,,,,,,,,,,,,,,,,
,,,,,,,,,,,,,,,,,,,,,,
,,,,,,,,,,,,,,,,,,,,,,
,,,,,,,,,,,,,,,,,,,,,,
,,,,,,,,,,,,,,,,,,,,,,
,,,,,,,,,,,,,,,,,,,,,,
,,,,,,,,,,,,,,,,,,,,,,
,,,,,,,,,,,,,,,,,,,,,,
,,,,,,,,,,,,,,,,,,,,,,
,,,,,,,,,,,,,,,,,,,,,,
,,,,,,,,,,,,,,,,,,,,,,
,,,,,,,,,,,,,,,,,,,,,,
,,,,,,,,,,,,,,,,,,,,,,
,,,,,,,,,,,,,,,,,,,,,,
,,,,,,,,,,,,, Nagawara Main Road,, Bangalore, Karnataka,,,,,,
,,,,,,,,,,,,, Bengaluru, KA,,,,,,,,
,,,,,,,,,,,,,,,,,,,,,,
,,,,,,,,,,,,,,,,,,,,,,
,,,,,,,,,,,,,,,,,,,,,,
,,,,,,,,,,,,,,,,,,,,,,
,,,,,,,,,,,,,,,,,,,,,,
,,,,,,,,,,,,,,,,,,,,,,
,,,,,,,,,,,,,,,,,,,,,,
,,,,,,,,,,,,,,,,,,,,,,
,,,,,,,,,,,,,,,,,,,,,,
,,,,,,,,,,,,,,,,,,,,,,
,,,,,,,,,,,,,,,,,,,,,,
,,,,,,,,,,,,,,,,,,,,,,
,,,,,,,,,,,,,,,,,,,,,,
,,,,,,,,,,,,,,,,,,,,,,
,,,,,,,,,,,,,,,,,,,,,,
,,,,,,,,,,,,,,,,,,,,,,
,,,,,,,,,,,,,,,,,,,,,,
,,,,,,,,,,,,,,,,,,,,,,
,,,,,,,,,,,,,,,,,,,,,,
,,,,,,,,,,,,,,,,,,,,,,
,,,,,,,,,,,,,,,,,,,,,,
,,,,,,,,,,,,,,,,,,,,,,
,,,,,,,,,,,,,,,,,,,,,,
,,,,,,,,,,,,,,,,,,,,,,
,,,,,,,,,,,,,,,,,,,,,,
,,,,,,,,,,,,,,,,,,,,,,
,,,,,,,,,,,,,,,,,,,,,,
,,,,,,,,,,,,,,,,,,,,,,
,,,,,,,,,,,,,,,,,,,,,,
,,,,,,,,,,,,, Miyagi,,,,,,,,,
,,,,,,,,,,,,,,,,,,,,,,
,,,,,,,,,,,,,,,,,,,,,,
,,,,,,,,,,,,,,,,,,,,,,
,,,,,,,,,,,,,,,,,,,,,,
,,,,,,,,,,,,,,,,,,,,,,
,,,,,,,,,,,,,,,,,,,,,,
,,,,,,,,,,,,,,,,,,,,,,
,,,,,,,,,,,,,,,,,,,,,,
,,,,,,,,,,,,,,,,,,,,,,
,,,,,,,,,,,,,,,,,,,,,,
,,,,,,,,,,,,,,,,,,,,,,
,,,,,,,,,,,,,,,,,,,,,,
,,,,,,,,,,,,,,,,,,,,,,
,,,,,,,,,,,,,,,,,,,,,,
,,,,,,,,,,,,,,,,,,,,,,
,,,,,,,,,,,,,,,,,,,,,,
,,,,,,,,,,,,,,,,,,,,,,
,,,,,,,,,,,,,,,,,,,,,,
,,,,,,,,,,,,,,,,,,,,,,
,,,,,,,,,,,,,,,,,,,,,,
,,,,,,,,,,,,,,,,,,,,,,
,,,,,,,,,,,,,,,,,,,,,,
,,,,,,,,,,,,,,,,,,,,,,
,,,,,,,,,,,,,,,,,,,,,,
,,,,,,,,,,,,,,,,,,,,,,
,,,,,,,,,,,,,,,,,,,,,,
,,,,,,,,,,,,,,,,,,,,,,
,,,,,,,,,,,,,,,,,,,,,,
,,,,,,,,,,,,,,,,,,,,,,
,,,,,,,,,,,,,,,,,,,,,,
,,,,,,,,,,,,,,,,,,,,,,
,,,,,,,,,,,,,,,,,,,,,,
,,,,,,,,,,,,,,,,,,,,,,
,,,,,,,,,,,,,,,,,,,,,,
,,,,,,,,,,,,,,,,,,,,,,
,,,,,,,,,,,,,,,,,,,,,,
,,,,,,,,,,,,,,,,,,,,,,
,,,,,,,,,,,,,,,,,,,,,,
,,,,,,,,,,,,,,,,,,,,,,
,,,,,,,,,,,,,,,,,,,,,,
,,,,,,,,,,,,,,,,,,,,,,
,,,,,,,,,,,,,,,,,,,,,,
,,,,,,,,,,,,,,,,,,,,,,
,,,,,,,,,,,,,,,,,,,,,,
,,,,,,,,,,,,,,,,,,,,,,
,,,,,,,,,,,,,,,,,,,,,,
,,,,,,,,,,,,,,,,,,,,,,
,,,,,,,,,,,,,,,,,,,,,,
,,,,,,,,,,,,,,,,,,,,,,
,,,,,,,,,,,,,,,,,,,,,,
,,,,,,,,,,,,,,,,,,,,,,
,,,,,,,,,,,,,,,,,,,,,,
,,,,,,,,,,,,,,,,,,,,,,
,,,,,,,,,,,,,,,,,,,,,,
,,,,,,,,,,,,,,,,,,,,,,
,,,,,,,,,,,,,,,,,,,,,,
,,,,,,,,,,,,,,,,,,,,,,
,,,,,,,,,,,,,,,,,,,,,,
,,,,,,,,,,,,,,,,,,,,,,
,,,,,,,,,,,,,,,,,,,,,,
,,,,,,,,,,,,,,,,,,,,,,
,,,,,,,,,,,,,,,,,,,,,,
,,,,,,,,,,,,,,,,,,,,,,
,,,,,,,,,,,,,,,,,,,,,,
,,,,,,,,,,,,,,,,,,,,,,
,,,,,,,,,,,,,,,,,,,,,,
,,,,,,,,,,,,,,,,,,,,,,
,,,,,,,,,,,,,,,,,,,,,,
,,,,,,,,,,,,,,,,,,,,,,
,,,,,,,,,,,,,,,,,,,,,,
,,,,,,,,,,,,,,,,,,,,,,
,,,,,,,,,,,,,,,,,,,,,,
,,,,,,,,,,,,,,,,,,,,,,
,,,,,,,,,,,,,,,,,,,,,,
,,,,,,,,,,,,,,,,,,,,,,
,,,,,,,,,,,,,,,,,,,,,,
,,,,,,,,,,,,,,,,,,,,,,
,,,,,,,,,,,,,,,,,,,,,,
,,,,,,,,,,,,,,,,,,,,,,
,,,,,,,,,,,,,,,,,,,,,,
,,,,,,,,,,,,,,,,,,,,,,
,,,,,,,,,,,,,,,,,,,,,,
,,,,,,,,,,,,,,,,,,,,,,
,,,,,,,,,,,,,,,,,,,,,,
,,,,,,,,,,,,,,,,,,,,,,
,,,,,,,,,,,,,,,,,,,,,,
,,,,,,,,,,,,,,,,,,,,,,
,,,,,,,,,,,,,,,,,,,,,,
,,,,,,,,,,,,,,,,,,,,,,
,,,,,,,,,,,,,,,,,,,,,,
,,,,,,,,,,,,,,,,,,,,,,
,,,,,,,,,,,,,,,,,,,,,,
,,,,,,,,,,,,,,,,,,,,,,
,,,,,,,,,,,,,,,,,,,,,,
,,,,,,,,,,,,,,,,,,,,,,
,,,,,,,,,,,,,,,,,,,,,,
,,,,,,,,,,,,,,,,,,,,,,
,,,,,,,,,,,,,,,,,,,,,,
,,,,,,,,,,,,,,,,,,,,,,
,,,,,,,,,,,,,,,,,,,,,,
,,,,,,,,,,,,,,,,,,,,,,
,,,,,,,,,,,,,,,,,,,,,,
,,,,,,,,,,,,,,,,,,,,,,
,,,,,,,,,,,,,,,,,,,,,,
,,,,,,,,,,,,,,,,,,,,,,
,,,,,,,,,,,,,,,,,,,,,,
,,,,,,,,,,,,,,,,,,,,,,
,,,,,,,,,,,,,,,,,,,,,,
,,,,,,,,,,,,,,,,,,,,,,
,,,,,,,,,,,,,,,,,,,,,,
,,,,,,,,,,,,,,,,,,,,,,
,,,,,,,,,,,,,,,,,,,,,,
,,,,,,,,,,,,,,,,,,,,,,
,,,,,,,,,,,,,,,,,,,,,,
,,,,,,,,,,,,,,,,,,,,,,
,,,,,,,,,,,,,,,,,,,,,,
,,,,,,,,,,,,,,,,,,,,,,
,,,,,,,,,,,,,,,,,,,,,,
,,,,,,,,,,,,,,,,,,,,,,
,,,,,,,,,,,,,,,,,,,,,,
,,,,,,,,,,,,,,,,,,,,,,
,,,,,,,,,,,,,16/3C, 18/1A, 18/1A2, 18/1B, 18/1B1, 19/1A, 20/1 and 20/2, Salem, Tamil Nadu,
,,,,,,,,,,,,,,,,,,,,,,
,,,,,,,,,,,,,,,,,,,,,,
,,,,,,,,,,,,,,,,,,,,,,
,,,,,,,,,,,,,,,,,,,,,,
,,,,,,,,,,,,,,,,,,,,,,
,,,,,,,,,,,,,,,,,,,,,,
,,,,,,,,,,,,,,,,,,,,,,
,,,,,,,,,,,,,,,,,,,,,,
,,,,,,,,,,,,,,,,,,,,,,
,,,,,,,,,,,,,,,,,,,,,,
,,,,,,,,,,,,,,,,,,,,,,
,,,,,,,,,,,,,,,,,,,,,,
,,,,,,,,,,,,,,,,,,,,,,
,,,,,,,,,,,,,,,,,,,,,,
,,,,,,,,,,,,,,,,,,,,,,
,,,,,,,,,,,,,,,,,,,,,,
,,,,,,,,,,,,,,,,,,,,,,
,,,,,,,,,,,,,,,,,,,,,,
,,,,,,,,,,,,,,,,,,,,,,
,,,,,,,,,,,,,,,,,,,,,,
,,,,,,,,,,,,,,,,,,,,,,
,,,,,,,,,,,,,,,,,,,,,,
,,,,,,,,,,,,,,,,,,,,,,
,,,,,,,,,,,,,,,,,,,,,,
,,,,,,,,,,,,,,,,,,,,,,
,,,,,,,,,,,,,,,,,,,,,,
,,,,,,,,,,,,,,,,,,,,,,
,,,,,,,,,,,,, Alessandria,,,,,,,,,
,,,,,,,,,,,,,,,,,,,,,,
,,,,,,,,,,,,,,,,,,,,,,
,,,,,,,,,,,,,,,,,,,,,,
,,,,,,,,,,,,,,,,,,,,,,
,,,,,,,,,,,,,,,,,,,,,,
,,,,,,,,,,,,,,,,,,,,,,
,,,,,,,,,,,,,,,,,,,,,,
,,,,,,,,,,,,,,,,,,,,,,
,,,,,,,,,,,,,,,,,,,,,,
,,,,,,,,,,,,,,,,,,,,,,
,,,,,,,,,,,,, Saitama,,,,,,,,,
,,,,,,,,,,,,,,,,,,,,,,
,,,,,,,,,,,,, Nishi Inter-chome, Sakado, Saitama,,,,,,,
,,,,,,,,,,,,, Saitama,,,,,,,,,
,,,,,,,,,,,,, Sagamihara, Kanagawa,,,,,,,,
,,,,,,,,,,,,,,,,,,,,,,
,,,,,,,,,,,,,,,,,,,,,,
,,,,,,,,,,,,,,,,,,,,,,
,,,,,,,,,,,,,B/H Jodhapur Village Satellite, Ahmedabad, Gujarat,,,,,,,
,,,,,,,,,,,,,,,,,,,,,,
,,,,,,,,,,,,,,,,,,,,,,
,,,,,,,,,,,,, Bangalore, Karnataka,,,,,,,,
,,,,,,,,,,,,, Karnataka,,,,,,,,,
,,,,,,,,,,,,, Bangalore, Karnataka,,,,,,,,
,,,,,,,,,,,,, Mumbai, Maharashtra,,,,,,,,
,,,,,,,,,,,,, Mumbai, Maharashtra,,,,,,,,
,,,,,,,,,,,,, Maharashtra,,,,,,,,,
,,,,,,,,,,,,,,,,,,,,,,
,,,,,,,,,,,,,,,,,,,,,,
,,,,,,,,,,,,, Maharashtra,,,,,,,,,
,,,,,,,,,,,,,,,,,,,,,,
,,,,,,,,,,,,,,,,,,,,,,
,,,,,,,,,,,,,,,,,,,,,,
,,,,,,,,,,,,,,,,,,,,,,
,,,,,,,,,,,,,,,,,,,,,,
,,,,,,,,,,,,,,,,,,,,,,
,,,,,,,,,,,,,,,,,,,,,,
,,,,,,,,,,,,, West Bengal,,,,,,,,,
,,,,,,,,,,,,,,,,,,,,,,
,,,,,,,,,,,,, Delhi,,,,,,,,,
,,,,,,,,,,,,, Uttar Pradesh,,,,,,,,,
,,,,,,,,,,,,,,,,,,,,,,
,,,,,,,,,,,,,,,,,,,,,,
,,,,,,,,,,,,,,,,,,,,,,
,,,,,,,,,,,,,,,,,,,,,,
,,,,,,,,,,,,,,,,,,,,,,
,,,,,,,,,,,,,,,,,,,,,,
,,,,,,,,,,,,,,,,,,,,,,
,,,,,,,,,,,,,,,,,,,,,,
,,,,,,,,,,,,,,,,,,,,,,
,,,,,,,,,,,,,,,,,,,,,,
,,,,,,,,,,,,, Hyderabad, Telangana,,,,,,,,
,,,,,,,,,,,,,,,,,,,,,,
,,,,,,,,,,,,,,,,,,,,,,
,,,,,,,,,,,,,,,,,,,,,,
,,,,,,,,,,,,,,,,,,,,,,
,,,,,,,,,,,,, Rajasthan,,,,,,,,,
,,,,,,,,,,,,,,,,,,,,,,
,,,,,,,,,,,,, Vernon, CA,,,,,,,,
,,,,,,,,,,,,,,,,,,,,,,
,,,,,,,,,,,,,,,,,,,,,,
,,,,,,,,,,,,,,,,,,,,,,
,,,,,,,,,,,,,,,,,,,,,,
,,,,,,,,,,,,,,,,,,,,,,
,,,,,,,,,,,,, Tamil Nadu,,,,,,,,,
,,,,,,,,,,,,, Arcot road,, Chennai, Tamil Nadu,,,,,,
,,,,,,,,,,,,,,,,,,,,,,
,,,,,,,,,,,,,,,,,,,,,,
,,,,,,,,,,,,,,,,,,,,,,
,,,,,,,,,,,,,,,,,,,,,,
,,,,,,,,,,,,,,,,,,,,,,
,,,,,,,,,,,,,,,,,,,,,,
,,,,,,,,,,,,,,,,,,,,,,
,,,,,,,,,,,,,,,,,,,,,,
,,,,,,,,,,,,,,,,,,,,,,
,,,,,,,,,,,,,,,,,,,,,,
,,,,,,,,,,,,,,,,,,,,,,
,,,,,,,,,,,,,,,,,,,,,,
,,,,,,,,,,,,,,,,,,,,,,
,,,,,,,,,,,,,,,,,,,,,,
,,,,,,,,,,,,,,,,,,,,,,
,,,,,,,,,,,,,,,,,,,,,,
,,,,,,,,,,,,, Maharashtra,,,,,,,,,
,,,,,,,,,,,,,,,,,,,,,,
,,,,,,,,,,,,,,,,,,,,,,
,,,,,,,,,,,,,,,,,,,,,,
,,,,,,,,,,,,,,,,,,,,,,
,,,,,,,,,,,,,,,,,,,,,,
,,,,,,,,,,,,,,,,,,,,,,
,,,,,,,,,,,,,,,,,,,,,,
,,,,,,,,,,,,,,,,,,,,,,
,,,,,,,,,,,,,,,,,,,,,,
,,,,,,,,,,,,,,,,,,,,,,
,,,,,,,,,,,,,,,,,,,,,,
,,,,,,,,,,,,,,,,,,,,,,
,,,,,,,,,,,,,,,,,,,,,,
,,,,,,,,,,,,,,,,,,,,,,
,,,,,,,,,,,,,,,,,,,,,,
,,,,,,,,,,,,,,,,,,,,,,
,,,,,,,,,,,,, Birminghan,,,,,,,,,
,,,,,,,,,,,,,,,,,,,,,,
,,,,,,,,,,,,,,,,,,,,,,
,,,,,,,,,,,,,,,,,,,,,,
,,,,,,,,,,,,,,,,,,,,,,
,,,,,,,,,,,,,,,,,,,,,,
,,,,,,,,,,,,,,,,,,,,,,
,,,,,,,,,,,,,,,,,,,,,,
,,,,,,,,,,,,,,,,,,,,,,
,,,,,,,,,,,,,,,,,,,,,,
,,,,,,,,,,,,, Zaragoza,,,,,,,,,
,,,,,,,,,,,,,147 part of 148 village mamidipalli Taluk  Sarror Nagar, Hyderabad, Telangana,,,,,,,
,,,,,,,,,,,,,147 part of 148 village mamidipalli Taluk Sarror Nagar, Hyderabad, Telangana,,,,,,,
,,,,,,,,,,,,, Kandrika, Payakapuram, Vijayawada, Andhra Pradesh,,,,,,
,,,,,,,,,,,,,,,,,,,,,,
,,,,,,,,,,,,,,,,,,,,,,
,,,,,,,,,,,,,,,,,,,,,,
,,,,,,,,,,,,,,,,,,,,,,
,,,,,,,,,,,,,,,,,,,,,,
,,,,,,,,,,,,,,,,,,,,,,
,,,,,,,,,,,,,,,,,,,,,,
,,,,,,,,,,,,,,,,,,,,,,
,,,,,,,,,,,,, Varanasi, Uttar Pradesh,,,,,,,,
,,,,,,,,,,,,, Andhra Pradesh,,,,,,,,,
,,,,,,,,,,,,,,,,,,,,,,
,,,,,,,,,,,,,,,,,,,,,,
,,,,,,,,,,,,,,,,,,,,,,
,,,,,,,,,,,,,,,,,,,,,,
,,,,,,,,,,,,,,,,,,,,,,
,,,,,,,,,,,,,,,,,,,,,,
,,,,,,,,,,,,,,,,,,,,,,
,,,,,,,,,,,,,,,,,,,,,,
,,,,,,,,,,,,,,,,,,,,,,
,,,,,,,,,,,,,,,,,,,,,,
,,,,,,,,,,,,,,,,,,,,,,
,,,,,,,,,,,,,,,,,,,,,,
,,,,,,,,,,,,,,,,,,,,,,
,,,,,,,,,,,,,,,,,,,,,,
,,,,,,,,,,,,,,,,,,,,,,
,,,,,,,,,,,,,,,,,,,,,,
,,,,,,,,,,,,,,,,,,,,,,
,,,,,,,,,,,,,,,,,,,,,,
,,,,,,,,,,,,,,,,,,,,,,
,,,,,,,,,,,,,,,,,,,,,,
,,,,,,,,,,,,,,,,,,,,,,
,,,,,,,,,,,,,,,,,,,,,,
,,,,,,,,,,,,,,,,,,,,,,
,,,,,,,,,,,,,,,,,,,,,,
,,,,,,,,,,,,,,,,,,,,,,
,,,,,,,,,,,,,,,,,,,,,,
,,,,,,,,,,,,, Gaylord, MI,,,,,,,,
,,,,,,,,,,,,,,,,,,,,,,
,,,,,,,,,,,,,,,,,,,,,,
,,,,,,,,,,,,,,,,,,,,,,
,,,,,,,,,,,,,,,,,,,,,,
,,,,,,,,,,,,,,,,,,,,,,
,,,,,,,,,,,,,,,,,,,,,,
,,,,,,,,,,,,,,,,,,,,,,
,,,,,,,,,,,,,,,,,,,,,,
,,,,,,,,,,,,,,,,,,,,,,
,,,,,,,,,,,,,,,,,,,,,,
,,,,,,,,,,,,,,,,,,,,,,
,,,,,,,,,,,,,,,,,,,,,,
,,,,,,,,,,,,,,,,,,,,,,
,,,,,,,,,,,,,,,,,,,,,,
,,,,,,,,,,,,,,,,,,,,,,
,,,,,,,,,,,,,,,,,,,,,,
,,,,,,,,,,,,,,,,,,,,,,
,,,,,,,,,,,,,,,,,,,,,,
,,,,,,,,,,,,,,,,,,,,,,
,,,,,,,,,,,,,,,,,,,,,,
,,,,,,,,,,,,,,,,,,,,,,
,,,,,,,,,,,,,,,,,,,,,,
,,,,,,,,,,,,,,,,,,,,,,
,,,,,,,,,,,,,,,,,,,,,,
,,,,,,,,,,,,,,,,,,,,,,
,,,,,,,,,,,,,,,,,,,,,,
,,,,,,,,,,,,,,,,,,,,,,
,,,,,,,,,,,,,,,,,,,,,,
,,,,,,,,,,,,,,,,,,,,,,
,,,,,,,,,,,,,,,,,,,,,,
,,,,,,,,,,,,,,,,,,,,,,
,,,,,,,,,,,,,,,,,,,,,,
,,,,,,,,,,,,,,,,,,,,,,
,,,,,,,,,,,,,,,,,,,,,,
,,,,,,,,,,,,,,,,,,,,,,
,,,,,,,,,,,,,,,,,,,,,,
,,,,,,,,,,,,,,,,,,,,,,
,,,,,,,,,,,,,,,,,,,,,,
,,,,,,,,,,,,,,,,,,,,,,
,,,,,,,,,,,,,,,,,,,,,,
,,,,,,,,,,,,,,,,,,,,,,
,,,,,,,,,,,,,,,,,,,,,,
,,,,,,,,,,,,,,,,,,,,,,
,,,,,,,,,,,,,,,,,,,,,,
,,,,,,,,,,,,,,,,,,,,,,
,,,,,,,,,,,,,,,,,,,,,,
,,,,,,,,,,,,,,,,,,,,,,
,,,,,,,,,,,,,,,,,,,,,,
,,,,,,,,,,,,,,,,,,,,,,
,,,,,,,,,,,,,,,,,,,,,,
,,,,,,,,,,,,,,,,,,,,,,
,,,,,,,,,,,,,,,,,,,,,,
,,,,,,,,,,,,,,,,,,,,,,
,,,,,,,,,,,,,,,,,,,,,,
,,,,,,,,,,,,,,,,,,,,,,
,,,,,,,,,,,,,,,,,,,,,,
,,,,,,,,,,,,,,,,,,,,,,
,,,,,,,,,,,,, MT,,,,,,,,,
,,,,,,,,,,,,,,,,,,,,,,
,,,,,,,,,,,,,,,,,,,,,,
,,,,,,,,,,,,,,,,,,,,,,
,,,,,,,,,,,,,,,,,,,,,,
,,,,,,,,,,,,,,,,,,,,,,
,,,,,,,,,,,,,,,,,,,,,,
,,,,,,,,,,,,,,,,,,,,,,
,,,,,,,,,,,,,,,,,,,,,,
,,,,,,,,,,,,,,,,,,,,,,
,,,,,,,,,,,,,,,,,,,,,,
,,,,,,,,,,,,,,,,,,,,,,
,,,,,,,,,,,,,,,,,,,,,,
,,,,,,,,,,,,,,,,,,,,,,
,,,,,,,,,,,,, Williston, ND,,,,,,,,
,,,,,,,,,,,,,,,,,,,,,,
,,,,,,,,,,,,,,,,,,,,,,
,,,,,,,,,,,,,,,,,,,,,,
,,,,,,,,,,,,,,,,,,,,,,
,,,,,,,,,,,,,,,,,,,,,,
,,,,,,,,,,,,,,,,,,,,,,
,,,,,,,,,,,,,,,,,,,,,,
,,,,,,,,,,,,,,,,,,,,,,
,,,,,,,,,,,,,,,,,,,,,,
,,,,,,,,,,,,,,,,,,,,,,
,,,,,,,,,,,,,,,,,,,,,,
,,,,,,,,,,,,,,,,,,,,,,
,,,,,,,,,,,,,,,,,,,,,,
,,,,,,,,,,,,,,,,,,,,,,
,,,,,,,,,,,,,,,,,,,,,,
,,,,,,,,,,,,,,,,,,,,,,
,,,,,,,,,,,,,,,,,,,,,,
,,,,,,,,,,,,,,,,,,,,,,
,,,,,,,,,,,,,,,,,,,,,,
,,,,,,,,,,,,,,,,,,,,,,
,,,,,,,,,,,,,,,,,,,,,,
,,,,,,,,,,,,,,,,,,,,,,
,,,,,,,,,,,,,,,,,,,,,,
,,,,,,,,,,,,,,,,,,,,,,
,,,,,,,,,,,,,,,,,,,,,,
,,,,,,,,,,,,,,,,,,,,,,
,,,,,,,,,,,,,,,,,,,,,,
,,,,,,,,,,,,,,,,,,,,,,
,,,,,,,,,,,,,,,,,,,,,,
,,,,,,,,,,,,,,,,,,,,,,
,,,,,,,,,,,,,,,,,,,,,,
,,,,,,,,,,,,,,,,,,,,,,
,,,,,,,,,,,,,,,,,,,,,,
,,,,,,,,,,,,,,,,,,,,,,
,,,,,,,,,,,,,,,,,,,,,,
,,,,,,,,,,,,,,,,,,,,,,
,,,,,,,,,,,,,,,,,,,,,,
,,,,,,,,,,,,,,,,,,,,,,
,,,,,,,,,,,,,,,,,,,,,,
,,,,,,,,,,,,,,,,,,,,,,
,,,,,,,,,,,,,,,,,,,,,,
,,,,,,,,,,,,,,,,,,,,,,
,,,,,,,,,,,,,,,,,,,,,,
,,,,,,,,,,,,,,,,,,,,,,
,,,,,,,,,,,,,,,,,,,,,,
,,,,,,,,,,,,,,,,,,,,,,
,,,,,,,,,,,,,,,,,,,,,,
,,,,,,,,,,,,,,,,,,,,,,
,,,,,,,,,,,,,,,,,,,,,,
,,,,,,,,,,,,,,,,,,,,,,
,,,,,,,,,,,,,,,,,,,,,,
,,,,,,,,,,,,,,,,,,,,,,
,,,,,,,,,,,,,,,,,,,,,,
,,,,,,,,,,,,,,,,,,,,,,
,,,,,,,,,,,,,,,,,,,,,,
,,,,,,,,,,,,,,,,,,,,,,
,,,,,,,,,,,,,,,,,,,,,,
,,,,,,,,,,,,,,,,,,,,,,
,,,,,,,,,,,,,,,,,,,,,,
,,,,,,,,,,,,,,,,,,,,,,
,,,,,,,,,,,,, WA,,,,,,,,,
,,,,,,,,,,,,,,,,,,,,,,
,,,,,,,,,,,,,,,,,,,,,,
,,,,,,,,,,,,,,,,,,,,,,
,,,,,,,,,,,,,,,,,,,,,,
,,,,,,,,,,,,,,,,,,,,,,
,,,,,,,,,,,,,,,,,,,,,,
,,,,,,,,,,,,,,,,,,,,,,
,,,,,,,,,,,,,,,,,,,,,,
,,,,,,,,,,,,,,,,,,,,,,
,,,,,,,,,,,,,,,,,,,,,,
,,,,,,,,,,,,,,,,,,,,,,
,,,,,,,,,,,,,,,,,,,,,,
,,,,,,,,,,,,,,,,,,,,,,
,,,,,,,,,,,,,,,,,,,,,,
,,,,,,,,,,,,,,,,,,,,,,
,,,,,,,,,,,,,,,,,,,,,,
,,,,,,,,,,,,, VA,,,,,,,,,
,,,,,,,,,,,,,,,,,,,,,,
,,,,,,,,,,,,,,,,,,,,,,
,,,,,,,,,,,,,,,,,,,,,,
,,,,,,,,,,,,,,,,,,,,,,
,,,,,,,,,,,,,,,,,,,,,,
,,,,,,,,,,,,,,,,,,,,,,
,,,,,,,,,,,,,,,,,,,,,,
,,,,,,,,,,,,, QLD,,,,,,,,,
,,,,,,,,,,,,,,,,,,,,,,
,,,,,,,,,,,,,,,,,,,,,,
,,,,,,,,,,,,,,,,,,,,,,
,,,,,,,,,,,,,,,,,,,,,,
,,,,,,,,,,,,,,,,,,,,,,
,,,,,,,,,,,,,,,,,,,,,,
,,,,,,,,,,,,,,,,,,,,,,
,,,,,,,,,,,,,,,,,,,,,,
,,,,,,,,,,,,,,,,,,,,,,
,,,,,,,,,,,,,,,,,,,,,,
,,,,,,,,,,,,,,,,,,,,,,
,,,,,,,,,,,,, NSW,,,,,,,,,
,,,,,,,,,,,,,,,,,,,,,,
,,,,,,,,,,,,,,,,,,,,,,
,,,,,,,,,,,,,,,,,,,,,,
,,,,,,,,,,,,,,,,,,,,,,
,,,,,,,,,,,,,,,,,,,,,,
,,,,,,,,,,,,, SP,,,,,,,,,
,,,,,,,,,,,,,,,,,,,,,,
,,,,,,,,,,,,,,,,,,,,,,
,,,,,,,,,,,,,,,,,,,,,,
,,,,,,,,,,,,,,,,,,,,,,
,,,,,,,,,,,,,,,,,,,,,,
,,,,,,,,,,,,,,,,,,,,,,
,,,,,,,,,,,,,,,,,,,,,,
,,,,,,,,,,,,,,,,,,,,,,
,,,,,,,,,,,,,,,,,,,,,,
,,,,,,,,,,,,,,,,,,,,,,
,,,,,,,,,,,,,,,,,,,,,,
,,,,,,,,,,,,,,,,,,,,,,
,,,,,,,,,,,,,,,,,,,,,,
,,,,,,,,,,,,,,,,,,,,,,
,,,,,,,,,,,,,,,,,,,,,,
,,,,,,,,,,,,,,,,,,,,,,
,,,,,,,,,,,,,,,,,,,,,,
,,,,,,,,,,,,,,,,,,,,,,
,,,,,,,,,,,,,,,,,,,,,,
,,,,,,,,,,,,,,,,,,,,,,
,,,,,,,,,,,,,,,,,,,,,,
,,,,,,,,,,,,,,,,,,,,,,
,,,,,,,,,,,,,,,,,,,,,,
,,,,,,,,,,,,,,,,,,,,,,
,,,,,,,,,,,,, QC,,,,,,,,,
,,,,,,,,,,,,,,,,,,,,,,
,,,,,,,,,,,,,,,,,,,,,,
,,,,,,,,,,,,,,,,,,,,,,
,,,,,,,,,,,,,,,,,,,,,,
,,,,,,,,,,,,,,,,,,,,,,
,,,,,,,,,,,,,,,,,,,,,,
,,,,,,,,,,,,,,,,,,,,,,
,,,,,,,,,,,,,,,,,,,,,,
,,,,,,,,,,,,,,,,,,,,,,
,,,,,,,,,,,,,,,,,,,,,,
,,,,,,,,,,,,,,,,,,,,,,
,,,,,,,,,,,,,,,,,,,,,,
,,,,,,,,,,,,,,,,,,,,,,
,,,,,,,,,,,,,,,,,,,,,,
,,,,,,,,,,,,,,,,,,,,,,
,,,,,,,,,,,,,,,,,,,,,,
,,,,,,,,,,,,,,,,,,,,,,
,,,,,,,,,,,,,,,,,,,,,,
,,,,,,,,,,,,,,,,,,,,,,
,,,,,,,,,,,,,,,,,,,,,,
,,,,,,,,,,,,,,,,,,,,,,
,,,,,,,,,,,,, La Muela (Zaragoza),,,,,,,,,